Name,Address,Latitude,Longitude,Tel,Image_URL
스테이지게스트하우스,제주특별자치도 제주시 구좌읍 해맞이해안로 2361,33.5290971,126.8463777,(+82) 010-6701-2464,"""https://api.cdn.visitjeju.net/photomng/imgpath/201804/30/710b56bb-d705-4844-bcef-ffa05cfc9b82.jpg"""
스토리인제주게스트하우스,제주특별자치도 제주시 중앙로12길 5,33.5118299,126.5238883,(+82) 064-757-3796,"""https://api.cdn.visitjeju.net/photomng/imgpath/201912/13/c94db85e-941f-4eb9-8d80-eb9413167375.jpg"""
스토리하우스펜션,제주특별자치도 제주시 도리중길 37,33.5021255,126.4627364,(+82) 064-702-8231,""""""
스톤성민박,제주특별자치도 서귀포시 일주서로 866,33.2587767,126.4180946,(+82) 064-738-2607,"""https://api.cdn.visitjeju.net/photomng/imgpath/201912/04/d2fcb663-42c6-4277-a295-b5fe2ed9e80f.jpg"""
스프링데일골프앤리조트,제주특별자치도 서귀포시 남원읍 서성로 459,33.3188775,126.6742738,(+82) 064-800-8000,"""https://api.cdn.visitjeju.net/photomng/imgpath/201804/30/3e20b536-05b4-4fdb-b57c-1deace02b515.jpg"""
시땅,제주특별자치도 제주시 애월읍 고내북동길 47,33.4689053,126.3427128,(+82) 064-799-7978,"""https://api.cdn.visitjeju.net/photomng/imgpath/202211/10/84b56236-5718-4bfb-924d-52b34a76cb2a.jpg"""
시루네펜션,제주특별자치도 서귀포시 검은여로 79,33.250585,126.581051,(+82) 010-7163-2205,"""https://api.cdn.visitjeju.net/photomng/imgpath/202212/09/5d0ed436-3fef-4775-bc25-3bc3dacf9d53.jpg"""
시월애,제주특별자치도 서귀포시 대정읍 무릉사장로 154,33.2575316,126.191039,(+82) 0504-3090-3857,"""https://api.cdn.visitjeju.net/photomng/imgpath/202211/08/770c2f9c-6b7f-48fd-a3ee-fcdf0b315228.jpg"""
신강남모텔,제주특별자치도 제주시 서광로3길 2,33.5004392,126.5135544,(+82) 064-753-8770,"""https://api.cdn.visitjeju.net/photomng/imgpath/201804/30/1e0dd95f-635d-4e59-bf2b-2fb10aa07cb9.jpg"""
신등대민박,제주특별자치도 제주시 추자면 추자로 12,33.9633135,126.2976367,(+82) 064-742-3868,"""https://api.cdn.visitjeju.net/photomng/imgpath/201908/21/927cf26f-1f7c-4d24-b729-a2aa982423ee.jpg"""
신신호텔 제주공항,"제주특별자치도 제주시 도령로 124 (연동, 신신호텔 제주공항) 신신호텔 제주공항",33.4922698,126.4906496,(+82) 064-797-5000,"""https://api.cdn.visitjeju.net/photomng/imgpath/202402/07/c55f7e6a-3e3e-481b-a644-b2cc1ff50f39.jpg"""
신신호텔 제주오션,제주특별자치도 서귀포시 중앙로 55 (서귀동) 신신호텔 제주오션,33.2459813,126.5623574,(+82) 064-730-5800,"""https://api.cdn.visitjeju.net/photomng/imgpath/202402/07/22812751-92e2-4078-946f-6e33321f4cc2.jpg"""
신신호텔 천지연,제주특별자치도 서귀포시 서문로 42-1 (서귀동) 신신호텔 천지연,33.2495146,126.5576159,(+82) 064-735-9000,"""https://api.cdn.visitjeju.net/photomng/imgpath/202402/07/1a8535f2-5cc9-47cd-b2c8-456598000d6c.jpg"""
신촌돌집,제주특별자치도 제주시 조천읍 신촌5길 30,33.536657,126.6208308,(+82) 010-8660-4772,"""https://api.cdn.visitjeju.net/photomng/imgpath/201804/30/73aff9b8-c4ad-429f-9429-70d7aaa5c8a9.jpg"""
신흥소시민,제주특별자치도 제주시 조천읍 신흥로1길 21,33.5473731,126.6506608,(+82) 010-3764-1318,"""https://api.cdn.visitjeju.net/photomng/imgpath/202211/09/d5677b19-b2db-424f-b58d-337dfede5c47.jpg"""
실크로드펜션,제주특별자치도 제주시 용해로 21-4,33.5147723,126.5032299,(+82) 064-712-2939,"""https://api.cdn.visitjeju.net/photomng/imgpath/201804/30/d9eb994e-ab12-447c-9872-20f09d7c465c.jpg"""
심스호텔,제주특별자치도 제주시 임항로 249,33.5178315,126.5395719,(+82) 064-750-8988,"""https://api.cdn.visitjeju.net/photomng/imgpath/202106/04/48364f14-d040-4a44-893a-9fe5b017cf71.jpg"""
썬라이즈호텔,제주특별자치도 서귀포시 중문관광로 310,33.2475605,126.4305389,(+82) 064-763-2299,"""https://api.cdn.visitjeju.net/photomng/imgpath/201804/30/85a88b65-6886-498c-aae8-c6dbdb25e2dd.gif"""
썬레이크빌제주,제주특별자치도 서귀포시 성산읍 한도로 49,33.467521,126.913397,(+82) 064-782-2277,"""https://api.cdn.visitjeju.net/photomng/imgpath/201804/30/7d70c062-e040-451e-a1d8-84ac13e0030d.gif"""
썬베이펜션,제주특별자치도 제주시 서흘길 14,33.5269659,126.5883026,(+82) 064-726-3132,"""https://api.cdn.visitjeju.net/photomng/imgpath/201804/30/36e33554-7f41-49ab-ad85-a0cc02df9c90.jpg"""
썬비치리조트,제주특별자치도 제주시 서해안로 114,33.5026549,126.4614316,(+82) 064-726-6668,"""https://api.cdn.visitjeju.net/photomng/imgpath/201804/30/bcde3fb7-fe9e-48ac-9d96-22d1563397f1.gif"""
썬비치민박,제주특별자치도 제주시 우도면 우도해안길 810,33.5134529,126.9573552,(+82) 064-738-5003,"""https://api.cdn.visitjeju.net/photomng/imgpath/201804/30/cad1960b-8acc-4462-bbf1-fafa8904736d.jpg"""
썬앤문리조트,제주특별자치도 서귀포시 안덕면 사계남로 102,33.2273951,126.3010481,(+82) 064-794-6633,"""https://api.cdn.visitjeju.net/photomng/imgpath/201809/04/97214c7e-f2c0-401a-b21d-3db77a02e1b8.jpg"""
쏠레 민박,제주특별자치도 서귀포시 성산읍 성산등용로 96-1,33.4701348,126.9300832,(+82) 064-784-1668,"""https://api.cdn.visitjeju.net/photomng/imgpath/201804/30/4ba2fad5-be64-4ee4-ab24-318e486dd075.jpg"""
씨사이드아덴,제주특별자치도 서귀포시 중문관광로 124,33.2484223,126.414164,(+82) 064-731-9888,"""https://api.cdn.visitjeju.net/photomng/imgpath/202002/04/31d1ec6e-d297-4531-842e-ca18d078d181.jpg"""
씨스테이 리틀해녀 블루,제주특별자치도 제주시 용마로4길 15,33.5154348,126.5066955,(+82) 070-8670-2588,"""https://api.cdn.visitjeju.net/photomng/imgpath/202201/17/22c18be7-fbeb-4692-bdcf-f89f44178e10.jpg"""
씨스테이호텔,제주특별자치도 제주시 애월읍 애월해안로 255,33.4675822,126.3389913,(+82) 0507-1343-7757,"""https://api.cdn.visitjeju.net/photomng/imgpath/201804/30/5e23145d-a27c-43a0-af0c-c718726e526d.gif"""
씨앤하우스,제주특별자치도 제주시 조천읍 조천9길 10,33.5368665,126.6368047,(+82) 010-9322-9762,"""https://api.cdn.visitjeju.net/photomng/imgpath/202206/15/b91d5928-bc14-40f6-8627-9207d53231f1.jpg"""
씨제이 관광호텔,제주특별자치도 제주시 광양8길 24,33.4998048,126.5270835,(+82) 064-755-7413,"""https://api.cdn.visitjeju.net/photomng/imgpath/201804/30/e92af37b-b4f7-444d-81d6-cf5ade05557d.gif"""
아델리아빌,제주특별자치도 제주시 내도9길 8-15,33.4937882,126.4442533,(+82) 064-742-3800,"""https://api.cdn.visitjeju.net/photomng/imgpath/201804/30/4ccf1e0a-4df1-4cbe-8587-537087fe7a4f.jpg"""
아뜨네통나무펜션,제주특별자치도 제주시 애월읍 상하귀길 91,33.4756921,126.4163249,(+82) 010-2299-9514,"""https://api.cdn.visitjeju.net/photomng/imgpath/202212/05/f773b5d6-ae4d-434f-852d-157ca19f8d12.jpg"""
아띠랑스 풀앤스파 호텔,제주특별자치도 서귀포시 성산읍 해맞이해안로 2614,33.4775018,126.9090288,(+82) 064-900-5003,"""https://api.cdn.visitjeju.net/photomng/imgpath/202206/15/83ff72ca-81f0-4179-8c2a-c66c2110f5e1.jpg"""
아란치아,제주특별자치도 서귀포시 염돈로 65,33.254583,126.4919422,(+82) 0507-1430-1039,"""https://api.cdn.visitjeju.net/photomng/imgpath/202308/18/ba4f9dce-eb94-440e-8aa4-e4bfe0e0a0b5.jpg"""
아름다운펜션민박,제주특별자치도 제주시 추자면 영흥4길 62,33.9585608,126.2978611,(+82) 064-743-3835,"""https://api.cdn.visitjeju.net/photomng/imgpath/201908/20/517ed3f0-3872-4007-8718-fe1cf9899848.jpg"""
아리스토캣펜션,제주특별자치도 제주시 서해안로 518,33.5198519,126.494429,(+82) 064-711-9780,"""https://api.cdn.visitjeju.net/photomng/imgpath/201804/30/541810ef-d4c0-43a2-a2ca-837ea8fa7c2a.jpg"""
아림민박,제주특별자치도 제주시 서해안로 456-8,33.5178998,126.4890637,(+82) 064-712-6969,"""https://api.cdn.visitjeju.net/photomng/imgpath/201804/30/d36206c3-444b-4f6d-a401-2a98ab8008fd.jpg"""
아마빌레,제주특별자치도 제주시 애월읍 애월해안로 909,33.4847602,126.3925997,(+82) 064-743-6009,""""""
아모렉스리조트,제주특별자치도 제주시 서해안로 216,33.5074894,126.4702517,(+82) 064-711-0125,"""https://api.cdn.visitjeju.net/photomng/imgpath/201804/30/9229ee3b-6b01-48bd-9d92-c1c0310d4599.jpg"""
아모르하우스 오션뷰펜션,제주특별자치도 제주시 구좌읍 해맞이해안로 2060-18,33.5290971,126.8463777,(+82) 010-4829-3729,"""https://api.cdn.visitjeju.net/photomng/imgpath/201804/30/7bb02d1c-82ac-4a90-b7ed-02cc2871f194.jpg"""
아스타호텔,제주특별자치도 제주시 서사로 129,33.5008535,126.5202518,(+82) 064-710-1112,"""https://api.cdn.visitjeju.net/photomng/imgpath/201804/30/5e0afb3b-6e1b-4ace-a94f-53aed9c758df.gif"""
아이랑 키즈풀빌라,제주특별자치도 제주시 애월읍 고내로7길 34,33.465627,126.3374942,(+82) 010-8757-4376,"""https://api.cdn.visitjeju.net/photomng/imgpath/201804/30/bbe3caed-fb7a-4048-9a2e-73b97d5f145e.jpg"""
아이미 제주비치 호텔,제주특별자치도 제주시 조천읍 조함해안로 474,33.5433543,126.6635261,(+82) 064-780-0000,"""https://api.cdn.visitjeju.net/photomng/imgpath/202205/17/5509d448-c68d-41e8-9e64-8ec5ed29d1b7.jpg"""
아이존호텔,제주특별자치도 제주시 신광로4길 18,33.4890443,126.4882103,(+82) 064-747-9958,"""https://api.cdn.visitjeju.net/photomng/imgpath/201804/30/fe445d71-0b56-4a65-9f3c-e33d1790bedf.gif"""
아일랜드펜션,제주특별자치도 서귀포시 성산읍 금백조로131번길 176,33.4311882,126.8443249,(+82) 010-3789-1645,"""https://api.cdn.visitjeju.net/photomng/imgpath/201804/30/94be3426-ca8d-4a56-b3cc-b61c7b154eb5.gif"""
아침의 새소리펜션,제주특별자치도 서귀포시 남원읍 태수로358번길 3-1,33.3113403,126.7225607,(+82) 064-764-0603,"""https://api.cdn.visitjeju.net/photomng/imgpath/201804/30/af2a0e68-cb60-40f0-92f3-6ef7cf8d76d9.jpg"""
아침의향기,제주특별자치도 서귀포시 색달중앙로 122,33.2656267,126.4143812,(+82) 064-738-4679,"""https://api.cdn.visitjeju.net/photomng/imgpath/201804/30/e044ad4b-fc44-467f-9b38-78d63eefee17.jpg"""
아침해변,제주특별자치도 제주시 조천읍 조함해안로 76-9,33.5439906,126.6380773,(+82) 064-784-6564,"""https://api.cdn.visitjeju.net/photomng/imgpath/201804/30/246272ca-4ddd-4913-a1e7-43d851715f38.gif"""
아쿠아뷰티크,제주특별자치도 제주시 구좌읍 해맞이해안로 522,33.5290971,126.8463777,(+82) 070-4548-1014,"""https://api.cdn.visitjeju.net/photomng/imgpath/201912/13/6fe3ca2d-4aa3-49a8-b81c-9a73a166a0d7.jpg"""
아템파우제,제주특별자치도 제주시 한림읍 월림8길 21,33.3504366,126.2575813,(+82) 010-8314-2590,"""https://api.cdn.visitjeju.net/photomng/imgpath/201811/05/cef9eb56-0391-457e-b013-89e7db7d017d.jpg"""
아토하우스,제주특별자치도 서귀포시 남원읍 신흥앞동산로 84,33.3087137,126.7678186,(+82) 064-764-5279,"""https://api.cdn.visitjeju.net/photomng/imgpath/202211/09/2d289031-b7aa-4c38-9732-54c8ec5bd30b.jpg"""
아트모텔,제주특별자치도 제주시 신대로20길 48,33.4839227,126.4912212,(+82) 064-742-8840,"""https://api.cdn.visitjeju.net/photomng/imgpath/201804/30/d76c262c-4460-4cc3-827d-da9282727ade.jpg"""
안녕김녕sea,제주특별자치도 제주시 구좌읍 구좌해안로 178,33.5592198,126.7313207,(+82) 010-8060-3114,"""https://api.cdn.visitjeju.net/photomng/imgpath/201809/04/9692be37-4df7-493b-a4cf-4cf5ddfd1d3c.jpg"""
안녕프로젝트 게스트하우스,제주특별자치도 제주시 구좌읍 동복로2길 12,33.552061,126.7123303,(+82) 010-3386-8848,"""https://api.cdn.visitjeju.net/photomng/imgpath/201804/30/a17233a9-7539-494e-b566-62522640ce3b.jpg"""
안트레 펜션,제주특별자치도 제주시 한림읍 한림중앙로 154-7,33.4023234,126.2696368,(+82) 064-792-0078,"""https://api.cdn.visitjeju.net/photomng/imgpath/201804/30/758954ad-3401-4a3d-9a3a-fdb89f76ee92.jpg"""
알로하민박,제주특별자치도 제주시 한림읍 협재1길 24,33.3972522,126.2431798,(+82) 010-5174-5564,"""https://api.cdn.visitjeju.net/photomng/imgpath/201804/30/08fd3171-2040-439c-b156-9ae2c55639fd.jpg"""
알앤비타운,제주특별자치도 서귀포시 분토왓로174번길 45,33.2798242,126.5519187,(+82) 064-763-1131,"""https://api.cdn.visitjeju.net/photomng/imgpath/201907/10/0d6fc46a-a452-4ca2-a521-4a938b26de5c.jpg"""
애견동반 상추네,제주특별자치도 서귀포시 검은여로 81-3,33.2505357,126.5807475,(+82) 064-733-0402,"""https://api.cdn.visitjeju.net/photomng/imgpath/202308/18/f394a52f-b01e-4af2-bc5b-8d8245003255.jpg"""
애월하타,제주특별자치도 제주시 애월읍 곽지남3길 21-1,33.4450242,126.3114644,(+82) 0507-1391-3637,"""https://api.cdn.visitjeju.net/photomng/imgpath/202401/12/4fcfb660-1752-4eca-b718-d2cce973d5b2.jpg"""
애월해안누리펜션,제주특별자치도 제주시 애월읍 애월해안로 298,33.4704255,126.3416556,(+82) 064-799-1600,"""https://api.cdn.visitjeju.net/photomng/imgpath/201907/05/f3ec0c3a-01c2-4816-82ab-257ec278d21b.jpg"""
약천골민박,제주특별자치도 서귀포시 이어도로 303,33.2432776,126.451911,(+82) 064-739-9642,"""https://api.cdn.visitjeju.net/photomng/imgpath/201907/04/214e141d-cc90-4e78-9dd7-96bb7200e4ad.jpg"""
언니게스트하우스,제주특별자치도 제주시 구좌읍 대수길 10-12,33.5364595,126.8393778,(+82) 010-8535-0466,"""https://api.cdn.visitjeju.net/photomng/imgpath/201804/30/e7cd1641-3f8b-492b-9182-b7a4c0a2442a.jpg"""
언니네여인숙,제주특별자치도 제주시 구좌읍 종달논길 54,33.4923939,126.8995032,(+82) 010-4416-2312,"""https://api.cdn.visitjeju.net/photomng/imgpath/201810/15/6635e9ef-d6b2-4c49-b2b0-5f1e2f5a84cb.jpg"""
엄블랑펜션,제주특별자치도 서귀포시 안덕면 형제해안로132번길 15-24,33.2209851,126.2921314,(+82)  010-2692-2922,"""https://api.cdn.visitjeju.net/photomng/imgpath/201804/30/ad6a7dea-780c-4b3c-996c-f9478f37d1fd.gif"""
에너벨리민박,제주특별자치도 제주시 한림읍 한림로 356,33.3948398,126.2417932,(+82) 010-4298-1788,"""https://api.cdn.visitjeju.net/photomng/imgpath/201907/04/b2debe50-67f7-47be-b583-24ca38323b5a.jpg"""
에띠에리조트,제주특별자치도 서귀포시 이어도로 738,33.235307,126.4941154,(+82) 064-739-1700,"""https://api.cdn.visitjeju.net/photomng/imgpath/201804/30/86835cc0-36b3-423a-8ada-73920ff5cc26.jpg"""
에리두 Cafe n Beds,제주특별자치도 서귀포시 대포복개로 37,33.2417301,126.434536,(+82) 064-739-5867,"""https://api.cdn.visitjeju.net/photomng/imgpath/201804/30/6e534f59-8853-4a34-8865-0d947496c1d1.jpg"""
에메랄드하우스,제주특별자치도 서귀포시 안덕면 신화역사로 545-66,33.3154941,126.348806,(+82) 0507-1377-0880,"""https://api.cdn.visitjeju.net/photomng/imgpath/202308/18/bcdd11e4-2532-469a-ab8b-81259bac37a1.jpg"""
에바다라이더하우스.공방,제주특별자치도 서귀포시 성산읍 고성중앙로 7-8,33.4469494,126.9043485,"(+82) 01038247331, 01086644013","""https://api.cdn.visitjeju.net/photomng/imgpath/201804/30/2e1f396d-0719-4658-8702-00eeaae16e9e.png"""
에스호텔,제주특별자치도 제주시 오일장중길 26,33.4954164,126.4714525,(+82) 0507-1398-9926,"""https://api.cdn.visitjeju.net/photomng/imgpath/201804/30/f0d0e8f1-e2a9-4e23-a71e-cf26a7c9c24a.gif"""
에이지하우스,제주특별자치도 서귀포시 표선면 돈오름로23번길 36-46,33.3355467,126.8062817,(+82) 064-787-7768,"""https://api.cdn.visitjeju.net/photomng/imgpath/201804/30/6d1eecba-fabf-44cd-9e90-77785c043785.jpg"""
에코그린리조트,제주특별자치도 제주시 한림읍 귀덕6길 94,33.4357006,126.2915662,(+82) 064-796-8333,"""https://api.cdn.visitjeju.net/photomng/imgpath/201809/27/5f6821de-d9b4-4840-88f6-b7fa91774732.jpg"""
에코하우스민박펜션,제주특별자치도 제주시 추자면 추자로 657,33.9497108,126.3293341,(+82) 010-2715-5979,"""https://api.cdn.visitjeju.net/photomng/imgpath/201908/20/6acef8e7-282f-49e5-bb67-93c7154c5619.jpg"""
에쿠스모텔,제주특별자치도 서귀포시 안덕면 화순중앙로54번길 5,33.2471991,126.335322,(+82) 064-792-2341,"""https://api.cdn.visitjeju.net/photomng/imgpath/202212/05/2f9e2fb0-1e81-4c81-bff9-03c7eceb21fa.jpg"""
에퀴녹스 드 협재 펜션,제주특별자치도 제주시 한림읍 협재10길 4,33.39858,126.2466933,(+82) 0507-1438-0231,"""https://api.cdn.visitjeju.net/photomng/imgpath/202212/16/1399eac4-ae6c-4d32-8cfe-52ff06aed1d0.jpg"""
엔젤하우스 펜션,제주특별자치도 제주시 애월읍 신엄안3길 95,33.4724583,126.3577365,(+82) 010-3679-5869,"""https://api.cdn.visitjeju.net/photomng/imgpath/202004/29/611330f4-d92a-44ff-9cd3-b325ddc21895.jpg"""
엘린호텔,제주특별자치도 제주시 은남1길 4,33.4893252,126.4954352,(+82) 064-743-5600,"""https://api.cdn.visitjeju.net/photomng/imgpath/202212/06/793574c6-53c3-47e5-ac13-bb5786a2b71f.jpg"""
엘마르게스트하우스,제주특별자치도 서귀포시 표선면 표선당포로 17,33.3260553,126.8442297,(+82) 010-2911-6256,"""https://api.cdn.visitjeju.net/photomng/imgpath/201804/30/0426209a-67e3-4bad-b8de-7c87fd3c62b9.jpg"""
엘쯔타운 독채펜션,제주특별자치도 제주시 애월읍 유수암평화길 136,33.4302343,126.406994,(+82) -747-9300,"""https://api.cdn.visitjeju.net/photomng/imgpath/202211/08/c94040fe-d1b1-436b-9637-1279affd222d.jpg"""
엠버하우스,제주특별자치도 제주시 애월읍 애월해안로 400,33.472292,126.351037,(+82) 064-799-6200,"""https://api.cdn.visitjeju.net/photomng/imgpath/202211/07/012c8ad9-8110-4036-86bd-b155483b7873.jpg"""
엠버호텔,제주특별자치도 제주시 삼무로 12 (연동),33.4897648,126.4878231,(+82) 064-745-7458,"""https://api.cdn.visitjeju.net/photomng/imgpath/201804/30/f6269996-48da-4c0a-b29f-b8c6f22422f5.jpg"""
엠버호텔 센트럴,제주특별자치도 제주시 노연로 24,33.4858854,126.4826116,(+82) 064-747-0771,"""https://api.cdn.visitjeju.net/photomng/imgpath/201804/30/14b9648a-97ef-4bab-bed4-a0c01266d9d9.gif"""
여래게스트하우스,제주특별자치도 제주시 구좌읍 세화7길 31-2,33.5237192,126.8610005,(+82) 010-2778-4449,"""https://api.cdn.visitjeju.net/photomng/imgpath/201804/30/fcef27c3-6ed3-4e3a-97fd-5d5b1984e2e5.jpg"""
여정여관,제주특별자치도 제주시 추자면 추자로 4-1,33.9626996,126.2978964,(+82) 064-742-8111,"""https://api.cdn.visitjeju.net/photomng/imgpath/201908/20/fcca45e4-859c-4b56-83ac-926de03da399.jpg"""
여행스케치,제주특별자치도 서귀포시 일주서로 694,33.2555533,126.436023,(+82) 064-738-8250,"""https://api.cdn.visitjeju.net/photomng/imgpath/201912/16/0cde30d7-dcbd-4484-a96e-c6f661af9b45.jpg"""
연지민박,제주특별자치도 제주시 우도면 상우목길 26,33.5052904,126.9492932,(+82) 064-783-0031,"""https://api.cdn.visitjeju.net/photomng/imgpath/201804/30/0a520f85-d150-4cb2-8e46-459cf1487631.jpg"""
예다움휴양펜션,제주특별자치도 제주시 백포북길 25,33.5028843,126.4588557,(+82) 064-711-3030,"""https://api.cdn.visitjeju.net/photomng/imgpath/201907/10/79722e70-8ad9-4f9c-9d4c-e42973cb7b6e.jpg"""
옛마을펜션,제주특별자치도 서귀포시 검은여로 80,33.2506728,126.5815681,(+82) 010-8663-4039,"""https://api.cdn.visitjeju.net/photomng/imgpath/202212/09/4200ba09-527e-44b0-8e95-f51eb89090f9.jpg"""
옛살라비펜션,제주특별자치도 제주시 애월읍 광령8길 47,33.4571353,126.4409107,(+82) 064-744-9066,"""https://api.cdn.visitjeju.net/photomng/imgpath/201804/30/71345544-b003-4b0b-8697-a058f10d7b2a.jpg"""
오랑제리펜션,제주특별자치도 서귀포시 법환상로2번길 58,33.2446434,126.5144519,(+82) 064-739-5872,"""https://api.cdn.visitjeju.net/photomng/imgpath/201804/30/6b3076bc-27f4-4aef-bb24-d37cf3bb0bf9.jpg"""
오렌지트리 호텔,제주특별자치도 제주시 관덕로8길 7-12,33.5123131,126.5243383,(+82) 064-755-8688 (1899-4233),"""https://api.cdn.visitjeju.net/photomng/imgpath/201804/30/604df286-3fd3-4c5d-aba9-93bd62a52c6c.jpg"""
오로라호텔,제주특별자치도 제주시 논세길 51,33.4894785,126.4421936,(+82) 064-749-1701,"""https://api.cdn.visitjeju.net/photomng/imgpath/201804/30/489c5be9-42d0-4a86-9d80-09cd204b504e.jpg"""
오롯 바이 에퀴녹스,제주특별자치도 제주시 한림읍 금능길 75,33.389015,126.230963,(+82) 0507-1387-0194,"""https://api.cdn.visitjeju.net/photomng/imgpath/202308/18/772a7eb3-4c94-471d-8444-075ccb9ecc31.jpg"""
오비두스 스테이,제주특별자치도 제주시 애월읍 신엄안3길 138,33.473165,126.3534722,(+82) 064-799-2900,"""https://api.cdn.visitjeju.net/photomng/imgpath/201912/16/644a90b8-64e3-40fa-8f4d-470fd116d430.jpg"""
오빌하우스,제주특별자치도 서귀포시 남원읍 공천포로11번길 15,33.2648175,126.6405288,(+82) 070-7722-0816,"""https://api.cdn.visitjeju.net/photomng/imgpath/201804/30/f658ac35-132d-4481-9774-baeac3172f7b.jpg"""
오션갤러리호텔앤리조트,"제주특별자치도 서귀포시 성산읍 환해장성로 231 (신산리, 오션 갤러리 프리미어 빌라스 2단지)",33.3878039,126.8894445,(+82) 064-784-5434,"""https://api.cdn.visitjeju.net/photomng/imgpath/202305/15/84f3c536-b8a7-40e9-b24d-f83c116f2111.jpg"""
오션그랜드호텔,제주특별자치도 제주시 조천읍 조함해안로 490,33.5425306,126.6651685,(+82) 064-783-0007,"""https://api.cdn.visitjeju.net/photomng/imgpath/202205/30/aa3f187b-7f91-4fa1-bd69-a72c3656215e.jpg"""
오션스카이,제주특별자치도 제주시 구좌읍 덕행로 450-15,33.5129118,126.7787228,(+82) 010-5044-2626,"""https://api.cdn.visitjeju.net/photomng/imgpath/201804/30/5327c975-66b5-4292-97ad-2caaabd5963a.jpg"""
오션트리,제주특별자치도 서귀포시 월드컵로 188,33.2329127,126.5054728,(+82) 064-739-1239,"""https://api.cdn.visitjeju.net/photomng/imgpath/201804/30/dfb2a9b8-6bcc-4d7a-82a7-73197c011927.jpg"""
오션패밀리호텔,제주특별자치도 제주시 일주서로 7531,33.4952795,126.4510239,(+82) 0507-1383-3900,"""https://api.cdn.visitjeju.net/photomng/imgpath/202205/16/a726b020-70bd-4ab0-bec1-858dd4f526c7.jpg"""
오시록헌 AM,제주특별자치도 제주시 한림읍 금능6길 8,33.3878272,126.231918,(+82) 010-9168-4560,"""https://api.cdn.visitjeju.net/photomng/imgpath/201804/30/d0ec86c6-8453-4379-bd74-5ea0e622de77.jpg"""
오조리비앤비,제주특별자치도 서귀포시 성산읍 오조로 42,33.4579364,126.9159506,(+82) 0507-1400-3882,"""https://api.cdn.visitjeju.net/photomng/imgpath/202211/10/31701a2f-9fa8-4d8d-a269-871a23cc9dba.jpg"""
오후여섯시펜션,제주특별자치도 제주시 애월읍 곽지9길 10,33.4521812,126.3076822,(+82) 010-3342-4940,"""https://api.cdn.visitjeju.net/photomng/imgpath/201904/03/649343ea-6346-4648-b100-d87e91d3d9c4.jpg"""
온더스톤펜션,제주특별자치도 서귀포시 성산읍 해맞이해안로 2746,33.4700329,126.9178447,(+82) 0507-1351-2128,"""https://api.cdn.visitjeju.net/photomng/imgpath/202308/18/9509ba11-3210-4cab-9ca0-b9eae90d7828.jpg"""
올레관광호텔,제주특별자치도 제주시 서광로 254,33.4995474,126.5236536,(+82) 064-723-2727,"""https://api.cdn.visitjeju.net/photomng/imgpath/201804/30/7e83659f-86cb-47e6-975f-da7e17f3f9b7.jpg"""
올레스테이,제주특별자치도 서귀포시 중정로 22,33.2474128,126.5587087,(+82) 064-762-2167,"""https://api.cdn.visitjeju.net/photomng/imgpath/201804/30/0b148d60-43ef-4ffd-b174-334a42b4ac85.jpg"""
올레요리조트,제주특별자치도 서귀포시 이어도로 720,33.2347541,126.4927849,(+82) 064-739-8558,"""https://api.cdn.visitjeju.net/photomng/imgpath/201804/30/5ae0a9fa-212d-4311-8354-0d1d2daeeaa3.jpg"""
올레프로방스펜션,제주특별자치도 제주시 애월읍 광령평화2길 170-23,33.4297329,126.4342202,(+82) 010-4740-6774,"""https://api.cdn.visitjeju.net/photomng/imgpath/202212/05/f46c16e3-2a39-4365-a44e-3c894c5685b2.jpg"""
올레해오름펜션,제주특별자치도 제주시 애월읍 광령평화2길 142-19,33.4321898,126.4330288,(+82) 064-745-5544,"""https://api.cdn.visitjeju.net/photomng/imgpath/201804/30/e7b87b47-488f-424f-a109-b2607dd49744.gif"""
올리수펜션,제주특별자치도 서귀포시 중문로5번길 16,33.253195,126.4218348,(+82) 064-738-0340,"""https://api.cdn.visitjeju.net/photomng/imgpath/201907/04/0f29ab13-4add-4f80-bffe-d6ee0f2302ae.jpg"""
옵데가 바이 에퀴녹스,제주특별자치도 제주시 한림읍 협재10길 4,33.39858,126.2466933,(+82) 0507-1400-1747,"""https://api.cdn.visitjeju.net/photomng/imgpath/202308/18/2b602ad6-b770-4303-a91e-bff7f1c2a838.jpg"""
와락 게스트하우스,제주특별자치도 제주시 구좌읍 세평항로 45-4,33.5275523,126.8547803,(+82) 010-6347-9777,"""https://api.cdn.visitjeju.net/photomng/imgpath/201804/30/54a8279d-f5c2-4f70-88b3-cb16cfab2e07.jpg"""
용산제주유스호스텔,제주특별자치도 서귀포시 이어도로 297,33.2439591,126.4514333,(+82) 064-738-9502,"""https://api.cdn.visitjeju.net/photomng/imgpath/202306/27/39a7e79e-2d18-4ea1-a0cc-4b502abb0535.jpg"""
용수차경,제주특별자치도 제주시 한경면 용수2길 7 (용수리) 용수 2길 7,33.3223568,126.169603,(+82) 0507-1303-2362,"""https://api.cdn.visitjeju.net/photomng/imgpath/202304/06/f0cf8b5b-edae-44a4-b5da-3b991a447f1e.jpg"""
우도쉼팡게스트하우스,제주특별자치도 제주시 우도면 우도로 7,33.493594,126.9515111,(+82) 010-9866-0185,"""https://api.cdn.visitjeju.net/photomng/imgpath/201804/30/a8e8876e-6b66-489c-b2fa-bf2699ae6071.jpg"""
우도올레펜션,제주특별자치도 제주시 우도면 전흘길 42,33.5222835,126.9529833,(+82) 064-783-0995,"""https://api.cdn.visitjeju.net/photomng/imgpath/201804/30/e237c1df-89e7-4138-9e12-6c33551059c8.jpg"""
우리두리게스트하우스,제주특별자치도 서귀포시 표선면 민속해안로119번길 10-1,33.3074214,126.8127121,(+82) 010-2616-1822,"""https://api.cdn.visitjeju.net/photomng/imgpath/201804/30/bc3732dd-70c4-456e-9032-1dc5c3b3edff.jpg"""
우연한동,제주특별자치도 제주시 구좌읍 한동북1길 39,33.5416534,126.8289162,(+82) 010-2692-7320,"""https://api.cdn.visitjeju.net/photomng/imgpath/202308/03/e8c6159a-d285-40b9-90a3-3b6dd524e4c1.jpg"""
우연히 행복해지다 펜션,제주특별자치도 제주시 한림읍 한림로 224,33.3866245,126.2316831,(+82) 010-3851-8279,"""https://api.cdn.visitjeju.net/photomng/imgpath/201909/27/446c423d-4281-4e9f-a841-cf533c3fba88.jpg"""
월령지헌,제주특별자치도 제주시 한림읍 월령1길 13-5,33.3754457,126.2155938,(+82) 0507-1495-4248,"""https://api.cdn.visitjeju.net/photomng/imgpath/202211/14/a9fcf5d5-e533-4eb0-8b6f-7b687e76c802.jpg"""
월령채,제주특별자치도 제주시 한림읍 월령3길 27-5,33.3777804,126.2159656,(+82) 010-2019-7876,"""https://api.cdn.visitjeju.net/photomng/imgpath/202207/22/27341e4a-4ae4-4b7f-8247-cc1bcfbe4a91.jpg"""
월정소랑,제주특별자치도 제주시 구좌읍 월정1길 79-3,33.5576138,126.7927797,(+82) 010-5150-2767,"""https://api.cdn.visitjeju.net/photomng/imgpath/201804/30/202a6238-5c33-4a21-a18c-625907c11a12.jpg"""
월정에비뉴,제주특별자치도 제주시 구좌읍 해맞이해안로 486,33.5290971,126.8463777,(+82) 064-784-9006,"""https://api.cdn.visitjeju.net/photomng/imgpath/202111/05/9a49a6c9-0caa-4ba0-b881-1c7766853416.jpg"""
월정플레이스,제주특별자치도 제주시 구좌읍 월정1길 54-34,33.5554471,126.7939908,(+82) 010-8731-5206,"""https://api.cdn.visitjeju.net/photomng/imgpath/201811/02/7495bb6b-9a9f-4b04-9b82-6ec20f49430e.jpg"""
웨스티하우스,제주도 서귀포시 안덕면 일주서로 1488번길9,33.2610332,126.3561249,(+82) 0507-1318-2933,"""https://api.cdn.visitjeju.net/photomng/imgpath/201804/30/8e6a2496-6e0a-4ea9-95cf-23e59ba9fc54.jpg"""
유니호텔제주,제주특별자치도 제주시 애월읍 애월해안로 656,33.4795656,126.3732311,(+82) 064-741-5001,"""https://api.cdn.visitjeju.net/photomng/imgpath/201804/30/9ecd04ad-602b-4abe-81c1-ffb044b111e6.gif"""
유러하우스,제주특별자치도 서귀포시 막숙포로 136,33.2317894,126.5087257,(+82) 064-739-2522,"""https://api.cdn.visitjeju.net/photomng/imgpath/201804/30/de807626-17fe-4371-ade3-4918a7a60f38.jpg"""
유수암캠핑장,제주특별자치도 제주시 애월읍 하소로 684-25,33.4222271,126.3939006,(+82) 0507-1352-6696,"""https://api.cdn.visitjeju.net/photomng/imgpath/202212/15/e66ebba9-934c-4f31-8954-4e3209ea3ad8.jpg"""
유심이감성하우스민박,제주특별자치도 제주시 추자면 추자로 78,33.9607756,126.2956046,(+82) 010-5578-7277,"""https://api.cdn.visitjeju.net/photomng/imgpath/201908/20/de75a424-412c-4c80-a065-4c5188f34918.jpg"""
유창민박,제주특별자치도 제주시 추자면 추자로 46-1,33.9628479,126.2948326,(+82) 064-742-3555,"""https://api.cdn.visitjeju.net/photomng/imgpath/201908/20/77484e94-673f-4e85-ab15-be190bdc99cd.jpg"""
유탑유블레스호텔,제주특별자치도 제주시 조천읍 조함해안로 502,33.5424152,126.6662234,(+82) 064-780-9311,"""https://api.cdn.visitjeju.net/photomng/imgpath/201804/30/1a9f56f0-b7f2-42b7-a218-39a10bea8179.jpg"""
이디살래,제주특별자치도 서귀포시 안덕면 일주서로 2027,33.2495859,126.3013414,(+82) 064-792-7171,"""https://api.cdn.visitjeju.net/photomng/imgpath/201804/30/002b9543-bd65-4524-a433-841e11a33b68.jpg"""
이디완,제주특별자치도 제주시 백포서3길 1,33.5017149,126.4573873,(+82) 010-8567-5851,"""https://api.cdn.visitjeju.net/photomng/imgpath/202301/06/db543203-faff-44e7-bb37-60ec6ca1a903.jpg"""
이레민박,제주특별자치도 제주시 추자면 신양1길 22-9,33.9452944,126.3245341,(+82) 010-4657-1461,"""https://api.cdn.visitjeju.net/photomng/imgpath/201908/20/dc6fdb7a-9399-4637-a4f9-74d61e1bd443.jpg"""
이린펜션,제주특별자치도 서귀포시 일주서로43번길 5,33.249668,126.5036804,(+82) 064-739-5775,"""https://api.cdn.visitjeju.net/photomng/imgpath/201804/30/f4fe3094-c0c4-4ea5-97d4-24beadc1b94e.jpg"""
이쁜새펜션,제주특별자치도 제주시 한림읍 협재로 68-5,33.3922568,126.2469969,(+82) 064-796-8120,"""https://api.cdn.visitjeju.net/photomng/imgpath/201912/03/a6597c96-00ab-4142-a955-21925286f8dc.jpg"""
이안재,제주특별자치도 제주시 구좌읍 종달로5길 35-1 (종달리),33.4933319,126.900207,(+82) 010-7697-4851,"""https://api.cdn.visitjeju.net/photomng/imgpath/201811/19/29b57d4f-a985-4854-816b-f608e2fb524f.jpg"""
이야기별방,제주특별자치도 제주시 구좌읍 해맞이해안로 2040,33.5290971,126.8463777,(+82) 0507-1321-2585,"""https://api.cdn.visitjeju.net/photomng/imgpath/201907/04/35146f3e-a451-4560-a510-0ffcd5b4003c.jpg"""
이어도펜션,제주특별자치도 제주시 도두항서5길 3,33.5045887,126.4640035,(+82) 064-711-2144,"""https://api.cdn.visitjeju.net/photomng/imgpath/201804/30/3b7fc379-99b4-4be3-9a51-74e1dfd8af1d.jpg"""
이찌마루&잠비,제주특별자치도 제주시 구좌읍 월정1길 54-11,33.5554972,126.7934495,(+82) 070-8900-8300,"""https://api.cdn.visitjeju.net/photomng/imgpath/201804/30/209c3c4a-2af5-4009-b1ff-3d328f24e7c5.jpg"""
인더 하우스,제주특별자치도 제주시 애월읍 엄장로 98-41,33.4647803,126.3750128,(+82) 010-3020-2012,"""https://api.cdn.visitjeju.net/photomng/imgpath/202211/02/762f182c-79f9-4857-b72d-7c6b65a6e9c2.jpg"""
인추자커피앤민박,제주특별자치도 제주시 추자면 추자로 20-1,33.9637139,126.2968442,(+82) 064-745-3407,"""https://api.cdn.visitjeju.net/photomng/imgpath/201908/20/3de6b681-e878-48ad-922e-7542bcf803ab.jpg"""
일이오구스튜디오,제주특별자치도 서귀포시 성산읍 난산로27번길 17,33.3993642,126.8719787,(+82),"""https://api.cdn.visitjeju.net/photomng/imgpath/202308/30/02ee3947-9edb-4bf5-84a4-5147cd32b2cb.jpg"""
일출썬 펜션,제주특별자치도 서귀포시 성산읍 성산중앙로65번길 6-2,33.4655081,126.9344914,(+82) 064-784-6400,"""https://api.cdn.visitjeju.net/photomng/imgpath/202211/09/1b3cb158-c7c3-4918-9f6a-1950a5543770.jpg"""
일출언덕신산게스트하우스,제주특별자치도 서귀포시 성산읍 환해장성로121번길 21,33.3842973,126.8799083,(+82) 064-782-1375,"""https://api.cdn.visitjeju.net/photomng/imgpath/202212/05/aedc6ebc-f5c4-407e-93e3-257a4561a862.jpg"""
임진고택,제주특별자치도 제주시 구좌읍 상도로 16-13,33.5132604,126.8634867,(+82) 010-7101-7985,"""https://api.cdn.visitjeju.net/photomng/imgpath/202211/14/5aec7359-8cb1-4aca-8a2f-165cf4eb4ce6.jpg"""
잇츠힐펜션,제주특별자치도 제주시 애월읍 애월해안로 788,33.4868621,126.3835058,(+82) 064-747-0586,"""https://api.cdn.visitjeju.net/photomng/imgpath/201804/30/2d5842fe-5f41-4bf9-8f64-27c9dc52f014.jpg"""
자넷앤캐시,제주시 구좌읍 평대9길 20-1,33.5257158,126.8505924,(+82) 010-5325-8297,"""https://api.cdn.visitjeju.net/photomng/imgpath/202211/08/2b991a13-a85f-4f99-a660-4040bb511617.jpg"""
장원민박,제주특별자치도 서귀포시 천제연로 49,33.2569345,126.4110377,(+82) 064-738-1110,"""https://api.cdn.visitjeju.net/photomng/imgpath/201907/04/c912c95f-f7f0-4cec-8160-21c7709c106e.jpg"""
저스트슬립제주,제주특별자치도 서귀포시 대정읍 무릉중앙로21번길 158-28,33.2581726,126.1952769,(+82) 064-792-0190,"""https://api.cdn.visitjeju.net/photomng/imgpath/201912/05/d35a5194-2e74-4541-8ed0-df44983ff91d.jpg"""
전원민박,제주특별자치도 제주시 우도면 우목길 104,33.5096621,126.9439636,(+82) 010-2604-0410,"""https://api.cdn.visitjeju.net/photomng/imgpath/201804/30/3c3e6b7c-3f13-46d6-828d-f548d09d9839.jpg"""
절물길펜션,제주특별자치도 제주시 명림로 10-1,33.4850084,126.6030546,(+82) 064-723-2737,"""https://api.cdn.visitjeju.net/photomng/imgpath/201907/04/ef235fd7-a871-4f60-96ba-1db9d8ef07b9.jpg"""
제니아관광호텔,제주특별자치도 제주시 은남1길 25,33.4891057,126.4931111,(+82) 064-797-9000,"""https://api.cdn.visitjeju.net/photomng/imgpath/201804/30/5bf78c9e-bde5-43e3-9bbf-3b86d6eab682.jpg"""
제이앤클로이,제주특별자치도 서귀포시 대정읍 무릉중앙로 203,33.2572119,126.1888401,(+82) 010-8557-3350,"""https://api.cdn.visitjeju.net/photomng/imgpath/201804/30/ed2ac19e-5aa3-4220-b9ad-a17990d8186f.jpg"""
제이제이하우스,제주도 서귀포시 중산간서로 241,33.2604684,126.4856177,(+82) 064-739-7891,"""https://api.cdn.visitjeju.net/photomng/imgpath/201804/30/d2a1bd5a-1183-405d-bd5f-65787a4e9944.gif"""
제이펜션,제주특별자치도 서귀포시 안덕면 화순서서로64번길 20,33.2553028,126.3311699,(+82) 064-794-6789,"""https://api.cdn.visitjeju.net/photomng/imgpath/202308/18/2aa09680-f728-45ab-ba96-2fe369e5cca3.jpg"""
제주 또올레 펜션,제주특별자치도 제주시 한경면 판포2길 44,33.360991,126.2013042,(+82) 010-4311-4833,"""https://api.cdn.visitjeju.net/photomng/imgpath/201804/30/4185d26a-fd90-4d31-8fda-e71db5680980.jpg"""
제주 벨루가,제주특별자치도 서귀포시 대정읍 영락하동로85번길 41-1,33.2526273,126.2014282,(+82) 010-8369-2078,"""https://api.cdn.visitjeju.net/photomng/imgpath/202401/15/13b22c81-2853-4472-8c19-7c2921915e47.jpg"""
제주 빠레브호텔,제주특별자치도 서귀포시 김정문화로 15,33.2524864,126.5066594,(+82) 064-735-8899,"""https://api.cdn.visitjeju.net/photomng/imgpath/202002/04/006dee4c-a72e-4a42-b104-71401b3cf27b.jpg"""
제주 해피펜션,제주특별자치도 제주시 월대1길 4,33.4941338,126.4337289,(+82) 010-5699-3971,"""https://api.cdn.visitjeju.net/photomng/imgpath/201911/20/0dfce8cf-24a7-42d5-9e05-827eb7685fe0.jpg"""
제주 호텔 더블유 탑동,제주특별자치도 제주시 임항로 24,33.5163151,126.5272492,(+82) 064-757-0314,"""https://api.cdn.visitjeju.net/photomng/imgpath/201804/30/6cb97ebf-0f7c-4d71-905a-00d72bb71c13.jpg"""
제주 호텔 더원,제주특별자치도 제주시 사장3길 33,33.4826842,126.4914063,(+82) 064-798-0001,"""https://api.cdn.visitjeju.net/photomng/imgpath/201804/30/faf72b10-d3de-4c2c-957b-c4917e8ce8ec.gif"""
제주가온29,제주특별자치도 제주시 애월읍 중산간서로 5409,33.4327244,126.3216606,(+82) 000-1522-4114,"""https://api.cdn.visitjeju.net/photomng/imgpath/202211/09/232f8d21-8169-4815-a43a-b69a85355372.jpg"""
제주게스트하우스 하쿠나마타타,제주특별자치도 제주시 애월읍 고내북동길 17,33.467391,126.3407038,(+82) 010-8220-9112,"""https://api.cdn.visitjeju.net/photomng/imgpath/202211/04/a7cff874-44cf-4ebc-8cbb-7b9bdf37681a.jpg"""
제주공항 게스트하우스 예스준,제주특별자치도 제주시 서해안로 232 (도두일동),33.5011256,126.4715438,(+82) 010-2287-1590,"""https://api.cdn.visitjeju.net/photomng/imgpath/201906/18/eed8e77c-d09c-4a2e-b3f0-fd2b2e0a79c3.jpg"""
제주공항 고추잠자리 게스트하우스,제주특별자치도 제주시 도령로 190,33.4967281,126.4952016,(+82) 010-6283-2434,"""https://api.cdn.visitjeju.net/photomng/imgpath/201804/30/ee38a073-ec67-4c2f-8953-d7735d2a1258.jpg"""
제주구도,제주특별자치도 제주시 조천읍 중산간동로 648 (대흘리),33.5000648,126.6813418,(+82) 010-4745-2210,"""https://api.cdn.visitjeju.net/photomng/imgpath/202402/27/e820a938-0ad3-4393-81aa-8b9c73f60bb7.jpg"""
제주그믐,제주특별자치도 서귀포시 예래해안로 179-23,33.2361999,126.3833462,(+82) 010-7545-7138,"""https://api.cdn.visitjeju.net/photomng/imgpath/202401/12/7d281e23-269b-4e4c-8ffd-92b0e5a9e748.jpg"""
제주금산펜션,제주특별자치도 제주시 애월읍 납읍로2길 40,33.4354558,126.3297623,(+82) 064-799-0400,"""https://api.cdn.visitjeju.net/photomng/imgpath/201804/30/874c9be9-8e46-4ef9-abd9-12a560634e8a.jpg"""
제주나인리조트,제주특별자치도 제주시 해안마을북길 14-5,33.4648632,126.4535028,(+82) 064-722-2222,"""https://api.cdn.visitjeju.net/photomng/imgpath/202205/16/f5b3f0f0-8945-4356-9b32-28a3f051cb8f.jpg"""
제주나인부띠끄호텔,제주특별자치도 서귀포시 솔동산로10번길 23,33.2426135,126.5627572,(+82) 064-762-0045,"""https://api.cdn.visitjeju.net/photomng/imgpath/202212/05/a2fbe03e-f265-478d-99b0-8417629b0c49.jpg"""
제주더힐링하우스,제주특별자치도 제주시 구좌읍 하도7길 130-108 (하도리),33.5179567,126.8973666,(+82) 010-5696-9216,"""https://api.cdn.visitjeju.net/photomng/imgpath/202311/14/4027407e-6c96-487e-9d55-55dd02304375.jpg"""
제주도 애월 파티하는 오누 게스트하우스,제주특별자치도 제주시 애월읍 애월로2길 7,33.4629112,126.3140989,(+82) 0507-1307-3614,"""https://api.cdn.visitjeju.net/photomng/imgpath/201804/30/a1efa9d5-42c6-4e66-a78d-cd23307d47e5.jpg"""
제주도통나무펜션,제주특별자치도 서귀포시 남원읍 태위로 551-5,33.2760651,126.7056983,(+82) 064-764-2103,"""https://api.cdn.visitjeju.net/photomng/imgpath/201804/30/362a2b3a-11f0-4ff2-85d1-f89d24fb7d74.jpg"""
제주돌집2호점,제주특별자치도 제주시 구좌읍 김녕로1길 78,33.5577886,126.7514361,(+82) 010-9500-4432,"""https://api.cdn.visitjeju.net/photomng/imgpath/201804/30/ada18836-1ce5-4d93-8a68-840309ab621a.jpg"""
제주돌하르방캠핑장,제주특별자치도 제주시 한경면 낙수로 271-40,33.3239317,126.2390715,(+82) 070-4548-9705,"""https://api.cdn.visitjeju.net/photomng/imgpath/201804/30/96184eb7-719d-4088-9c8f-cd46a0d22d3a.jpg"""
제주디오빌,제주특별자치도 서귀포시 색달로72번길 20,33.2592521,126.4103574,(+82) 064-738-6555,"""https://api.cdn.visitjeju.net/photomng/imgpath/201912/17/d2f3ba4d-1212-489f-8656-7e874d43787a.jpg"""
제주란펜션,제주특별자치도 제주시 애월읍 애월해안로 446,33.4758904,126.3532505,(+82) 064-799-3888,"""https://api.cdn.visitjeju.net/photomng/imgpath/201804/30/3efd566e-5f73-4b47-9192-e334a9917578.jpg"""
제주를여행하는히치하이커를위한안내소,제주특별자치도 제주시 용마로4길 5,33.5157591,126.5058772,(+82) 010-3353-4522,"""https://api.cdn.visitjeju.net/photomng/imgpath/201804/30/92f1f338-eb82-4acd-a112-4316603eb010.jpg"""
제주리시온관광호텔,제주특별자치도 서귀포시 표선면 표선동서로 263,33.3271982,126.8336286,(+82) 064-787-8841,"""https://api.cdn.visitjeju.net/photomng/imgpath/202208/31/0dc6df0b-f9bc-4eca-be08-b3a36e200247.jpg"""
제주마로펜션,제주특별자치도 제주시 한림읍 한림로 414-2,33.3984064,126.2463434,(+82) 0507-1402-5608,"""https://api.cdn.visitjeju.net/photomng/imgpath/201804/30/55bf600e-943f-4ddd-91ce-4d9c77636896.jpg"""
제주마실게스트하우스,제주특별자치도 제주시 서광로2길 11-16,33.4988928,126.5135646,(+82) 064-753-0077,"""https://api.cdn.visitjeju.net/photomng/imgpath/201804/30/770db1ea-5744-472d-ac00-17c690bf2f94.jpg"""
제주머무리,제주특별자치도 서귀포시 안덕면 평화로 437-10,33.2770491,126.313442,(+82) 010-8733-4447,"""https://api.cdn.visitjeju.net/photomng/imgpath/202012/22/1abadbe4-6512-446a-968b-e30b20c36245.jpg"""
제주메이플호텔,제주특별자치도 제주시 원노형3길 41,33.4865368,126.4817031,(+82) 064-745-6776,"""https://api.cdn.visitjeju.net/photomng/imgpath/201804/30/dbadbda3-4255-4865-b1ff-c6cba078ae72.jpg"""
제주목화휴양펜션,제주특별자치도 서귀포시 남원읍 태위로 485,33.2756722,126.6992997,(+82) 064-764-7942,"""https://api.cdn.visitjeju.net/photomng/imgpath/201804/30/c5b830e5-d996-470e-99c1-ae745cdfcb27.jpg"""
제주밭담숲,제주특별자치도 제주시 구좌읍 김녕남8길 55-64,33.5431182,126.7618026,(+82) 0507-1460-1504,"""https://api.cdn.visitjeju.net/photomng/imgpath/202301/04/8775e859-95e3-463b-83a5-dbd1c9c594d9.jpg"""
제주별바람펜션,제주특별자치도 제주시 한림읍 한림해안로 500,33.4346474,126.2725501,(+82) 064-796-0123,"""https://api.cdn.visitjeju.net/photomng/imgpath/201804/30/fbf22010-9665-4af7-bfa1-a0fbb44a4e99.jpg"""
제주부영청소년수련원,제주특별자치도 서귀포시 중문상로17번길 52-17,33.250414,126.4182118,(+82) 064-760-5700,"""https://api.cdn.visitjeju.net/photomng/imgpath/201904/18/07d1b12e-0bce-4da9-9228-3231965d1cd4.jpg"""
제주블루앤씨펜션,제주특별자치도 서귀포시 성산읍 서성일로 188-18,33.4027582,126.8148563,(+82) 064-787-1910,"""https://api.cdn.visitjeju.net/photomng/imgpath/202308/18/1c3df531-4760-477d-9c49-edd55cfd64dc.jpg"""
제주비치펜션,제주특별자치도 제주시 애월읍 애월해안로 384-12,33.471998,126.3493736,(+82) 064-799-9910,"""https://api.cdn.visitjeju.net/photomng/imgpath/201804/30/36a7d65c-edac-4124-8cf7-9fe67d8e529e.jpg"""
제주빌레성 통나무휴양펜션,제주특별자치도 서귀포시 성산읍 온평포구로 42,33.4017314,126.8994665,(+82) 064-782-0559,"""https://api.cdn.visitjeju.net/photomng/imgpath/201804/30/cae83f41-9acc-4b18-a325-69ecd8529a10.jpg"""
제주사랑 펜션,제주특별자치도 서귀포시 태평로442번길 21,33.2443269,126.5681358,(+82) 064-732-3958,"""https://api.cdn.visitjeju.net/photomng/imgpath/202211/08/6d6d23c6-acbe-49fa-8e40-c93bdb28220d.jpg"""
제주산내들,제주특별자치도 서귀포시 표선면 풍천로273번길 143-4,33.3607416,126.8236825,(+82) 064-787-1476,"""https://api.cdn.visitjeju.net/photomng/imgpath/201912/20/7075faeb-ef27-4fc8-8dbc-3fadd01acd0b.jpg"""
제주성산골든튤립호텔,제주특별자치도 서귀포시 성산읍 일출로 31,33.4480321,126.9162159,(+82) 064-744-7500,"""https://api.cdn.visitjeju.net/photomng/imgpath/202211/04/225e6504-cbf6-4f22-97b8-3a380cdc8926.jpg"""
제주쉼표,제주특별자치도 제주시 서해안로 504,33.5194335,126.4929122,(+82) 064-711-0044,"""https://api.cdn.visitjeju.net/photomng/imgpath/201804/30/421c130b-7530-4f1c-ac75-8adbecb16455.jpg"""
제주스웨덴리조트펜션,제주특별자치도 제주시 한림읍 명재로 100-45,33.3908643,126.2607369,(+82) 064-796-3721,"""https://api.cdn.visitjeju.net/photomng/imgpath/201804/30/4af3e2e7-94b3-4079-9ccd-5e683ecb39dc.jpg"""
제주스위트모텔,제주특별자치도 제주시 삼무로3길 9,33.4902167,126.4948798,(+82) 064-744-1144,"""https://api.cdn.visitjeju.net/photomng/imgpath/201804/30/06adf862-5ef3-4d78-9bdf-77aacda0e25a.jpg"""
제주스테이비우다,제주특별자치도 서귀포시 색달중앙로121번길 45,33.2656331,126.4095247,(+82) 064-739-5003,"""https://api.cdn.visitjeju.net/photomng/imgpath/202212/06/e1eb545f-24bd-4316-b689-47a809d3cff5.jpg"""
제주신신휴양펜션,제주특별자치도 서귀포시 안덕면 평화로319번길 133,33.2790847,126.3144685,(+82) 064-794-5834,"""https://api.cdn.visitjeju.net/photomng/imgpath/201804/30/977a106c-4c4a-41cb-b1c4-7c5c76f94a6f.jpg"""
제주아이니,제주특별자치도 서귀포시 남원읍 태위로894번길 20-30,33.283385,126.7399717,(+82) 010-4456-4252,"""https://api.cdn.visitjeju.net/photomng/imgpath/202208/31/ffaed27c-beab-4d4b-bef2-92cd916511f6.jpg"""
제주앓이,제주특별자치도 서귀포시 일주서로 166-56,33.2549736,126.4915683,(+82) 0507-1392-5545,"""https://api.cdn.visitjeju.net/photomng/imgpath/202308/18/98250d24-bea9-47a9-ae3a-7519387601fc.jpg"""
제주애물들다,제주특별자치도 제주시 한경면 고조로 492-8,33.3291135,126.2213991,(+82) 0507-1380-2081,"""https://api.cdn.visitjeju.net/photomng/imgpath/202308/18/308a8aea-77ce-4fe5-9c5b-588c9c175ca7.jpg"""
제주애빛나다,제주특별자치도 제주시 한경면 고조로 492-6,33.3294047,126.2216605,(+82) 0507-1384-3462,"""https://api.cdn.visitjeju.net/photomng/imgpath/202308/18/51934043-1baa-4816-8bc1-3fdc880a1d5c.jpg"""
제주애설레다,제주특별자치도 제주시 한경면 고조로 492-4,33.3294047,126.2216605,(+82) 0507-1332-7986,"""https://api.cdn.visitjeju.net/photomng/imgpath/202308/18/60332b4b-9ba4-4f73-8f2f-0db9a0fe575e.jpg"""
제주야자원,제주특별자치도 서귀포시 표선면 풍천로273번길 143-13,33.3608761,126.8245481,(+82) 064-787-7112,"""https://api.cdn.visitjeju.net/photomng/imgpath/201912/06/3ccef127-5e97-458a-bd26-178af1ae3ea5.jpg"""
제주양떼목장,제주특별자치도 제주시 애월읍 도치돌길 289-13,33.4109424,126.3653661,(+82) 064-799-7346,"""https://api.cdn.visitjeju.net/photomng/imgpath/202204/12/961f2f60-ff78-460e-b98e-de530737da0c.jpg"""
제주엔펜션,제주특별자치도 서귀포시 대정읍 노을해안로 614,33.2695711,126.1778255,(+82) 010-9916-9301,"""https://api.cdn.visitjeju.net/photomng/imgpath/201804/30/32e7f852-2a6d-4e4a-8c01-673df9e870f2.jpg"""
제주영숙,제주특별자치도 서귀포시 남원읍 태수로26번길 17,33.2871207,126.7413825,(+82) 010-5913-4445,"""https://api.cdn.visitjeju.net/photomng/imgpath/201807/13/f2beab6c-78a8-4a02-9d51-eb0b61c8daa5.jpg"""
제주오다,제주특별자치도 제주시 서해안로 452,33.5177971,126.4877926,(+82) 010-7382-4006,"""https://api.cdn.visitjeju.net/photomng/imgpath/201804/30/8c4e9076-5933-4a0c-94f9-e1b2e740cfc0.jpg"""
제주오션뷰펜션,제주특별자치도 제주시 구좌읍 덕행로 276,33.5258626,126.7881416,(+82) 064-782-9464,"""https://api.cdn.visitjeju.net/photomng/imgpath/202301/27/1b18d20c-7736-446e-884d-3a1b5f497660.jpg"""
제주올레돔,제주특별자치도 서귀포시 성산읍 온평포구로54번길 54,33.3985346,126.8989379,(+82) 064-784-1177,"""https://api.cdn.visitjeju.net/photomng/imgpath/202104/26/5db5c469-c7cf-4780-9a6e-90e9b13b93bb.jpg"""
제주올레하우스팬션,제주특별자치도 제주시 구좌읍 덕행로 450-23,33.5133096,126.7784517,(+82) 010-9177-2170,"""https://api.cdn.visitjeju.net/photomng/imgpath/201804/30/8bf55076-69ac-4d86-a5a7-64a859a2d8c5.jpg"""
제주와싱톤,제주특별자치도 서귀포시 성산읍 신천서로50번길 22-56,33.3419311,126.8488963,(+82) 010-2689-1512,"""https://api.cdn.visitjeju.net/photomng/imgpath/202308/18/bed07f83-90c5-4564-828a-52be95dbf02a.jpg"""
제주와요펜션,제주특별자치도 제주시 조천읍 조천남4길 4,33.533025,126.638638,(+82) 064-744-7826,"""https://api.cdn.visitjeju.net/photomng/imgpath/201804/30/e9eebcc5-f787-48d1-a716-f7e333a5fd02.jpg"""
제주와일드,제주특별자치도 서귀포시 논짓물로 28,33.2387885,126.387381,(+82) 0507-1498-0731,"""https://api.cdn.visitjeju.net/photomng/imgpath/202401/12/1ea67328-020d-49ff-be87-33824bf54b34.jpg"""
제주우리집펜션,제주특별자치도 제주시 한경면 청수동3길 1,33.319994,126.2461599,(+82) 064-772-4166,"""https://api.cdn.visitjeju.net/photomng/imgpath/201912/20/085405ea-c7d0-48e6-a5a9-9a2c01861567.jpg"""
제주유스호스텔,제주특별자치도 제주시 애월읍 방축길 128,33.3859475,126.3252981,(+82) 064-796-1812,"""https://api.cdn.visitjeju.net/photomng/imgpath/201909/04/b04dc08b-81c8-422a-ae22-4eb3e829115b.jpg"""
제주은빌레 휴양펜션,제주특별자치도 서귀포시 남원읍 한신로 247-3,33.3116589,126.7167925,(+82) 0507-1415-2223,"""https://api.cdn.visitjeju.net/photomng/imgpath/202401/11/3935ace9-2ce2-4e8e-a3b5-9137c3fb4810.jpg"""
제주의시간은느리다,제주특별자치도 제주시 구좌읍 상도로 30-4,33.5119841,126.8642039,(+82) 010-5023-0350,"""https://api.cdn.visitjeju.net/photomng/imgpath/201804/30/06fe3f52-43b0-4f08-9569-f195eb6fe347.jpg"""
제주자연인펜션글램핑,제주특별자치도 제주시 아란서길 110,33.4687341,126.5394413,(+82) 064-723-7502,"""https://api.cdn.visitjeju.net/photomng/imgpath/201804/30/e8f49c45-cece-4010-bfbc-cc2e45a96cff.png"""
제주잔잔,제주특별자치도 서귀포시 칠십리로485번길 15-17,33.2426041,126.6009518,(+82) 064-762-1517,"""https://api.cdn.visitjeju.net/photomng/imgpath/201804/30/5bb07ec1-db5d-48ab-a19b-14e1cc008246.jpg"""
제주조이랜드,제주특별자치도 제주시 애월읍 애원로 116-5,33.4547322,126.325439,(+82) 064-727-0691,"""https://api.cdn.visitjeju.net/photomng/imgpath/201804/30/3ead72fb-0d58-425c-97c1-1a0288dde80f.jpg"""
제주캠핑올레,제주도 서귀포시 표선면 토산망동로 15,33.3100991,126.7816014,(+82) 010-9091-1866,"""https://api.cdn.visitjeju.net/photomng/imgpath/202212/06/af81e371-a712-4b2d-bda7-3d690724f3a2.jpg"""
제주코기네,제주특별자치도 제주시 조천읍 조함해안로 76-34,33.5436525,126.6391331,(+82) 0507-1407-5211,"""https://api.cdn.visitjeju.net/photomng/imgpath/201804/30/ef9b7668-4670-4b3e-bf21-1eb5340efd02.png"""
제주토비스콘도,제주특별자치도 제주시 애월읍 애월로1길 8,33.4631254,126.3115839,(+82) 064-798-8200,"""https://api.cdn.visitjeju.net/photomng/imgpath/202003/23/37a27ee1-7f53-4774-b7dd-97838cdec59d.jpg"""
제주통나무휴양펜션,제주특별자치도 서귀포시 표선면 번영로 3328,33.3513094,126.8232865,(+82) 064-787-8800,"""https://api.cdn.visitjeju.net/photomng/imgpath/202007/01/ce769b5a-c764-437e-91f2-061c7071107c.jpg"""
제주파도소리,제주특별자치도 제주시 구좌읍 해맞이해안로 1950,33.5290971,126.8463777,(+82) 064-783-3338,"""https://api.cdn.visitjeju.net/photomng/imgpath/201804/30/b0fde364-762b-4fb5-ac83-7fc30181f11f.jpg"""
제주파인비치펜션,제주특별자치도 서귀포시 남원읍 태위로 976-10,33.2875509,126.7484272,(+82) 010-3766-2918,"""https://api.cdn.visitjeju.net/photomng/imgpath/202006/22/6859465d-d8fe-4a43-b09c-8dd774ce7e51.jpg"""
제주파크랜드,제주특별자치도 제주시 애월읍 상귀서길 82-20,33.4648174,126.4048049,(+82) 064-712-8585,"""https://api.cdn.visitjeju.net/photomng/imgpath/201804/30/55a94373-db7e-471d-a38d-82db5f4c622a.jpg"""
제주팔레스호텔,제주특별자치도 제주시 탑동로 9,33.5168727,126.52372,(+82) 064-753-8811,"""https://api.cdn.visitjeju.net/photomng/imgpath/201804/30/9a7947f5-313d-40d9-bf07-e47725395c05.gif"""
제주팡숑예래,제주특별자치도 서귀포시 예래해안로 357,33.2409842,126.3958219,(+82) 064-738-1133,"""https://api.cdn.visitjeju.net/photomng/imgpath/201804/30/a00d104f-451a-4ad1-a89b-dcfbfa6ea3b9.jpg"""
제주펜션향림원,제주특별자치도 서귀포시 칠십리로394번길 8-3,33.2437709,126.5932026,(+82) 064-733-5799,"""https://api.cdn.visitjeju.net/photomng/imgpath/201804/30/f0659e08-5078-4907-93ae-589c53e8ca0e.jpg"""
제주프렌즈펜션,제주특별자치도 제주시 한경면 판포2길 35,33.3615228,126.2007954,(+82) 064-772-2620,"""https://api.cdn.visitjeju.net/photomng/imgpath/201804/30/b1987e98-d760-473c-87e5-5bff4c126746.jpg"""
제주필하우스,제주특별자치도 제주시 조천읍 일주동로 1415,33.5449204,126.6862534,(+82) 064-783-4900,"""https://api.cdn.visitjeju.net/photomng/imgpath/201804/30/a4e4f5cd-2881-4e4a-bed5-242f31f7705b.jpg"""
제주하나호텔,제주특별자치도 서귀포시 중문관광로72번길 53,33.2498662,126.4081758,(+82) 064-738-7001,"""https://api.cdn.visitjeju.net/photomng/imgpath/202212/06/105a06ec-add7-45b6-b1fa-d981396c7431.jpg"""
제주항공우주호텔,제주도 서귀포시 안덕면 녹차분재로 216,33.3022751,126.2947784,(+82) 064-798-5500,"""https://api.cdn.visitjeju.net/photomng/imgpath/201804/30/cbeec70d-5180-418a-9edd-c7a27a7b0fd2.gif"""
제주해조대펜션,제주특별자치도 제주시 한림읍 한림로 339,33.3940486,126.2405962,(+82) 064-796-8010,"""https://api.cdn.visitjeju.net/photomng/imgpath/201804/30/32e94c0e-626d-4638-b405-86bb88586df5.jpg"""
제주휴리조트,제주특별자치도 서귀포시 성산읍 난고로 230,33.4207144,126.8937969,(+82) 064-783-1166,"""https://api.cdn.visitjeju.net/photomng/imgpath/201804/30/bee1a623-225f-47c2-9648-950e07085fa4.jpg"""
조용한 게스트하우스 산방산점,제주특별자치도 서귀포시 안덕면 덕수회관로87번길 34,33.2533852,126.3048762,(+82),"""https://api.cdn.visitjeju.net/photomng/imgpath/202401/11/d81f9714-76a0-4021-867d-10890e5fb18b.jpg"""
조은민박,제주특별자치도 제주시 추자면 대서4길 6,33.9630367,126.2943523,(+82) 010-6310-4069,"""https://api.cdn.visitjeju.net/photomng/imgpath/201908/21/04d13a21-d83f-4933-aaad-324c36089289.jpg"""
조천댁,제주특별자치도 제주시 조천읍 조천7길 19-17,33.5384014,126.6344086,(+82) 0504-0904-2006,"""https://api.cdn.visitjeju.net/photomng/imgpath/201810/24/f600fae5-68f8-4929-b4ac-db25f63a543b.jpg"""
조천스테이,제주특별자치도 제주시 조천읍 조천9길 30-1,33.5383172,126.63737,(+82) 010-5002-2515,"""https://api.cdn.visitjeju.net/photomng/imgpath/201805/23/a4ba7656-464d-4afc-b82a-fd92726a2b16.jpg"""
종달스토리,제주특별자치도 제주시 구좌읍 종달논길 61-7,33.4917173,126.900117,(+82) 010-2144-3412,"""https://api.cdn.visitjeju.net/photomng/imgpath/201804/30/b5f7ab4c-d46e-42d2-a28e-ae4c2d4e03fc.jpg"""
중문빌리지펜션,제주특별자치도 서귀포시 예래로 270,33.2427395,126.3851905,(+82) 064-738-3151,"""https://api.cdn.visitjeju.net/photomng/imgpath/202211/04/67a40a8f-71fe-4c01-8d94-3a80d78432e9.jpg"""
중문진실캠핑장,제주특별자치도 서귀포시 천제연로 130,33.2536402,126.4188584,(+82) 064-739-1036,"""https://api.cdn.visitjeju.net/photomng/imgpath/202104/07/8db55b80-75c0-425b-8cb8-3ac48a7070c3.jpg"""
중문통나무펜션리조트,제주특별자치도 서귀포시 중산간서로594번길 7-8,33.2634541,126.4508884,(+82) 064-738-8383,"""https://api.cdn.visitjeju.net/photomng/imgpath/201804/30/cf45e28f-7401-47bf-9eba-742573765f85.jpg"""
중문햇빛펜션,제주특별자치도 서귀포시 안덕면 쇠물도로 14,33.269617,126.3698303,(+82) 064-794-7722,"""https://api.cdn.visitjeju.net/photomng/imgpath/201804/30/331975e5-c34c-4333-ba6c-be241e5144ec.jpg"""
중문훼미리리조트,제주특별자치도 서귀포시 소보리당로164번길 83,33.2658081,126.38346,(+82) 064-738-7871,"""https://api.cdn.visitjeju.net/photomng/imgpath/201804/30/dd2e0d71-55b4-4f03-ae83-72f707be696e.gif"""
쥬빌리펜션,제주특별자치도 서귀포시 안덕면 소기왓로 84-4,33.2423579,126.3693253,(+82) 064-739-0303,"""https://api.cdn.visitjeju.net/photomng/imgpath/201804/30/0242156e-7f3e-4076-b8b0-72b7509d8616.jpg"""
지삿개풍경,제주특별자치도 서귀포시 이어도로 150,33.2397543,126.4381641,(+82) 064-738-5353,"""https://api.cdn.visitjeju.net/photomng/imgpath/201804/30/dfa68345-67ef-4a01-9a50-519890be372f.jpg"""
지현민박,제주특별자치도 제주시 우도면 우도해안길 794,33.5149965,126.9570357,(+82) 064-783-0217,"""https://api.cdn.visitjeju.net/photomng/imgpath/201804/30/812b78ea-03c0-4c3c-90a8-408ca9b291ac.jpg"""
채우리네펜션,제주특별자치도 서귀포시 검은여로 67,33.2493567,126.5814567,(+82) 010-9321-5380,"""https://api.cdn.visitjeju.net/photomng/imgpath/202212/15/e3f2fcc5-07ac-4c65-89f7-23640c2087e9.jpg"""
천상의노을,제주특별자치도 제주시 애월읍 애월해안로 424,33.4738366,126.3531665,(+82) 064-799-6116,"""https://api.cdn.visitjeju.net/photomng/imgpath/201804/30/6faef22c-cc13-4904-af93-aab01243b3d1.jpg"""
청재설헌,제주특별자치도 서귀포시 인정오름로 135-18,33.2892686,126.5716866,(+82) 064-732-2020,"""https://api.cdn.visitjeju.net/photomng/imgpath/202011/03/d5a4bd1e-d427-450a-921d-858201d47b2b.jpg"""
청정고을민박,제주특별자치도 제주시 추자면 대서1길 6,33.9623729,126.2984035,(+82) 064-742-4800,"""https://api.cdn.visitjeju.net/photomng/imgpath/201908/20/82811c50-1f0a-4e63-8afb-c1e3ec4373e7.jpg"""
체이슨호텔 더 스마일,제주특별자치도 서귀포시 신서로48번길 50,33.252873,126.5101675,(+82) 064-739-7844,"""https://api.cdn.visitjeju.net/photomng/imgpath/202211/09/67507a78-51df-4b3b-bf08-3625c33e931f.jpg"""
초록새록,제주특별자치도 제주시 애월읍 중엄1길 37-22,33.4755504,126.36966,(+82) 064-742-6760,"""https://api.cdn.visitjeju.net/photomng/imgpath/201804/30/befacaa6-97df-480a-a1a2-e4ce58394a45.jpg"""
초록하우스,제주특별자치도 제주시 한림읍 명재로 17,33.3951307,126.2488575,(+82) 064-796-2227,"""https://api.cdn.visitjeju.net/photomng/imgpath/201912/20/002baf7c-1091-411f-ac0a-d9148660546c.jpg"""
초콜릿펜션,제주특별자치도 제주시 도리로 106-17,33.4993722,126.4638908,(+82) 010-8422-7933,"""https://api.cdn.visitjeju.net/photomng/imgpath/201804/30/3f49f09c-6a04-4aeb-aa00-b9a23a0cdd5f.jpg"""
추사랑민박,제주특별자치도 제주시 추자면 석두리길 58,33.9355993,126.3243394,(+82) 010-4046-5240,"""https://api.cdn.visitjeju.net/photomng/imgpath/201908/20/4f773b1b-bd8a-4efc-8e0e-487c777c2ac5.jpg"""
추자도민박,제주특별자치도 제주시 추자면 묵리2길 37-7,33.9454067,126.3145241,(+82) 010-3325-9306,"""https://api.cdn.visitjeju.net/photomng/imgpath/201908/20/ae723210-8535-4613-8185-a5d78c3854f7.jpg"""
추자도휴양펜션,제주특별자치도 제주시 추자면 석두리길 4,33.9399825,126.3234994,(+82) 010-2726-6921,"""https://api.cdn.visitjeju.net/photomng/imgpath/201908/20/aa2df9e8-4c2a-4282-a5ba-d7fa6073083d.jpg"""
추자바다25시,제주특별자치도 제주시 추자면 묵리2길 48,33.9449257,126.3150707,(+82) 064-742-2724,"""https://api.cdn.visitjeju.net/photomng/imgpath/201908/20/12d0e13e-037e-4554-9da6-cab157ff3a4b.jpg"""
추자섬민박,제주특별자치도 제주시 추자면 대서5길 86,33.9625561,126.2902543,(+82) 010-8662-5706,"""https://api.cdn.visitjeju.net/photomng/imgpath/201908/20/3e8727de-e1df-41d9-8c7c-75119bcd6271.jpg"""
추자피싱랜드,제주특별자치도 제주시 추자면 신양4길 18,33.9471376,126.3320864,(+82) 010-5489-5500,"""https://api.cdn.visitjeju.net/photomng/imgpath/201908/21/6b1aa0f8-cb6d-4d15-a5b8-6a3b9b96d88f.jpg"""
취다선리조트,제주특별자치도 서귀포시 성산읍 해맞이해안로 2688,33.4718627,126.9128692,(+82) 0507-1386-1600,"""https://api.cdn.visitjeju.net/photomng/imgpath/202212/14/db71dee0-8938-4d74-9d65-6886bf53ad30.jpg"""
카이리조트,제주특별자치도 제주시 한림읍 협재2길 10,33.3921364,126.241274,(+82) 064-796-2428,"""https://api.cdn.visitjeju.net/photomng/imgpath/201804/30/47cfabf6-a8c5-4e6d-85c8-79141b0754f9.jpg"""
캐빈타운,제주특별자치도 제주시 애월읍 가문동상2길 29-3,33.4849584,126.3909099,(+82) 064-712-1558,"""https://api.cdn.visitjeju.net/photomng/imgpath/201804/30/86bfe078-6b46-47ca-9005-ba2a591bcc34.jpg"""
캐슬드한림,제주특별자치도 제주시 한림읍 강구로 95-7,33.4091439,126.2780097,(+82) 0507-1422-1111,"""https://api.cdn.visitjeju.net/photomng/imgpath/202310/06/4a525874-9b3c-4b74-8fba-6d93e7d70b3b.jpg"""
캠파제주,제주특별자치도 서귀포시 516로 574-23,33.2984063,126.6009149,(+82) 010-7544-8219,"""https://api.cdn.visitjeju.net/photomng/imgpath/202212/09/75c48f53-5fb6-4902-b47e-5a88ed053870.jpg"""
켄싱턴리조트 서귀포,제주특별자치도 서귀포시 이어도로 684 (켄싱턴리조트),33.2336104,126.4893246,(+82) 064-739-9001,"""https://api.cdn.visitjeju.net/photomng/imgpath/201907/23/6ba2e299-c805-4f7e-922d-ab6610e4553e.jpg"""
코델리아리조트,제주특별자치도 서귀포시 성산읍 일주동로4120번길 23-20,33.4591059,126.9102124,(+82) 070-4548-2200,"""https://api.cdn.visitjeju.net/photomng/imgpath/201804/30/0e955280-bb04-481c-8e05-6cb957fd4882.jpg"""
코사이어티 빌리지 제주,제주특별자치도 제주시 구좌읍 번영로 2133-50,33.4334699,126.7514202,(+82) 064-782-4994,"""https://api.cdn.visitjeju.net/photomng/imgpath/202211/15/df2e4f09-8349-4848-aa2d-4374e971b684.jpg"""
코업시티호텔성산,제주특별자치도 서귀포시 성산읍 성산등용로 28,33.465988,126.9318865,(+82) 064-780-9800,"""https://api.cdn.visitjeju.net/photomng/imgpath/202207/06/1f2d8787-22f4-4679-b305-a18569b8d021.jpg"""
코자호텔,제주특별자치도 서귀포시 대정읍 최남단해안로 44,33.2166675,126.2521425,(+82) 064-794-2300,"""https://api.cdn.visitjeju.net/photomng/imgpath/201912/19/84d34b01-91f6-4910-bc52-fce9a48f1530.jpg"""
코코스펜션,제주특별자치도 제주시 한림읍 협재2길 26,33.392388,126.2424445,(+82) 064-796-8262,"""https://api.cdn.visitjeju.net/photomng/imgpath/201804/30/59aac3c7-9918-490d-9707-bf5fc858c68a.jpg"""
코쿤호텔,제주특별자치도 제주시 애월읍 중엄3길 50,33.4778567,126.3716446,(+82) 064-744-8006,"""https://api.cdn.visitjeju.net/photomng/imgpath/202205/17/cbfa93ce-e7de-4721-abf9-84c84e017e16.jpg"""
콤마하우스,제주특별자치도 서귀포시 표선면 표선중앙로 73-9,33.3271155,126.8331028,(+82) 010-5589-0323,"""https://api.cdn.visitjeju.net/photomng/imgpath/201804/30/cf2839fa-cbcd-42bf-a6a6-71b4d59954b3.jpg"""
콤포스텔라 별들의들판,제주특별자치도 제주시 한림읍 귀덕14길 187-1,33.4283083,126.2932006,(+82) 064-796-8892,"""https://api.cdn.visitjeju.net/photomng/imgpath/202008/12/8a2d796b-d258-4fa2-969d-9c096aa1ea0b.jpg"""
쿨쿨하우스,제주특별자치도 서귀포시 동홍로262번길 62,33.2695514,126.5726854,(+82) 064-767-5000,"""https://api.cdn.visitjeju.net/photomng/imgpath/202212/05/1a1d43c9-ce94-467c-8f85-427f94aa6cce.jpg"""
크리스마스리조트,제주특별자치도 제주시 구좌읍 해맞이해안로 2030-8,33.5290971,126.8463777,(+82) 064-784-1224,"""https://api.cdn.visitjeju.net/photomng/imgpath/202308/18/50e9fd51-689a-4ca9-95b2-a59591b6f0a1.jpg"""
클럽ES리조트 제주,제주특별자치도 서귀포시 1100로 501,33.2894341,126.4561006,(+82) 064-739-3328,"""https://api.cdn.visitjeju.net/photomng/imgpath/202008/10/cdb4cff1-31c4-4f20-8960-14661741a9fb.jpg"""
클로버비앤비,제주특별자치도 서귀포시 성산읍 시흥상동로 109,33.4781837,126.895862,(+82) 064-784-3399,"""https://api.cdn.visitjeju.net/photomng/imgpath/201804/30/ae8256f6-2f86-4134-a9df-30ec438d1b4a.jpg"""
킴스캐빈,제주특별자치도 서귀포시 성산읍 시흥상동로53번길 88-54,33.4744649,126.8866861,(+82) 0507-1408-5026,"""https://api.cdn.visitjeju.net/photomng/imgpath/201804/30/e96854d6-d440-4414-a70d-40494926481f.jpg"""
킹스통나무,제주특별자치도 제주시 애월읍 도치돌길 279-1,33.4107486,126.3644234,(+82) 064-799-7233,"""https://api.cdn.visitjeju.net/photomng/imgpath/201804/30/a723c580-9400-4713-ab86-78efeb17969a.gif"""
타미우스골프앤빌리지,제주특별자치도 제주시 애월읍 화전길 201,33.351192,126.3881562,(+82) 064-793-0707,"""https://api.cdn.visitjeju.net/photomng/imgpath/201912/20/371acd50-4249-4625-8fa1-7610848691a3.jpg"""
탐라누리,제주특별자치도 서귀포시 성산읍 금백조로 68,33.4398484,126.8657163,(+82) 064-784-2411,"""https://api.cdn.visitjeju.net/photomng/imgpath/201804/30/e432dba8-832f-4995-96ce-535d6867b043.jpg"""
탐탐56,제주특별자치도 제주시 구좌읍 상하도길 56,33.5157242,126.866469,(+82) 010-3630-4802,"""https://api.cdn.visitjeju.net/photomng/imgpath/201804/30/246caab3-4b91-4c5b-ac2e-648df6394f43.jpg"""
탑팰리스호텔,제주특별자치도 제주시 중앙로 34,33.5153237,126.5244826,(+82) 064-721-8898,"""https://api.cdn.visitjeju.net/photomng/imgpath/201804/30/72513ae6-197b-4f4e-867f-c7291c02e628.jpg"""
태성민박,제주특별자치도 제주시 추자면 추자로 54-1,33.9622633,126.2940296,(+82) 01036938288,"""https://api.cdn.visitjeju.net/photomng/imgpath/201908/20/198fd2c3-77a8-492d-8da3-89c8cbca1794.jpg"""
태흥리조트,제주특별자치도 서귀포시 남원읍 태위로 988-6,33.2884666,126.7500435,(+82) 064-764-8118,"""https://api.cdn.visitjeju.net/photomng/imgpath/201804/30/ae6c49f4-d5de-452b-b2ab-ff2676491fd2.jpg"""
태흥여관,제주특별자치도 제주시 추자면 추자로 34,33.9630826,126.2957715,(+82) 01031698033,"""https://api.cdn.visitjeju.net/photomng/imgpath/201908/20/7806069d-a53a-4fbe-8f0b-990bf6632dbd.jpg"""
탱자탱자게스트하우스,제주특별자치도 제주시 애월읍 애월로9길 69,33.4662229,126.3182745,(+82) 010-9971-3024,"""https://api.cdn.visitjeju.net/photomng/imgpath/202008/31/99fdd1ac-937f-49aa-bd05-4dfd67ceed91.jpg"""
테디밸리 골프앤리조트,제주특별자치도 서귀포시 안덕면 한창로 365,33.2928278,126.3476318,(+82) 064-793-1000,"""https://api.cdn.visitjeju.net/photomng/imgpath/201804/30/8411cdd0-1157-4743-916a-0f8f63bf0c7f.gif"""
테마하우스,제주특별자치도 제주시 백포북길 24,33.5024966,126.4585774,(+82) 064-742-4275,"""https://api.cdn.visitjeju.net/photomng/imgpath/201804/30/e15851ef-9e3f-4ee7-8ddd-e99f18e050e7.jpg"""
토리코티지X하시시박,제주특별자치도 제주시 조천읍 조천북6길 23,33.5422484,126.6386904,(+82) 010-7751-2936,"""https://api.cdn.visitjeju.net/photomng/imgpath/202211/14/9cc67777-fc69-4698-893e-ab083dcd3e4c.jpg"""
토리코티지카레클린트,제주특별자치도 제주시 애월읍 고내로7길 10-2,33.4640721,126.3386671,(+82) 010-2695-2369,"""https://api.cdn.visitjeju.net/photomng/imgpath/202211/30/b46ded43-c239-4777-9b7c-f99d75826403.jpg"""
토마토하우스,제주특별자치도 서귀포시 성산읍 성산등용로 96-7,33.4698633,126.9305349,(+82) 064-784-2214,"""https://api.cdn.visitjeju.net/photomng/imgpath/201804/30/6382a675-a36a-403d-aad5-b3802c640ab0.jpg"""
토토하우스,제주특별자치도 제주시 애월읍 광령자종길 14,33.4647232,126.424101,(+82) 064-745-7676,"""https://api.cdn.visitjeju.net/photomng/imgpath/201903/12/5e4f87d0-5896-4d79-8914-6fc74fc09049.jpg"""
투데이제주펜션,제주특별자치도 서귀포시 예래로 267-2,33.2422382,126.3858643,(+82) 064-748-0977,"""https://api.cdn.visitjeju.net/photomng/imgpath/201912/16/90e629d6-1e27-43ef-96ed-ec554cd69627.jpg"""
파더하우스,제주특별자치도 제주시 애월읍 고하상로 88,33.4575565,126.3461552,(+82) 010-8789-7007,"""https://api.cdn.visitjeju.net/photomng/imgpath/201804/30/497b0002-8e7e-488f-9fdd-b65ea11fafb1.jpg"""
파도봐펜션,제주특별자치도 서귀포시 남원읍 남태해안로 141,33.2782199,126.7202183,(+82) 064-764-1110,"""https://api.cdn.visitjeju.net/photomng/imgpath/202010/19/5da58a2a-bba3-4843-81b1-2c10a8601a1b.jpg"""
파미유스파리조트,제주특별자치도 서귀포시 이어도로 826-6,33.2352002,126.5029241,(+82) 064-738-9186,"""https://api.cdn.visitjeju.net/photomng/imgpath/201804/30/28b78593-e9ef-418c-b725-5a1f0e29f4d5.jpg"""
파밀리아호텔,제주특별자치도 서귀포시 대포동서로 63-20,33.2409226,126.4380699,(+82) 064-738-2599,"""https://api.cdn.visitjeju.net/photomng/imgpath/201804/30/9f94ad60-2250-42e3-89b1-23c7531e065b.jpg"""
파인힐호텔,제주특별자치도 서귀포시 부두로 44,33.2413534,126.5644037,(+82) 064-762-5987,"""https://api.cdn.visitjeju.net/photomng/imgpath/201804/30/87429eb6-2911-4f2d-b76c-6b6317ff6ea4.jpg"""
파크빌리지,제주특별자치도 제주시 애월읍 상귀서길 82-12,33.4652504,126.4053639,(+82) 064-713-2627,"""https://api.cdn.visitjeju.net/photomng/imgpath/201804/30/518e7fb5-db0f-4339-8512-5c2949f195e8.jpg"""
파크사이드호텔,제주특별자치도 제주시 도령로 126,33.4924608,126.4908325,(+82) 064-746-4544,"""https://api.cdn.visitjeju.net/photomng/imgpath/201804/30/baafb32a-9eef-4da2-8dd2-dce4fd2febed.gif"""
팔도민박,제주특별자치도 서귀포시 대정읍 마라로 109,33.1144663,126.2667022,(+82) 064-792-1441,"""https://api.cdn.visitjeju.net/photomng/imgpath/201804/30/18284462-e3c9-4297-908d-3246fc645616.jpg"""
팜밸리리조트,제주특별자치도 서귀포시 중산간서로 193,33.2593043,126.4907423,(+82) 064-738-7705,"""https://api.cdn.visitjeju.net/photomng/imgpath/201804/30/3e22807e-cb6a-4553-a940-79a5b3d1ecec.jpg"""
팜파스 호텔 제주,"제주특별자치도 제주시 서해안로 368-3 (용담삼동, ciel bleu 호텔) 팜파스 호텔 제주",33.5115783,126.4847587,(+82) 064-798-9000,"""https://api.cdn.visitjeju.net/photomng/imgpath/202312/29/0e785544-a9e8-4ad6-95e6-576ad2ae350e.jpg"""
팜힐펜션,제주특별자치도 서귀포시 예래로 107,33.2524843,126.3963242,(+82) 064-738-3230,""""""
패밀리아펜션,제주특별자치도 서귀포시 표선면 번영로 3340,33.3509195,126.8232738,(+82) 064-787-9009,"""https://api.cdn.visitjeju.net/photomng/imgpath/201804/30/ffbc864b-efe5-4917-81a3-ff76a7df7860.jpg"""
펄호텔제주,제주특별자치도 제주시 신대로20길 49,33.4834605,126.4907753,(+82) 064-742-8871,"""https://api.cdn.visitjeju.net/photomng/imgpath/201904/22/895d63da-b9f5-4dba-a829-e3abfab8b760.jpg"""
펜션 수망가라,제주특별자치도 서귀포시 남원읍 태수로 667-11,33.3350562,126.7120623,(+82) 064-764-2582,"""https://api.cdn.visitjeju.net/photomng/imgpath/201909/10/de55f1df-e098-4972-b74a-488608a46f05.jpg"""
펜션 에덴호스텔,제주특별자치도 제주시 서해안로 456-12,33.518435,126.489241,(+82) 064-749-0006,"""https://api.cdn.visitjeju.net/photomng/imgpath/201804/30/aed7b7c5-d1cb-4c56-958b-82d92357f1f1.jpg"""
펜션연리,제주특별자치도 서귀포시 논짓물로 50,33.2404221,126.3860267,(+82) 064-739-2564,"""https://api.cdn.visitjeju.net/photomng/imgpath/201804/30/caf3723c-4e59-4d09-954b-0d9ae5885b7d.jpg"""
펜션해다미,제주특별자치도 제주시 서해안로 502,33.5194239,126.4926773,(+82) 064-711-7900,""""""
펜션형민박꿈꾸는숲,제주특별자치도 서귀포시 태평로205번길 43-7,33.2474787,126.5398294,(+82) 064-738-1010,"""https://api.cdn.visitjeju.net/photomng/imgpath/201804/30/107f0c98-a50b-413d-8d98-1637eccc37e7.jpg"""
펠리스타운,제주특별자치도 서귀포시 성산읍 시흥하동로50번길 23,33.4744539,126.9079588,(+82) 064-782-4003,"""https://api.cdn.visitjeju.net/photomng/imgpath/201804/30/b7eacee1-1a48-4f91-b79c-c8e73fa54b5d.jpg"""
포비네오두막게스트하우스,제주특별자치도 제주시 구좌읍 행원로4길 26,33.5515011,126.8059083,(+82) 010-4141-8636,"""https://api.cdn.visitjeju.net/photomng/imgpath/201804/30/1ffb0aa1-323d-494b-8ba2-b237411fd674.jpg"""
포시즌펜션,제주특별자치도 서귀포시 칠십리로285번길 3,33.2486011,126.5834075,(+82) 064-732-5222,"""https://api.cdn.visitjeju.net/photomng/imgpath/202212/06/6ebfbf10-6eed-4051-a157-9a5dfe6f54e5.jpg"""
포시즌호텔,제주특별자치도 제주시 원노형3길 19,33.4864727,126.483961,(+82) 064-900-5453,"""https://api.cdn.visitjeju.net/photomng/imgpath/201912/16/ede58479-90e0-4c2f-a32a-6e8f836c0154.jpg"""
포유펜션,제주특별자치도 서귀포시 남원읍 서의로 40-6,33.2960157,126.7109343,(+82) 064-764-2777,"""https://api.cdn.visitjeju.net/photomng/imgpath/201804/30/7c2a0226-8d61-4171-a8a7-a1a3d69364c8.jpg"""
포지타노인제주,제주특별자치도 서귀포시 성산읍 신천서로 27-5,33.3429968,126.8510987,(+82) 010-3228-2642,"""https://api.cdn.visitjeju.net/photomng/imgpath/201804/30/fc5a4973-067c-440e-9669-0338c1a8bc18.jpg"""
포트애비뉴,제주특별자치도 서귀포시 대포동서로 63-19,33.2407904,126.4385392,(+82) 064-738-3910,"""https://api.cdn.visitjeju.net/photomng/imgpath/202208/31/629c994c-c2ce-40f0-adb3-3623974fee1c.jpg"""
폴라리스펜션,제주특별자치도 제주시 애월읍 유수암동3길 45,33.438084,126.4084445,(+82) 064-799-9800,"""https://api.cdn.visitjeju.net/photomng/imgpath/201804/30/deeeda4f-58f3-46ff-a6e0-bbacd1a85497.jpg"""
폴에이리조트,제주특별자치도 서귀포시 월드컵로45번길 40,33.2444779,126.5110475,(+82) 064-739-3001,"""https://api.cdn.visitjeju.net/photomng/imgpath/201804/30/50a04a16-7d1a-4e82-be5c-e94f95929c29.jpg"""
푸르미르 펜션,제주특별자치도 서귀포시 성산읍 한도로 207,33.4682115,126.929965,(+82) 064-784-1472,"""https://api.cdn.visitjeju.net/photomng/imgpath/201804/30/2088393a-1174-40eb-b24f-04b5f287b46e.jpg"""
풍차와노을 독채펜션,제주특별자치도 제주시 한경면 한경해안로 474-26,33.3404499,126.1731209,(+82) 010-6886-0238,"""https://api.cdn.visitjeju.net/photomng/imgpath/201804/30/fa9df107-5e43-4cf3-b75a-26b276f86853.gif"""
프라이빗리조트,제주특별자치도 서귀포시 태평로 130,33.2444862,126.5371529,(+82) 064-723-9802,"""https://api.cdn.visitjeju.net/photomng/imgpath/201912/11/420eefd1-9ce8-4b05-bb74-c1e41d068ddb.jpg"""
플라마 펜션,제주특별자치도 제주시 한림읍 장원길 34-29,33.412973,126.2787617,(+82) 010-2642-3621,"""https://api.cdn.visitjeju.net/photomng/imgpath/202211/02/f9adaa53-a93f-4cc7-83f0-9fabe1a4b42a.jpg"""
플로라펜션,제주특별자치도 제주시 도리로 78-2,33.4995738,126.4601658,(+82) 0507-1369-7055,"""https://api.cdn.visitjeju.net/photomng/imgpath/201804/30/4d17955c-e0d1-4f20-9b71-487f25488be2.jpg"""
피노호텔,제주특별자치도 서귀포시 천지연로29번길 5,33.2414205,126.5633442,(+82) 064-763-3005,"""https://api.cdn.visitjeju.net/photomng/imgpath/201804/30/c8b36cfc-833c-4b43-ab77-2bc7ec111170.jpg"""
피디스테이션,제주특별자치도 제주시 구좌읍 평대10길 45-46,33.5209977,126.8461986,(+82) 070-8879-0242,"""https://api.cdn.visitjeju.net/photomng/imgpath/202005/13/a58bc1c1-0aaf-41fd-bfa8-23987f8093c5.jpg"""
피우다 게스트하우스,제주특별자치도 제주시 한경면 저지12길 60-4,33.3386208,126.2625201,(+82) 064-773-0561,"""https://api.cdn.visitjeju.net/photomng/imgpath/201804/30/77f358f0-263b-46a9-9271-194d0e76b482.jpg"""
하녹펜션,제주특별자치도 제주시 애월읍 하광로 181-1,33.4715815,126.4187059,(+82) 0507-1443-2737,"""https://api.cdn.visitjeju.net/photomng/imgpath/202211/04/ec5601f5-3168-4a62-82cc-f60f79d69913.jpg"""
하늘만큼 땅만큼 펜션,제주특별자치도 제주시 애월읍 가문동상4길 5,33.4833278,126.3939423,(+82) 064-901-8588,"""https://api.cdn.visitjeju.net/photomng/imgpath/202206/15/7a1ecf53-a57f-4a19-bcf1-c095e4a1649e.jpg"""
하늘오름펜션,제주특별자치도 제주시 구좌읍 중산간동로 1909,33.4814988,126.751231,(+82) 0507-1336-6294,"""https://api.cdn.visitjeju.net/photomng/imgpath/202308/18/467eaf5e-d14a-4dd5-8ff7-b49eaf7fce84.jpg"""
하늘을달리다,제주특별자치도 제주시 구좌읍 문주란로5길 25,33.5208647,126.8871207,(+82) 0507-1324-6190,"""https://api.cdn.visitjeju.net/photomng/imgpath/201804/30/e54211bd-f6fa-4132-b86f-f9a8379745e1.jpg"""
하늘정원펜션,제주특별자치도 서귀포시 칠십리로394번길 8-4,33.2439708,126.5932644,(+82) 064-733-5798,"""https://api.cdn.visitjeju.net/photomng/imgpath/201804/30/8fc6f169-a5d0-4750-92b2-2604cbc59fd2.gif"""
하늘조각휴양펜션,제주특별자치도 서귀포시 안덕면 사계북로 75,33.2354316,126.2958699,(+82) 064-792-6161,"""https://api.cdn.visitjeju.net/photomng/imgpath/201804/30/52ed1325-1a9a-427e-bdb3-b0679aaeac70.jpg"""
하늘타리펜션,제주특별자치도 제주시 연대마을길 59,33.4938797,126.4244775,(+82) 064-742-7042,"""https://api.cdn.visitjeju.net/photomng/imgpath/201804/30/5a1de957-619f-4ce1-b3ec-cb242e447c90.gif"""
하니크라운호텔,제주특별자치도 제주시 삼성로 10,33.5050011,126.5277575,(+82) 010-2653-0324,"""https://api.cdn.visitjeju.net/photomng/imgpath/201912/12/19d2731a-7daf-468e-b9d6-ef55520a62f3.jpg"""
"하도야비어, 하도야베드민박",제주특별자치도 제주시 구좌읍 세종로 285,33.5009033,126.8836747,(+82) 0507-1377-6607,"""https://api.cdn.visitjeju.net/photomng/imgpath/202401/15/f4233f89-8300-48c1-9bcb-8cc6cf758cc3.jpg"""
하도하도 3200,제주특별자치도 제주시 구좌읍 면수1길 38,33.5247036,126.8642343,(+82) 010-5325-8297,"""https://api.cdn.visitjeju.net/photomng/imgpath/201810/24/befa9bd7-11c4-4eeb-b41a-d7ed9f81b0cf.jpg"""
하루앤하루,제주특별자치도 제주시 조천읍 조천7길 12,33.5374754,126.6354553,(+82) 010-8855-3111,"""https://api.cdn.visitjeju.net/photomng/imgpath/201804/30/81c597c4-c080-41ef-9abc-ace1393025c7.jpg"""
하마다 게스트하우스,제주특별자치도 서귀포시 남원읍 일주동로 6863,33.288763,126.7461142,(+82) 064-764-5821,"""https://api.cdn.visitjeju.net/photomng/imgpath/201810/15/8cd5c31c-ad39-40c4-b540-1d046cca9431.jpg"""
하바다 통나무집,제주특별자치도 서귀포시 안덕면 대평감산로 86,33.2414326,126.3649239,(+82) 064-738-3599,"""https://api.cdn.visitjeju.net/photomng/imgpath/202212/06/4e69b372-e5aa-4907-ba9e-e016931c9304.jpg"""
하얀도화지,제주특별자치도 서귀포시 하예로44번길 1,33.2453121,126.3891742,(+82) 064-738-3269,"""https://api.cdn.visitjeju.net/photomng/imgpath/201804/30/dc0c0884-8a0a-477f-9dac-a2e284ac3a64.jpg"""
하얀언덕,제주특별자치도 서귀포시 표선면 민속해안로 351,33.3114895,126.8340241,(+82) 010-3665-8201,"""https://api.cdn.visitjeju.net/photomng/imgpath/202212/06/3eeb5387-18b8-4526-b389-6b03339dfbb3.jpg"""
하와이펜션,제주특별자치도 제주시 도두봉2길 75,33.5074509,126.4760133,(+82) 064-711-8451,"""https://api.cdn.visitjeju.net/photomng/imgpath/202212/06/000f9603-a9f1-490b-9f4e-cdae59a42f9e.jpg"""
하이제주호텔,제주특별자치도 제주시 한림읍 일주서로 5125,33.3917509,126.2533243,(+82) 064-723-5801,"""https://api.cdn.visitjeju.net/photomng/imgpath/202205/17/6ed26a1a-dac4-4ef0-b451-2cc65c4a846d.jpg"""
한담풍경하우스,제주특별자치도 제주시 애월읍 애월로 6,33.4594012,126.3114094,(+82) 0507-1330-9881,"""https://api.cdn.visitjeju.net/photomng/imgpath/201905/17/bab7368b-34de-42d7-be67-0f86b686fbdc.jpg"""
한라앤탐 펜션,제주특별자치도 서귀포시 남원읍 위미중앙로300번길 8,33.2729803,126.6742228,(+82) 064-764-6560,"""https://api.cdn.visitjeju.net/photomng/imgpath/201804/30/2196fee5-3cb8-48df-a04f-86de143f0207.jpg"""
한라하이츠펜션,제주특별자치도 서귀포시 고근산로202번길 94,33.2685572,126.5183497,(+82) 064-738-7898,"""https://api.cdn.visitjeju.net/photomng/imgpath/201804/30/e8eaa264-8773-4878-868f-ae7b05a053c6.jpg"""
한림 퐁낭하우스 펜션,제주특별자치도 제주시 한림읍 대림12길 60-4 (대림리),33.4252897,126.2769996,(+82) 0507-1344-5051,"""https://api.cdn.visitjeju.net/photomng/imgpath/201812/18/4064ddf5-ad07-487c-b8ed-5cfe05ef6052.jpg"""
한모살,제주특별자치도 제주시 구좌읍 행원로1길 26,33.5542122,126.8002745,(+82) 010-4009-5827,"""https://api.cdn.visitjeju.net/photomng/imgpath/202211/03/8acc407e-fbe4-47bd-929c-51fb5ac74dcd.jpg"""
함덕삼다펜션,제주특별자치도 제주시 조천읍 조함해안로 488,33.5426734,126.6648439,(+82) 064-782-1700,"""https://api.cdn.visitjeju.net/photomng/imgpath/202212/06/fc7d57cb-dd97-44f5-bb13-d82eb6d19790.jpg"""
핫플게스트하우스,서귀포시 성산읍 한도로242번길 8,33.4660212,126.9327864,(+82) 010-2660-9714,"""https://api.cdn.visitjeju.net/photomng/imgpath/202211/08/6a52336f-012f-46b3-bb43-74b55c2c0fcc.jpg"""
해녀신춘자할망 민박,제주 서귀포시 성산읍 오조로92,33.4620684,126.9149113,(+82) 010-3866-2972,"""https://api.cdn.visitjeju.net/photomng/imgpath/202111/26/6b7f521e-2dd8-42c7-bbf7-458bd2511cca.jpg"""
해담은스파빌,제주특별자치도 서귀포시 안덕면 사계북로 157-15,33.2394114,126.3038784,(+82) 064-792-4200,"""https://api.cdn.visitjeju.net/photomng/imgpath/201804/30/0b88b19e-de95-4611-9af9-8869bbff23bb.jpg"""
해돋는마을,제주특별자치도 서귀포시 성산읍 한도로 116-1,33.468119,126.9203391,(+82) 010-9898-0767,"""https://api.cdn.visitjeju.net/photomng/imgpath/201804/30/5e4a8bd2-bf72-42c2-a01c-62eed39cff47.gif"""
해뜨는집,제주특별자치도 서귀포시 성산읍 한도로 137,33.4691308,126.9226464,(+82) 064-784-8812,"""https://api.cdn.visitjeju.net/photomng/imgpath/202307/14/0a7d0ef0-b043-43e5-83fd-3b2b0d160a15.jpg"""
해뜨는집,제주특별자치도 서귀포시 남원읍 하신로 31,33.2579238,126.6324524,(+82) 010-8861-7651,"""https://api.cdn.visitjeju.net/photomng/imgpath/201912/19/f884d09f-2c58-4258-80d4-e07fd24f0687.jpg"""
해마지펜션,제주특별자치도 서귀포시 성산읍 일주동로 5431,33.3544369,126.8612985,(+82) 064-787-2465,"""https://api.cdn.visitjeju.net/photomng/imgpath/202212/06/c52ab12a-a1c0-4caf-94c0-652d1b9b0a97.jpg"""
해마호텔,제주특별자치도 제주시 삼무로 28,33.4897173,126.489565,(+82) 064-766-4000,"""https://api.cdn.visitjeju.net/photomng/imgpath/201804/30/7209f95d-8848-4f73-853e-311582bf1b47.jpg"""
해변여행,제주특별자치도 제주시 애월읍 가문동길 41-2,33.4860829,126.3920275,(+82) 064-747-5508,"""https://api.cdn.visitjeju.net/photomng/imgpath/201804/30/4b7fd2bc-35bd-4c24-889b-c60377e669ba.jpg"""
해변의집,제주특별자치도 제주시 서해안로 224-1,33.5083362,126.4707195,(+82) 064-713-1255,"""https://api.cdn.visitjeju.net/photomng/imgpath/201804/30/ae9bef24-38a4-441c-9976-2da4b458f97d.jpg"""
해비치 바람의집 펜션&카페,제주특별자치도 서귀포시 표선면 민속해안로 381,33.3124636,126.8365723,(+82) 064-787-9888,"""https://api.cdn.visitjeju.net/photomng/imgpath/201907/05/e4443103-3d84-4a2d-a348-484604c96444.jpg"""
해성펜션,제주특별자치도 서귀포시 천제연로 131-8,33.2544544,126.4198422,(+82) 064-738-8484,"""https://api.cdn.visitjeju.net/photomng/imgpath/202212/06/aa9ea468-f2b6-4180-9dc2-9f00cc74f6c4.jpg"""
해아래펜션,제주특별자치도 제주시 애월읍 번대동길 5,33.4782996,126.3923235,(+82) 0507-1384-8992,"""https://api.cdn.visitjeju.net/photomng/imgpath/201804/30/ee906317-63fc-41a6-8e8e-f7d5888e64a3.jpg"""
해안풍경펜션,제주특별자치도 제주시 신사수2길 6,33.50878,126.4749994,(+82) 064-711-9995,"""https://api.cdn.visitjeju.net/photomng/imgpath/201804/30/862b15f0-1eb5-462c-8e34-de9e2c9c9aba.jpg"""
해오름민박,제주특별자치도 제주시 우도면 우도해안길 830,33.5121129,126.95855,(+82) 064-784-1365,"""https://api.cdn.visitjeju.net/photomng/imgpath/201804/30/4dfd5f7c-95dd-4e1f-aff7-71fa5892d7f0.jpg"""
해일월,제주특별자치도 제주시 구좌읍 김녕항3길 26-29,33.5581609,126.7457542,(+82) 010-5326-6477,"""https://api.cdn.visitjeju.net/photomng/imgpath/201804/30/2eefc186-4053-49b1-83db-6d8b896e144b.jpg"""
해피데이,제주특별자치도 제주시 한림읍 한림로 423,33.3993518,126.2468135,(+82) 064-796-3339,"""https://api.cdn.visitjeju.net/photomng/imgpath/201804/30/a251ceb0-ecd1-4d41-a554-47a2613e652b.png"""
해피데이펜션,제주특별자치도 제주시 한림읍 한림로 423,33.3993518,126.2468135,(+82) 064-796-3339,"""https://api.cdn.visitjeju.net/photomng/imgpath/202212/06/896dd3ad-ab74-4eb3-9357-15b4c01e84ae.jpg"""
해호텔,제주특별자치도 제주시 서해안로 526,33.5197743,126.4952111,(+82) 064-742-5356,"""https://api.cdn.visitjeju.net/photomng/imgpath/201804/30/07042426-8d50-472f-b650-be60da77f3d5.gif"""
핸즈인제주,제주시 구좌읍 비자숲길 13,33.4954827,126.8123836,(+82) 010-9044-9864,"""https://api.cdn.visitjeju.net/photomng/imgpath/202211/09/713bed0c-62dd-4191-8b05-5129d55f6932.jpg"""
허브인휴양펜션,제주특별자치도 제주시 한림읍 귀덕6길 92-17,33.4357971,126.2902365,(+82) 064-796-6604,"""https://api.cdn.visitjeju.net/photomng/imgpath/202212/06/9d2bbea5-4b3b-445b-9c49-9c3a203f269f.jpg"""
허브펜션 오즈,제주특별자치도 서귀포시 표선면 표선백사로58번길 36,33.3183241,126.8337423,(+82) 064-787-8959,"""https://api.cdn.visitjeju.net/photomng/imgpath/202212/06/eac48661-04c6-4906-957d-b249d17a95be.jpg"""
헌치 게스트하우스,제주특별자치도 제주시 구좌읍 비자림로 1627 (송당리) 제주 오석심 공예 명장관,33.454576,126.771038,(+82) 010-3304-1667,"""https://api.cdn.visitjeju.net/photomng/imgpath/201811/19/1516f163-e7f4-4c6b-8217-39a5203e7858.jpg"""
헤세드하우스,제주특별자치도 서귀포시 표선면 가마행남로 42,33.3053549,126.804947,(+82) 064-733-7114,"""https://api.cdn.visitjeju.net/photomng/imgpath/202205/17/4ea7ab6f-4bdc-4486-b849-08114f43feb6.jpg"""
헤이 서귀포,제주특별자치도 서귀포시 태평로 363,33.2462331,126.5603065,(+82) 064-763-0024,"""https://api.cdn.visitjeju.net/photomng/imgpath/202206/15/a30ab3da-0be6-428b-9af2-ef8a095e5f6d.jpg"""
호도하우스,제주특별자치도 서귀포시 막숙포로 134,33.2319363,126.5089009,(+82) 064-739-1152,"""https://api.cdn.visitjeju.net/photomng/imgpath/201804/30/6055c1ae-74ff-465c-960c-a2b6736e0f3c.jpg"""
호텔 샬롬제주,제주특별자치도 제주시 동광로 34,33.5019708,126.5326314,(+82) --,"""https://api.cdn.visitjeju.net/photomng/imgpath/202211/02/7f811206-4888-4673-896a-b106c6f96def.jpg"""
호텔 스카브로,제주특별자치도 서귀포시 예래해안로 15,33.2333618,126.3701046,(+82) 064-738-1551,"""https://api.cdn.visitjeju.net/photomng/imgpath/201807/31/06cc3ecd-36a8-47fe-8bdf-b30a34b3c9a6.jpg"""
호텔 시리우스 제주,제주특별자치도 제주시 도령로 133,33.4934411,126.4910541,(+82) 070-4559-1130,"""https://api.cdn.visitjeju.net/photomng/imgpath/202401/11/1165d33f-6ca0-4196-aebd-bb8f3d820e58.jpg"""
호텔 앨리스앤트렁크,제주특별자치도 제주시 연동12길 4,33.4853708,126.4930291,(+82) 064-742-2888,"""https://api.cdn.visitjeju.net/photomng/imgpath/202011/12/56656ebf-20e5-413f-8539-2bc181f00ead.jpg"""
호텔 캘리포니아 제주,제주특별자치도 서귀포시 김정문화로27번길 14-4,33.2528921,126.5083781,(+82) 064-738-9901,"""https://api.cdn.visitjeju.net/photomng/imgpath/202207/06/6e5b6a3d-a421-48ea-ba9a-e2a1a0007c87.jpg"""
호텔 화인 제주,제주특별자치도 서귀포시 칠십리로 87,33.2405188,126.5650839,(+82) 064-763-9540,"""https://api.cdn.visitjeju.net/photomng/imgpath/201804/30/eccd6409-c7f9-4543-91fe-c4e8c0b81a2f.jpg"""
호텔W,제주특별자치도 제주시 은남4길 42,33.4865592,126.4913055,(+82) 064-752-7000,"""https://api.cdn.visitjeju.net/photomng/imgpath/201912/06/15a45160-5b1c-4ca9-a99b-0e901c8443e0.jpg"""
호텔서귀피안,제주특별자치도 서귀포시 보목로64번길 178 호텔서귀피안,33.2443514,126.59071,(+82) 064-735-1453,"""https://api.cdn.visitjeju.net/photomng/imgpath/201907/15/15fa560c-8f1a-452b-9a82-6d52defd1450.jpg"""
호텔아로하,제주특별자치도 서귀포시 성산읍 성산등용로 40,33.4663987,126.9309357,(+82) -782-3100,"""https://api.cdn.visitjeju.net/photomng/imgpath/202211/10/b19edb2c-4bca-46a0-bd10-295c621e7611.jpg"""
호텔제이엠,제주특별자치도 제주시 삼무로1길 10-7,33.4904023,126.4887698,(+82) 064-747-6766,"""https://api.cdn.visitjeju.net/photomng/imgpath/202212/06/fdeb86ef-9365-497f-a954-eaa9c2ff232e.jpg"""
호텔컬리넌제주,제주특별자치도 제주시 사장1길 26,33.4854123,126.4928464,(+82) 064-743-6500,"""https://api.cdn.visitjeju.net/photomng/imgpath/201804/30/9f6eea15-5927-4b47-8587-992e303edc7d.jpg"""
혼디펜션,제주특별자치도 제주시 애월읍 신엄안3길 20,33.4743455,126.3646096,(+82) 010-3954-5933,"""https://api.cdn.visitjeju.net/photomng/imgpath/201808/17/6c150f73-ff97-485f-ae99-34628801fbbf.jpg"""
환상의민박,제주특별자치도 서귀포시 대정읍 마라로 45,33.1196136,126.2672366,(+82) 064-792-8857,"""https://api.cdn.visitjeju.net/photomng/imgpath/201804/30/e38c7351-ce39-4a73-88b9-71f080602934.jpg"""
황재여관,제주특별자치도 제주시 추자면 추자로 70,33.9610816,126.2948111,(+82) 064-742-7507,"""https://api.cdn.visitjeju.net/photomng/imgpath/201908/20/b47231d2-da51-4c77-b5d3-5f6f1362c17b.jpg"""
훈데르트힐즈,제주특별자치도 제주시 우도면 우도해안길 32-24,33.4938954,126.9553747,(+82) 064-766-6000,"""https://api.cdn.visitjeju.net/photomng/imgpath/202401/12/a279bb73-dd14-4a30-a7f7-afe5675b935c.jpg"""
훼밀리민박,제주특별자치도 서귀포시 안덕면 형제해안로 24,33.227914,126.3040411,(+82) 064-794-5136,"""https://api.cdn.visitjeju.net/photomng/imgpath/202212/06/505b4643-91d0-4c96-84f6-542a1ab33558.jpg"""
휴마루리조트,제주특별자치도 서귀포시 중산간동로8183번길 16,33.2612786,126.5426746,(+82) 064-762-1111,"""https://api.cdn.visitjeju.net/photomng/imgpath/202212/06/8519ce2f-299b-450a-957b-f5a4efaa9e34.jpg"""
휴일기록,제주특별자치도 서귀포시 성산읍 시흥하동로50번길 15,33.4742568,126.9068554,(+82) 0507-1367-5096,"""https://api.cdn.visitjeju.net/photomng/imgpath/202401/11/5cb85519-5b8f-4be4-a046-a9af4b218840.jpg"""
히든스테이,제주특별자치도 서귀포시 성산읍 성산중앙로40번길 12,33.4630563,126.9343722,(+82) 0507-1385-3800,"""https://api.cdn.visitjeju.net/photomng/imgpath/202208/31/0de954bb-d5b5-4b32-92e4-da385dfd3b60.jpg"""
힐링캠프펜션,서귀포시 남원읍 위미항구로 96,33.2827589,126.6556588,(+82) 064-764-1166,"""https://api.cdn.visitjeju.net/photomng/imgpath/202211/04/7722c38b-dd8f-4082-be08-7682f0addf40.jpg"""
구르미별동,제주특별자치도 제주시 구좌읍 세화합전1길 34-12,33.511035,126.8615015,(+82) 010-4094-5366,"""https://api.cdn.visitjeju.net/photomng/imgpath/202212/06/88b66089-bd60-4b39-9e9f-18df57984fae.jpg"""
구름비낭펜션,제주특별자치도 제주시 한경면 판포2길 6-14,33.3634307,126.1976976,(+82) 010-2269-4596,"""https://api.cdn.visitjeju.net/photomng/imgpath/201804/30/886f9e03-5c20-4d95-b656-8d1c5be2986b.jpg"""
굿데이 펜션,제주특별자치도 서귀포시 남성로115번길 2,33.2425247,126.5527807,(+82) 064-733-0198,"""https://api.cdn.visitjeju.net/photomng/imgpath/201912/05/47890acb-be0a-449d-b0b2-266ed7eedfd0.jpg"""
그라벨호텔,제주특별자치도 제주시 일주서로 7316,33.4924349,126.4287034,(+82) 064-740-8000,"""https://api.cdn.visitjeju.net/photomng/imgpath/201804/30/2f01d105-15bd-4d92-9a3e-053ed24c33e0.jpg"""
그랜드 조선 제주,제주특별자치도 서귀포시 중문관광로72번길 60,33.249859,126.4049977,(+82) 064-738-6600,"""https://api.cdn.visitjeju.net/photomng/imgpath/202107/19/9a6f885a-b95a-4c53-aea8-3f9140e54643.jpg"""
그린나래,제주도 서귀포시 성산읍 서성일로 615,33.4279438,126.8508228,(+82) 0507-1333-7071,"""https://api.cdn.visitjeju.net/photomng/imgpath/201804/30/5c06e0b8-5063-471f-a28e-bd80a312d05a.jpg"""
그린민박,제주특별자치도 제주시 추자면 대서6길 6-5,33.9615394,126.293161,(+82) 064-742-7377,"""https://api.cdn.visitjeju.net/photomng/imgpath/201908/21/422a4a1b-5be6-4e5d-9697-221f69853a5a.jpg"""
그린사이드펜션,제주특별자치도 서귀포시 천제연로 51,33.2566846,126.4114396,(+82) 064-738-0074,"""https://api.cdn.visitjeju.net/photomng/imgpath/202212/02/d34fa6a4-2b86-46c9-8fe3-339ab48553e7.jpg"""
그림같은집,제주도 서귀포시 법환상로22번길 71,33.2467932,126.5175167,(+82) 064-739-6352,"""https://api.cdn.visitjeju.net/photomng/imgpath/201804/30/027dc47f-8bec-451f-a137-82a149a051f4.jpg"""
그림그리는펜션,제주도 서귀포시 성산읍 금백조로131번길 181,33.4313404,126.8438305,(+82) 010-4949-7953,"""https://api.cdn.visitjeju.net/photomng/imgpath/201804/30/c99fd25a-c9ac-43e1-99d1-80a616559d25.png"""
그림리조트,제주특별자치도 제주시 서해안로 620-1 (용담삼동),33.515778,126.4956884,(+82) 064-713-0002,"""https://api.cdn.visitjeju.net/photomng/imgpath/201906/04/b82fd35f-036d-4e8b-87cf-f11a42fc7cf4.jpg"""
글라라의집,제주특별자치도 서귀포시 안덕면 사계남로 211,33.2321239,126.3086355,(+82) 064-900-8222,"""https://api.cdn.visitjeju.net/photomng/imgpath/201804/30/1a0b7745-d9f9-49ba-acb2-b707586da911.jpg"""
금능이큐스테이호텔,제주특별자치도 제주시 한림읍 금능남1길 6-1,33.3854206,126.2298086,(+82) 0507-1497-5007,"""https://api.cdn.visitjeju.net/photomng/imgpath/202308/18/80d4402f-fedb-4fae-9c9a-c92c387c26e0.jpg"""
금서방네이층집,제주특별자치도 서귀포시 안덕면 덕수회관로 61번길 1,33.2539274,126.3101984,(+82) 010-5726-8633,"""https://api.cdn.visitjeju.net/photomng/imgpath/201804/30/b5cdadcd-3212-4c26-a041-e1722d37fe35.jpg"""
기분좋은 민박,제주특별자치도 제주시 구좌읍 선유로 36,33.5501005,126.7388369,(+82) 010-6693-1293,"""https://api.cdn.visitjeju.net/photomng/imgpath/201912/19/f2c9009b-936d-4699-be58-282963be28bb.jpg"""
길섶나그네펜션,제주도 제주시 조천읍 미래로 241,33.4683511,126.6786074,(+82) 064-782-5971,"""https://api.cdn.visitjeju.net/photomng/imgpath/201804/30/b48c5846-1a3e-4129-8ac8-cffc86b89e28.gif"""
김군아미고게스트하우스,제주특별자치도 제주시 애월읍 애월해안로 670,33.4810809,126.3739717,(+82) 0507-1316-6045,"""https://api.cdn.visitjeju.net/photomng/imgpath/201904/03/df3d357c-d91f-4631-8951-97331c338a87.jpg"""
김녕몽생이,제주특별자치도 제주시 구좌읍 김녕로1길 35-14,33.5572381,126.7481847,(+82) 010-5665-6347,"""https://api.cdn.visitjeju.net/photomng/imgpath/201804/30/e6a75a35-6750-4ddb-81a8-fc85c3729bb2.jpg"""
김녕한옥 용암정원,제주특별자치도 제주시 구좌읍 김녕로19길 42-6,33.5570966,126.7514096,(+82) 010-6296-1563,"""https://api.cdn.visitjeju.net/photomng/imgpath/201804/30/818952d8-d966-41b2-bcfd-6c8066f7b638.jpg"""
김선장네 민박,제주특별자치도 제주시 추자면 영흥1길 14,33.9610515,126.294443,(+82) 010-9040-0988,"""https://api.cdn.visitjeju.net/photomng/imgpath/201908/20/52230336-a52c-446f-bab8-9b9cb97828e2.jpg"""
까사데비발디호텔,제주특별자치도 서귀포시 안덕면 향교로 214,33.2340812,126.2906059,(+82) 070-8900-8899,"""https://api.cdn.visitjeju.net/photomng/imgpath/201804/30/d163c9d6-6a51-4790-be5c-222a98a14870.jpg"""
꽃머채 펜션,제주특별자치도 제주시 애월읍 소길남길 202-4,33.418426,126.3767535,(+82) 064-799-4665,"""https://api.cdn.visitjeju.net/photomng/imgpath/202212/02/432fa4ef-2cd7-4610-8518-80c86325dacf.jpg"""
꽃향기바다소리,제주특별자치도 제주시 한경면 판조로 29,33.365668,126.2065328,(+82) 010-2559-0066,"""https://api.cdn.visitjeju.net/photomng/imgpath/202212/02/c9ad41d5-2e18-4b08-9e25-9138ea28e467.jpg"""
꿀잠자리,제주특별자치도 서귀포시 대정읍 최남단해안로30번길 14,33.2181389,126.2508982,(+82) 070-8881-1400,"""https://api.cdn.visitjeju.net/photomng/imgpath/201804/30/8e19c9d4-e2d1-4fd7-a2a8-4c06ceb891c2.jpg"""
꿈꾸는 노마드,제주특별자치도 서귀포시 선반로 54,33.2416811,126.4996554,(+82) 064-739-3114,"""https://api.cdn.visitjeju.net/photomng/imgpath/201912/19/87d6fec3-0bce-4532-b516-24ee9b388b07.jpg"""
꿈꾸는바다펜션,제주도 제주시 도두항서길 65,33.5041784,126.4636875,(+82) 064-711-7070,"""https://api.cdn.visitjeju.net/photomng/imgpath/201804/30/f89c50b2-93a1-4f08-8b1b-51771d8c10a8.jpg"""
꿈꾸는정원,제주특별자치도 제주시 조천읍 함덕서4길 47,33.5389125,126.6654042,(+82) 010-6209-3150,"""https://api.cdn.visitjeju.net/photomng/imgpath/201912/19/795840b0-384a-41f2-a0cb-c933dd0b0cc5.jpg"""
나무아래독채펜션,제주특별자치도 제주시 구좌읍 송당서길 51-1,33.4669169,126.7693215,(+82) 010-4602-3509,"""https://api.cdn.visitjeju.net/photomng/imgpath/201804/30/4fa812d5-f572-4eb5-8bd4-c0b479e84586.jpg"""
나무이야기,제주특별자치도 서귀포시 남원읍 남한로21번길 9,33.2808496,126.7165103,(+82) 010-3389-4071,"""https://api.cdn.visitjeju.net/photomng/imgpath/201804/30/729fb034-d7ad-491b-b3b4-65d5d42d46db.jpg"""
나무이야기 게스트하우스 남원점,제주특별자치도 서귀포시 남원읍 남한로21번길 9,33.2808496,126.7165103,(+82) 010-3389-4071,"""https://api.cdn.visitjeju.net/photomng/imgpath/202211/07/d92830f3-d532-42b5-b37e-f787683175b0.jpg"""
나무이야기 하우스,제주특별자치도 서귀포시 표선면 민속해안로 32,33.3044377,126.8061771,(+82) 010-9689-0425,"""https://api.cdn.visitjeju.net/photomng/imgpath/201804/30/b93d2f7f-f525-48a5-8c72-433188289b4a.jpg"""
나무이야기게스트하우스,제주특별자치도 서귀포시 남원읍 태신삼석로 6,33.2947796,126.7585369,(+82) 010-3389-4071,"""https://api.cdn.visitjeju.net/photomng/imgpath/202211/04/ac966fe2-a34a-40b4-961d-936c176758c5.jpg"""
나무향기펜션,제주특별자치도 제주시 도리로 62,33.49897,126.4589066,(+82) 064-743-2442,"""https://api.cdn.visitjeju.net/photomng/imgpath/201804/30/861d04a7-c193-4e6a-9a08-40e39483c212.jpg"""
나바론 민박,제주특별자치도 제주시 추자면 추자로 76-1,33.9608133,126.2953138,(+82) 064-742-8953,"""https://api.cdn.visitjeju.net/photomng/imgpath/201908/20/63cbc685-9f01-44ec-ad0d-180250278dc9.jpg"""
나비스호텔,제주특별자치도 제주시 애월읍 애월해안로 885,33.4862622,126.3914994,(+82) 064-712-5200,"""https://api.cdn.visitjeju.net/photomng/imgpath/201804/30/13709065-f7a3-4390-9ce8-11017f9bf815.jpg"""
나인스파빌,제주특별자치도 제주시 애월읍 하광로 518,33.4454174,126.4302656,(+82) 064-727-1000,"""https://api.cdn.visitjeju.net/photomng/imgpath/201804/30/5e4257f5-990a-4431-9bb5-fb8e4f44051a.jpg"""
남쪽나라빌,제주특별자치도 서귀포시 천제연로 133-1,33.2540418,126.4197569,(+82) 064-738-5679,"""https://api.cdn.visitjeju.net/photomng/imgpath/201804/30/ae605c19-daa0-48b3-af77-5497c9cb81f6.jpg"""
낭만펜션,제주특별자치도 제주시 도두5길 28,33.5048443,126.4720645,(+82) 064-713-7705,"""https://api.cdn.visitjeju.net/photomng/imgpath/201804/30/664f5872-4931-479b-acff-ef82f100e89d.jpg"""
내사랑추자야펜션민박,제주특별자치도 제주시 추자면 추자로 104-2,33.9596786,126.2974729,(+82) 010-8838-8953,"""https://api.cdn.visitjeju.net/photomng/imgpath/201908/20/b5bfacc4-f83e-4155-8bc0-4e9520d2274c.jpg"""
네모스테이,제주특별자치도 제주시 한림읍 한림로 394,33.3971609,126.2447593,(+82) 0507-1313-0946,"""https://api.cdn.visitjeju.net/photomng/imgpath/202401/12/9a6aa9f9-9b82-472a-ae0d-127c363ff67d.jpg"""
노닐다 게스트하우스,제주특별자치도 제주시 우도면 우도해안길 84-3,33.4942055,126.9510515,(+82) 064-784-5460,"""https://api.cdn.visitjeju.net/photomng/imgpath/202211/09/bafb4fa7-cdb0-4528-9ab9-82e5acfa905e.jpg"""
노블렛휴양펜션,제주특별자치도 서귀포시 남원읍 남조로 861-83,33.3430194,126.6960758,(+82) 064-764-8900,""""""
노을과원담,제주특별자치도 제주시 한경면 한경해안로 282,33.3317996,126.1661238,(+82) 070-4205-1892,"""https://api.cdn.visitjeju.net/photomng/imgpath/201804/30/0e7bf059-1fce-43ef-8f58-347ebbf3f4ed.jpg"""
노을과포도향기,제주특별자치도 제주시 애월읍 신상로 238-2,33.4512965,126.365563,(+82) 064-799-8381,"""https://api.cdn.visitjeju.net/photomng/imgpath/201804/30/b44245a1-cbce-4d27-82d5-66be44a4da44.jpg"""
노을담은뜨락,제주특별자치도 서귀포시 대정읍 노을해안로 416,33.25624,126.1903353,(+82) 010-5258-4993,"""https://api.cdn.visitjeju.net/photomng/imgpath/202212/02/35585b40-7f1f-4a43-8194-6e39495a8bd2.jpg"""
놀멍쉬멍고르멍,제주특별자치도 제주시 구좌읍 동복남4길 5-4,33.5506472,126.7128553,(+82) 010-4301-4196,"""https://api.cdn.visitjeju.net/photomng/imgpath/201804/30/c61e2ecb-5517-4cc9-a2c2-87347ebada12.png"""
누구하나,제주특별자치도 제주시 애월읍 수산서4길 3 (수산리) 누구하나,33.4677096,126.3859141,(+82) 010-3667-8620,"""https://api.cdn.visitjeju.net/photomng/imgpath/202303/22/e427ae06-f062-4f76-a9c6-7dd90d285c11.jpg"""
누울,제주특별자치도 제주시 구좌읍 대수길 10-18,33.53644,126.8390894,(+82) 0507-1376-2998,"""https://api.cdn.visitjeju.net/photomng/imgpath/202211/14/967b34f4-4bd7-4e34-80fe-398952774270.jpg"""
눈먼고래,제주특별자치도 제주시 조천읍 조천7길 19-12,33.5385696,126.6345209,(+82) 010-9490-5531,"""https://api.cdn.visitjeju.net/photomng/imgpath/201804/30/7d68f083-c6f8-47d0-a442-42281db2fd3d.jpg"""
뉴그린모텔,제주특별자치도 서귀포시 표선면 표선백사로 119,33.3261354,126.8366449,(+82) 064-787-0777,"""https://api.cdn.visitjeju.net/photomng/imgpath/202212/02/ae639262-f65f-4886-808f-be25c387828d.jpg"""
뉴그린펜션,제주특별자치도 서귀포시 표선면 표선백사로 121,33.3262484,126.8365735,(+82) 064-787-1811,"""https://api.cdn.visitjeju.net/photomng/imgpath/202212/02/4bf76648-9aef-4022-976c-6cb28c652fc1.jpg"""
뉴아일랜드민박,제주특별자치도 제주시 추자면 추자로 581-6,33.9465975,126.3288828,(+82) 064-744-0533,"""https://api.cdn.visitjeju.net/photomng/imgpath/201908/20/2d7244ab-3143-4b9b-82c0-04030cc97c2f.jpg"""
뉴아일랜드호텔,제주특별자치도 제주시 연동6길 17,33.4843325,126.4894074,(+82) 064-712-1300,"""https://api.cdn.visitjeju.net/photomng/imgpath/201804/30/fab6c5a4-afc3-4085-a7d2-3d761135214b.jpg"""
뉴코리아유스호스텔,제주특별자치도 제주시 애월읍 하소로 769-15,33.4171086,126.3982244,(+82) 064-799-7001,""""""
느르왓,제주특별자치도 제주시 한경면 고산중길 23,33.3053082,126.1841073,(+82) 010-7639-9464,"""https://api.cdn.visitjeju.net/photomng/imgpath/201809/04/223bc1a7-017b-4313-bfba-b9ef679bd997.jpg"""
늘송파크텔,제주특별자치도 제주시 원노형5길 22,33.4875666,126.4831775,(+82) 064-749-3303,"""https://api.cdn.visitjeju.net/photomng/imgpath/202212/02/97ad083c-5c4b-487d-8880-a339d6c56b43.jpg"""
늘푸른 게스트하우스,제주특별자치도 서귀포시 대정읍 하모백사로 29,33.2142124,126.2591329,(+82) 010-5049-4910,"""https://api.cdn.visitjeju.net/photomng/imgpath/201804/30/6c5daba7-a0c7-4737-8f3a-cfbf69972282.png"""
늘해랑펜션,제주특별자치도 서귀포시 분토왓로174번길 34-1,33.2791401,126.5536013,(+82) 010-6609-5509,"""https://api.cdn.visitjeju.net/photomng/imgpath/202211/08/bd797ce0-ca89-4a7e-a661-cde3b20299fc.jpg"""
다노이커플펜션,제주특별자치도 제주시 구좌읍 동복로 51,33.5532205,126.7117113,(+82) 010-9614-2555,"""https://api.cdn.visitjeju.net/photomng/imgpath/202212/02/aaad0054-3049-4801-aab3-6db52af0da8a.jpg"""
다래산장펜션,제주특별자치도 제주시 애월읍 납읍로10길 49-32,33.4308499,126.34774,(+82) 064-799-7064,"""https://api.cdn.visitjeju.net/photomng/imgpath/202212/02/5e8731e8-aedb-4ca2-8231-07634e08db78.jpg"""
다미네민박,제주특별자치도 제주시 추자면 대서6길 46,33.9617398,126.2923887,(+82) 010-3693-9771,"""https://api.cdn.visitjeju.net/photomng/imgpath/201908/21/fa503ac1-b19b-4f09-915c-65719a5fb5ba.jpg"""
다솜펜션,제주특별자치도 서귀포시 이어도로 139,33.2406464,126.4369671,(+82) 064-738-6366,"""https://api.cdn.visitjeju.net/photomng/imgpath/201804/30/fcb91ce4-1096-4865-ae0a-df1ec434267d.jpg"""
다올제민박,제주특별자치도 제주시 구좌읍 하도7길 9,33.5162256,126.885416,(+82) 010-2833-0865,"""https://api.cdn.visitjeju.net/photomng/imgpath/201804/30/c7996e7a-21aa-436b-bf1b-8cea6607bb6f.jpg"""
다이브게스트하우스,제주도 서귀포시 월드컵로 222,33.2412062,126.5065669,(+82) 064-739-3333,"""https://api.cdn.visitjeju.net/photomng/imgpath/201804/30/b341812d-4046-4f14-958e-af390197d385.gif"""
다이아몬드 호텔 제주,제주특별자치도 제주시 신대로12길 42,33.488934,126.492233,(+82) 064-742-7744,"""https://api.cdn.visitjeju.net/photomng/imgpath/201804/30/bfa5db45-448a-49ce-9ea4-cc11891d0b26.jpg"""
다인리조트,제주특별자치도 제주시 애월읍 애월해안로 400-9 (고내리) 다인리조트,33.4715798,126.3513363,(+82) 064-799-2600,"""https://api.cdn.visitjeju.net/photomng/imgpath/201807/10/bae56a0a-b7a9-4520-89f2-6c7da25eb91c.jpg"""
다인오세아노 호텔,제주특별자치도 제주시 애월읍 애월해안로 394,33.4725009,126.3504542,(+82) 064-799-2605,"""https://api.cdn.visitjeju.net/photomng/imgpath/201807/17/822187bc-c176-4d97-84ef-b9bc08615129.jpg"""
달빛고운펜션,제주특별자치도 제주시 구좌읍 월정7길 52-1,33.555349,126.7964154,(+82) 010-5053-5356,"""https://api.cdn.visitjeju.net/photomng/imgpath/202211/07/f983fa85-c653-45fd-9f32-a282c1f54158.jpg"""
달빛바다펜션,제주특별자치도 제주시 어영길 64-12,33.517438,126.4984802,(+82) 0507-1380-8697,"""https://api.cdn.visitjeju.net/photomng/imgpath/202211/03/30fff102-7c27-44fd-8e3d-f35e0c41d50c.jpg"""
달자펜션,제주특별자치도 제주시 애월읍 애월해안로 738,33.4836583,126.3797758,(+82) 070-4202-8560,"""https://api.cdn.visitjeju.net/photomng/imgpath/201912/17/dcb2e80f-8933-4c94-acb2-4b86706f41e1.jpg"""
달집게스트하우스,제주특별자치도 제주시 구좌읍 종달논길 32-3,33.4937382,126.9009745,(+82) 010-8869-4373,"""https://api.cdn.visitjeju.net/photomng/imgpath/201804/30/35a0049f-5416-4ef7-b41c-df43a68fac25.jpg"""
달콤한소금만들기,제주특별자치도 서귀포시 안덕면 사계로 100,33.2395534,126.2997536,(+82) 010-2875-8250,"""https://api.cdn.visitjeju.net/photomng/imgpath/201804/30/bf1593d6-5774-4f82-a9a8-73546cabf83e.jpg"""
달콤한아침,제주특별자치도 제주시 구좌읍 행원로 35-9,33.5521549,126.7989945,(+82) 010-4119-5248,"""https://api.cdn.visitjeju.net/photomng/imgpath/201912/13/1f3a621f-38c4-4b5b-8121-ff0b6473294f.jpg"""
담앤루리조트,제주특별자치도 서귀포시 이어도로343번길 63,33.247142,126.451081,(+82) 064-739-6612,"""https://api.cdn.visitjeju.net/photomng/imgpath/201804/30/71e3ba55-f456-448c-ba90-219c8891aa33.jpg"""
담제,제주특별자치도 제주시 구좌읍 행원로4길 21-4,33.5516728,126.8064723,(+82) 0507-1369-2144,"""https://api.cdn.visitjeju.net/photomng/imgpath/202401/12/1803c678-5e0f-400e-8f17-37c6eb9e0e19.jpg"""
대물민박,제주특별자치도 제주시 추자면 추자로 507,33.9408603,126.3237704,(+82) 010-8309-1537,"""https://api.cdn.visitjeju.net/photomng/imgpath/201908/20/1278fb1e-8dc1-4e23-be16-4e7c9b3be470.jpg"""
더갤러리펜션,제주특별자치도 제주시 조천읍 남조로 1717-24,33.4220279,126.6750438,(+82) 0507-1317-4284,"""https://api.cdn.visitjeju.net/photomng/imgpath/201804/30/0aaf4fe1-7a03-46f8-8556-56a816f5b706.jpg"""
더그랜드섬오름,제주특별자치도 서귀포시 막숙포로 118,33.2328083,126.5097921,(+82) 064-800-7200,"""https://api.cdn.visitjeju.net/photomng/imgpath/202105/10/1e789bb2-a1a5-4412-8848-90e91b86eff8.jpg"""
더레드관광호텔,제주특별자치도 제주시 동광로6길 10,33.501029,126.5318941,(+82) 064-725-7252,"""https://api.cdn.visitjeju.net/photomng/imgpath/201804/30/eae4f711-0853-4506-a671-e114d7f3812d.jpg"""
더블루제주호텔,제주특별자치도 서귀포시 칠십리로 479,33.2418978,126.601781,(+82) 064-732-6102,"""https://api.cdn.visitjeju.net/photomng/imgpath/201804/30/a1d33a58-f2bd-4065-971e-5aae593c5f26.png"""
더비비스제주,제주특별자치도 서귀포시 이어도로 760,33.2403359,126.476637,(+82) 064-739-4114,"""https://api.cdn.visitjeju.net/photomng/imgpath/201804/30/349fef34-f13c-4cf8-9156-92d5247ad66c.jpg"""
더쉼팡스파&풀빌라,제주특별자치도 서귀포시 표선면 세성로 67-2,33.3122342,126.8036169,(+82) 064-787-7147,"""https://api.cdn.visitjeju.net/photomng/imgpath/201804/30/89c0590e-dc16-4452-8eab-2a885608adb1.jpg"""
더아름다운펜션,제주특별자치도 서귀포시 일주서로 632,33.253855,126.4419625,(+82) 064-738-8788,"""https://api.cdn.visitjeju.net/photomng/imgpath/201912/04/645cd673-1140-46eb-822b-0a75a26845d4.jpg"""
더오크라호텔,제주특별자치도 제주시 신광로4길 38,33.4891059,126.4860715,(+82) 064-742-2300,"""https://api.cdn.visitjeju.net/photomng/imgpath/202302/24/24e10901-5131-4270-877a-e964f8cae6a2.jpg"""
더칠린,제주특별자치도 제주시 애월읍 애월로 84,33.4642447,126.3164011,(+82) 064-723-5801,"""https://api.cdn.visitjeju.net/photomng/imgpath/202308/18/43381163-b51f-4a9a-94a8-6c87a7036c40.jpg"""
더큐브리조트 제주,제주특별자치도 서귀포시 솔오름로105번길 24,33.2863083,126.5631106,(+82) 064-766-0855,"""https://api.cdn.visitjeju.net/photomng/imgpath/202006/12/63cbc2de-20fc-4d1b-80d4-6cf138270708.jpg"""
더프라이빗,제주특별자치도 제주시 한경면 신창상동길 20-1,33.3498799,126.1878595,(+82) 070-7783-3989,"""https://api.cdn.visitjeju.net/photomng/imgpath/201810/24/354726c0-7944-4049-b6d0-751c4dbd68b9.jpg"""
더하도스파빌라,제주특별자치도 제주시 구좌읍 하도13길 66,33.5104807,126.8929562,(+82) 010-6831-0505,"""https://api.cdn.visitjeju.net/photomng/imgpath/201804/30/e9ae94c8-1256-435d-9eb4-d3e2992678cc.jpg"""
더하우스펜션,제주특별자치도 제주시 구좌읍 해맞이해안로 2060,33.5290971,126.8463777,(+82) 064-784-6040,"""https://api.cdn.visitjeju.net/photomng/imgpath/201804/30/d6c99d42-8a2b-41dd-a87c-4e82b6c53f02.jpg"""
데이즈호텔 제주서귀포오션,제주특별자치도 서귀포시 동홍로 7,33.2493801,126.5674481,(+82) 064-802-7700,"""https://api.cdn.visitjeju.net/photomng/imgpath/201804/30/ecf39fe4-8cde-446a-ae43-99235b95501a.png"""
도도펜션,제주특별자치도 서귀포시 안덕면 대평감산로 47,33.2387973,126.3658059,(+82) 010-7182-4235,"""https://api.cdn.visitjeju.net/photomng/imgpath/201804/30/1e28b5b3-9665-4d45-a7ec-3a427cedc845.jpg"""
도로시게스트하우스,제주특별자치도 서귀포시 성산읍 시흥상동로68번길 26-1,33.4770553,126.8967612,(+82) 064-782-7977,"""https://api.cdn.visitjeju.net/photomng/imgpath/201804/30/75bbed2a-feb2-465b-948d-28a2147434f1.jpg"""
도일모텔,제주특별자치도 제주시 신광로 102,33.4830768,126.4896174,(+82) 064-742-6947,"""https://api.cdn.visitjeju.net/photomng/imgpath/201912/03/d9982583-1ac1-4e23-871a-7cd4c0ac26fd.jpg"""
독채민박 바당집,제주특별자치도 제주시 한림읍 협재1길 12,33.3963952,126.2425891,(+82) 010-5477-1811,"""https://api.cdn.visitjeju.net/photomng/imgpath/201901/21/0d70deeb-8fa3-4393-ab66-a6c0b0f6740b.jpg"""
돌고래하우스,제주특별자치도 서귀포시 이어도로 826-58,33.2328107,126.4996193,(+82) 064-739-7704,"""https://api.cdn.visitjeju.net/photomng/imgpath/201804/30/d92753c3-782b-4741-a3ee-8a9c906ec08c.gif"""
돌꽃펜션,제주특별자치도 제주시 서해안로 572-1,33.518985,126.4985651,(+82) 064-747-0909,"""https://api.cdn.visitjeju.net/photomng/imgpath/202011/02/a23728d0-995c-4cad-8051-963c8d335bd5.jpg"""
돌담민박,제주특별자치도 제주시 애월읍 하귀12길 18,33.4861535,126.4091364,(+82) 010-7722-3859,"""https://api.cdn.visitjeju.net/photomng/imgpath/202211/10/ee605831-1a7c-4415-b0de-53c81d5bdd21.jpg"""
돌담한길펜션,제주특별자치도 서귀포시 남원읍 한신로 55,33.3137156,126.6986337,(+82) 010-4690-4303,"""https://api.cdn.visitjeju.net/photomng/imgpath/202010/07/4e2e7a90-c0f6-4a79-992f-9ba5ab9f74e5.jpg"""
돌집조앤정,제주특별자치도 제주시 구좌읍 세화합전1길 7,33.5153731,126.8600311,(+82) 0507-1402-4305,"""https://api.cdn.visitjeju.net/photomng/imgpath/201912/13/f72dea72-00ca-4f68-a68a-594c8ef7138e.jpg"""
동굴민박,제주특별자치도 제주시 우도면 영일길 156-12,33.5012031,126.9675284,(+82) 010-5845-2528,"""https://api.cdn.visitjeju.net/photomng/imgpath/201804/30/5534da5e-f839-4261-9a88-9e383e7785ed.jpg"""
동막골펜션,제주특별자치도 서귀포시 안덕면 서광서문로 55-7,33.2836024,126.3231552,(+82) 070-7692-0802,"""https://api.cdn.visitjeju.net/photomng/imgpath/201804/30/05508840-14ba-4fd6-b44e-9ae71a5aed1e.jpg"""
동백동산펜션,제주시 조천읍 북흘로 378,33.5162211,126.7060672,(+82) 010-6690-4568,"""https://api.cdn.visitjeju.net/photomng/imgpath/202211/04/6e785b50-b064-44b6-b5c2-f03e044daf01.jpg"""
동복리671,제주특별자치도 제주시 구좌읍 구좌해안로 52-13,33.556114,126.720467,(+82) 064-783-2887,"""https://api.cdn.visitjeju.net/photomng/imgpath/201903/28/4bb2bbbd-2c27-46ab-8d9a-7ddc5c6816c4.jpg"""
동산나라펜션,제주특별자치도 서귀포시 이어도로 164,33.2393379,126.4391838,(+82) 064-738-3535,"""https://api.cdn.visitjeju.net/photomng/imgpath/201804/30/f2b3f27b-8d66-43d7-bd05-4150095a4d13.jpg"""
동양콘도,제주시 애월읍 애월해안로 708,33.4830351,126.3772045,(+82) 064-713-5100,"""https://api.cdn.visitjeju.net/photomng/imgpath/201804/30/dafa6c74-1b99-46f9-bd7a-0a91366dc866.jpg"""
동일민박,"제주특별자치도 제주시 추자면 대서1길 9, 3층",33.9624674,126.2986158,(+82) 010-5477-7929,"""https://api.cdn.visitjeju.net/photomng/imgpath/201908/21/69fcf721-d26f-4721-b8fa-61a7cbdb3b5e.jpg"""
동촌하우스,제주특별자치도 제주시 구좌읍 종달논길 61-4,33.4913963,126.8998875,(+82) 010-5540-6286,"""https://api.cdn.visitjeju.net/photomng/imgpath/202211/07/fbed30d8-e622-450b-aa74-c5542e6d36af.jpg"""
두리안펜션,제주특별자치도 서귀포시 남원읍 태위로 551-3 두리안펜션,33.2759215,126.7057667,(+82) 064-901-1239,"""https://api.cdn.visitjeju.net/photomng/imgpath/201907/17/92f9d0cf-09ad-4af4-a76f-6b343c949fb5.jpg"""
드림캐슬,제주특별자치도 서귀포시 남원읍 남태해안로 364,33.2806173,126.7405325,(+82) 064-764-0871,"""https://api.cdn.visitjeju.net/photomng/imgpath/202212/02/383dd68d-26be-4935-825d-d5ad15ff73b9.jpg"""
등대민박,제주특별자치도 제주시 추자면 대서2길 35,33.963257,126.2979939,(+82) 064-742-3827,"""https://api.cdn.visitjeju.net/photomng/imgpath/201908/20/dbc18d78-8562-4f89-9fc9-0db02a34ba85.jpg"""
디셈버호텔,제주특별자치도 제주시 삼무로1길 15,33.4903285,126.4896406,(+82) 064-745-7800,"""https://api.cdn.visitjeju.net/photomng/imgpath/201902/12/ce248a39-f6ba-4555-a448-6777d702951b.jpg"""
디스이즈핫,제주특별자치도 제주시 구좌읍 하도15길 153-5,33.5131599,126.8973371,(+82) 070-7744-7278,"""https://api.cdn.visitjeju.net/photomng/imgpath/201804/30/b41112a9-48b1-468c-b45b-2b981ae5c12c.jpg"""
디앤디파트먼트 제주 droom,제주특별자치도 제주시 탑동로2길 3,33.5177167,126.5233204,(+82),"""https://api.cdn.visitjeju.net/photomng/imgpath/202211/14/e6d080de-3c96-4582-a097-3cfcde6c94c8.jpg"""
디어마이프렌즈,제주특별자치도 제주시 한경면 청수로 14,33.3203758,126.2452952,(+82) 0507-1311-6736,"""https://api.cdn.visitjeju.net/photomng/imgpath/202308/18/474b77ed-5bf0-4f0b-a79c-1dca488ea973.jpg"""
땅콩펜션,제주특별자치도 제주시 우도면 영일길 156-12,33.5012031,126.9675284,(+82) 010-5845-2528,"""https://api.cdn.visitjeju.net/photomng/imgpath/201804/30/be4aeb8d-33e1-4a2f-8fc1-3f0b0544f223.jpg"""
또오크라,제주특별자치도 제주시 애월읍 수산북길 31,33.4700643,126.3905927,(+82) 010-2880-7624,"""https://api.cdn.visitjeju.net/photomng/imgpath/201804/30/20ac519b-dba7-4523-a6d5-c707d04a6f48.jpg"""
뜨레향 펜션,제주특별자치도 서귀포시 남원읍 하례망장포로 27-8 (하례리) 뜨레향 펜션,33.2626428,126.6379843,(+82) 010-2766-7131,"""https://api.cdn.visitjeju.net/photomng/imgpath/201811/05/23161c81-cc8e-48af-b0fd-ec56020ce156.jpg"""
뜨리바다펜션,제주특별자치도 서귀포시 남원읍 태위로510번길 31-16,33.27175,126.6996875,(+82) 064-764-5500,"""https://api.cdn.visitjeju.net/photomng/imgpath/201804/30/18d5f4b2-8c2c-4249-bee6-dbea7ff31134.jpg"""
라라게스트하우스,제주특별자치도 제주시 조천읍 교래4길 74,33.4240005,126.6754576,(+82) 070-7633-4242,"""https://api.cdn.visitjeju.net/photomng/imgpath/202309/01/bc490b3d-b1d8-44ca-9c59-d23d6d32da9e.jpg"""
라마다앙코르 서귀포 이스트 호텔,제주특별자치도 서귀포시 서호중로 65,33.254366,126.5200697,(+82) 064-735-2200,"""https://api.cdn.visitjeju.net/photomng/imgpath/201912/05/4b0bf0bd-6306-4125-b7ef-10b16d9c57b2.jpg"""
라마다앙코르 서귀포호텔,제주특별자치도 서귀포시 서호중로 55,33.2545031,126.519286,(+82) 064-729-8000,"""https://api.cdn.visitjeju.net/photomng/imgpath/202012/30/72c47f1d-aec4-4dae-aca5-abf097a19465.jpg"""
라메종베니in제주,제주특별자치도 서귀포시 성산읍 신양로122번길 4-6,33.4362503,126.9219619,(+82) 064-783-7818,"""https://api.cdn.visitjeju.net/photomng/imgpath/201804/30/345300e6-c498-41c0-8ea8-24b267cf9243.jpg"""
라벤다호텔,제주특별자치도 서귀포시 중정로 1,33.2477159,126.556613,(+82) 064-762-7900,"""https://api.cdn.visitjeju.net/photomng/imgpath/202211/07/5b757ae2-4daf-4b18-b206-1cf6c14176cf.jpg"""
라신비,제주특별자치도 제주시 한림읍 한림해안로 548,33.4378444,126.2755733,(+82) 064-796-1999,"""https://api.cdn.visitjeju.net/photomng/imgpath/201811/06/bf213b9c-b3de-4009-b1b8-8b4ec66efe91.jpg"""
라오체리조트,제주특별자치도 서귀포시 이어도로 763 (강정동),33.236339,126.4968147,(+82) 064-738-7575,"""https://api.cdn.visitjeju.net/photomng/imgpath/201804/30/4da7916b-3c1b-4071-aa36-fb3a0142264b.jpg"""
라이온힐펜션,제주특별자치도 서귀포시 안덕면 평화로 507,33.2814187,126.3191536,(+82) 064-794-5353,"""https://api.cdn.visitjeju.net/photomng/imgpath/201804/30/3b3ddb40-a7e5-426d-9f31-2cdf7ae6af34.jpg"""
라임오렌지빌,제주특별자치도 서귀포시 칠십리로 332,33.2462212,126.5869422,(+82) 064-767-3888,"""https://api.cdn.visitjeju.net/photomng/imgpath/202308/18/f26cdbf5-690e-4f13-a473-1337515b9d4a.jpg"""
라자관광호텔,제주특별자치도 제주시 연동6길 33,33.4828712,126.4893405,(+82) -745-8100,"""https://api.cdn.visitjeju.net/photomng/imgpath/201804/30/a6faef0a-80fe-4d73-9499-7abe560709a8.jpg"""
라파로마휴양펜션,제주특별자치도 제주시 한림읍 협재로 62,33.3924208,126.247247,(+82) 064-796-8121,"""https://api.cdn.visitjeju.net/photomng/imgpath/202212/02/34823829-285c-4152-aac8-6d92b35b793a.jpg"""
라헨느리조트,제주특별자치도 제주시 명림로 384,33.4521555,126.6155076,(+82) 064-754-9000,"""https://api.cdn.visitjeju.net/photomng/imgpath/202207/06/c10b10e6-aa72-43a1-837c-00cad904c211.jpg"""
란펜션,제주특별자치도 제주시 용마서1길 19-2,33.5155812,126.5044765,(+82) 064-713-2221,"""https://api.cdn.visitjeju.net/photomng/imgpath/201804/30/a2e230ba-66eb-43a9-ae06-921abc5a9951.jpg"""
랑주호텔,제주특별자치도 서귀포시 김정문화로27번길 23-3,33.2539452,126.5079762,(+82) 064-739-0012,"""https://api.cdn.visitjeju.net/photomng/imgpath/201804/30/cebc7cdd-4f3a-4c94-8169-4ba1e1d60fb7.jpg"""
런호텔,제주특별자치도 서귀포시 태평로431번길 20,33.2471605,126.5661877,(+82) 064-766-5100,"""https://api.cdn.visitjeju.net/photomng/imgpath/201804/30/9f5c104f-9663-44cd-9309-59d8cafe25f9.jpg"""
레몬이네 민박,제주특별자치도 제주시 추자면 대서6길 46,33.9617398,126.2923887,(+82) 010-4513-7081,"""https://api.cdn.visitjeju.net/photomng/imgpath/201908/21/b27f9c3f-0de6-433f-8d7a-955207ef70d5.jpg"""
레몬트리게스트하우스,제주특별자치도 서귀포시 대정읍 하모항구로 70,33.2195409,126.2514261,(+82) 064-794-2525,"""https://api.cdn.visitjeju.net/photomng/imgpath/201804/30/26bbe46c-72c9-4c7b-8d6d-ded74ad04941.jpg"""
레이크힐스 제주 리조트,제주특별자치도 서귀포시 존제로 24,33.2673486,126.3771388,(+82) 064-738-8778,"""https://api.cdn.visitjeju.net/photomng/imgpath/201804/30/403d4277-5a2f-4a7d-8c84-fd2ca408503a.jpg"""
레지나펜션,제주특별자치도 서귀포시 이어도로 789,33.2370131,126.4995971,(+82) 064-730-0800,"""https://api.cdn.visitjeju.net/photomng/imgpath/201804/30/af924bc9-7c77-4286-bd46-73349a37cdb2.jpg"""
로그맨하우스,제주특별자치도 제주시 애월읍 소길남길 179,33.4192693,126.3756884,(+82) 064-799-3177,"""https://api.cdn.visitjeju.net/photomng/imgpath/201804/30/be5700b3-3e00-4af9-ba4e-419ad5929a25.gif"""
로그밸리,제주특별자치도 제주시 애월읍 소길남길 190-19,33.4168776,126.3755759,(+82) 064-799-2510,""""""
로그빌리지 펜션,제주특별자치도 서귀포시 표선면 일주동로 5944,33.3267882,126.8205994,(+82) 064-787-9965,"""https://api.cdn.visitjeju.net/photomng/imgpath/202212/02/096684f9-33dc-4553-91ba-024b2bd8f6fd.jpg"""
로즈비치,제주특별자치도 제주시 조천읍 조함해안로 162,33.5501445,126.6416693,(+82) 064-782-1667,"""https://api.cdn.visitjeju.net/photomng/imgpath/201804/30/b239ec4d-e5ba-4699-b961-cc394ab21751.jpg"""
루시드엠,제주특별자치도 서귀포시 안덕면 사계북로 120,33.2368806,126.3004381,(+82) 064-794-1690,"""https://api.cdn.visitjeju.net/photomng/imgpath/201804/30/dcbef69d-9015-4996-af83-3258671b67bf.jpg"""
루체빌,제주특별자치도 서귀포시 안덕면 산록남로 786,33.3191316,126.3847303,(+82) 064-805-0114,"""https://api.cdn.visitjeju.net/photomng/imgpath/201804/30/352f122e-ae92-4c71-a613-f773673a1f2f.jpg"""
루하우스,제주특별자치도 서귀포시 표선면 민속해안로119번길 8,33.3072728,126.8127851,(+82) 010-6609-8906,"""https://api.cdn.visitjeju.net/photomng/imgpath/201804/30/e617ab0c-bbd4-441a-b224-b7cad311c3b2.jpg"""
리니민박,제주특별자치도 서귀포시 표선면 성읍민속로149번길 1,33.3902547,126.7977632,(+82) --,"""https://api.cdn.visitjeju.net/photomng/imgpath/201804/30/a2c91186-1f40-4bc8-89b4-9b070b3c94e4.jpg"""
리버풀펜션,제주특별자치도 제주시 도두봉6길 13,33.5080677,126.4720079,(+82) 064-711-0004,"""https://api.cdn.visitjeju.net/photomng/imgpath/201804/30/a37a92a2-ad07-4459-b4f5-6317440d4b2a.jpg"""
리빙스톤펜션,제주특별자치도 서귀포시 법환로58번길 37,33.2418584,126.5102416,(+82) 064-739-3313,"""https://api.cdn.visitjeju.net/photomng/imgpath/202308/18/801aa156-670f-49ea-8dc2-2c20e21bec70.jpg"""
리치웨이 펜션,제주특별자치도 서귀포시 남원읍 위미중앙로196번길 6-12,33.272082,126.6621787,(+82) 064-764-2420,"""https://api.cdn.visitjeju.net/photomng/imgpath/201804/30/10505fd0-2a07-4979-a380-9696e49f8feb.jpg"""
리치호텔,제주특별자치도 제주시 애월읍 고내로13길 100,33.4722441,126.3488103,(+82) 064-799-1991,"""https://api.cdn.visitjeju.net/photomng/imgpath/202211/03/0a619ce4-d83c-48b2-8999-4e55b0342884.jpg"""
리틀해녀,제주특별자치도 제주시 용마로3길 10-7,33.5147415,126.5056361,(+82) 064-713-2026,"""https://api.cdn.visitjeju.net/photomng/imgpath/202201/25/fc97822a-9266-4c51-bb12-5bd44d61bc7e.jpg"""
리틀화이트,제주특별자치도 서귀포시 예래해안로 179-19,33.2359992,126.3834095,(+82) 0507-1336-3917,"""https://api.cdn.visitjeju.net/photomng/imgpath/202308/18/5d3ffea4-3bea-4e8c-9fa2-4630d53e08c3.jpg"""
마녀의언덕 펜션,제주특별자치도 서귀포시 예래해안로 207,33.2342186,126.3844947,(+82) 0507-1336-3917,"""https://api.cdn.visitjeju.net/photomng/imgpath/202308/20/a5fbb482-71b0-40ec-a904-a5b23f9f63ba.jpg"""
마눌펜션,제주특별자치도 제주시 애월읍 고내봉서2길 73,33.4496439,126.3325005,(+82) 010-5541-0809,"""https://api.cdn.visitjeju.net/photomng/imgpath/201910/24/7bc6534c-0bf8-496d-8a89-d2ba80091122.jpg"""
마당돌펜션,제주특별자치도 서귀포시 대정읍 노을해안로 410,33.2560507,126.1907281,(+82) 010-6318-3995,"""https://api.cdn.visitjeju.net/photomng/imgpath/201804/30/e280ed1e-0b45-4555-9b3a-820b0f4cf469.jpg"""
마라도게스트하우스,제주특별자치도 서귀포시 대정읍 마라로 73,33.1174853,126.2660286,(+82) 050-7974-0834,"""https://api.cdn.visitjeju.net/photomng/imgpath/201804/30/25b60485-29f4-40ca-927c-9a9e6bde3200.jpg"""
마라도별장,제주특별자치도 서귀포시 대정읍 마라로101번길 43,33.1182691,126.2666181,(+82) 064-792-3322,"""https://api.cdn.visitjeju.net/photomng/imgpath/201804/30/8e51f566-51f0-459a-95ea-6755a1999c6b.jpg"""
마레카펜션,제주특별자치도 제주시 한림읍 금능1길 26,33.3881459,126.2248472,(+82) 010-7283-1475,"""https://api.cdn.visitjeju.net/photomng/imgpath/202211/03/e938adcb-1dd3-4e66-bace-3a688ba688b1.jpg"""
마리아주펜션,서귀포시 성산읍 풍천로 142,33.3546954,126.8405508,(+82) 064-787-9063,"""https://api.cdn.visitjeju.net/photomng/imgpath/202211/07/e23af051-e194-444a-9ee6-9711af22f026.jpg"""
마린포트리조트,제주특별자치도 서귀포시 이어도로 744,33.2354606,126.49483,(+82) 064-738-2277,"""https://api.cdn.visitjeju.net/photomng/imgpath/201804/30/a1007f97-693d-40f0-a3f1-b43784bcfee1.jpg"""
마빈,제주특별자치도 제주시 조천읍 일주동로 1532,33.5490407,126.6975249,(+82) 064-784-5670,"""https://api.cdn.visitjeju.net/photomng/imgpath/201804/30/503ade1c-9295-4f7c-ad8b-2a3537e1973c.jpg"""
마이테르유스호스텔,제주특별자치도 제주시 애월읍 애원로 474-29,33.4293177,126.3477943,(+82) 064-799-8811,"""https://api.cdn.visitjeju.net/photomng/imgpath/201804/30/ec795338-733b-40cc-8ceb-c3673a8ff091.jpg"""
마주보기펜션,제주특별자치도 서귀포시 성산읍 해맞이해안로 2609,33.4783602,126.9093006,(+82) 064-783-0770,"""https://api.cdn.visitjeju.net/photomng/imgpath/201804/30/8812ff03-9427-4026-85c5-7a083591a560.gif"""
머무름민박,제주특별자치도 제주시 한림읍 명재로 61-5,33.3945621,126.2533371,(+82) 010-6789-6881,"""https://api.cdn.visitjeju.net/photomng/imgpath/202006/25/f72379c3-8676-4924-b65b-998746cb9f87.jpg"""
메모리 인 제주 펜션,제주특별자치도 서귀포시 염돈로 93-14,33.2574417,126.4909656,(+82) 064-738-8934,"""https://api.cdn.visitjeju.net/photomng/imgpath/201804/30/c01d38ed-0b29-43af-b23b-7ea4525066ad.jpg"""
메이더호텔,제주특별자치도 제주시 구좌읍 일주동로 1626,33.5291728,126.8123293,(+82) 064-766-8888,"""https://api.cdn.visitjeju.net/photomng/imgpath/201804/30/5c701e01-0125-4fb6-a6fa-11a62bcd36da.gif"""
메이저호텔,제주특별자치도 제주시 사장3길 36,33.4830204,126.4910416,(+82) 064-745-5800,"""https://api.cdn.visitjeju.net/photomng/imgpath/201912/06/292ed182-2652-4444-b5d4-ec048f49c2d0.jpg"""
메이풀하우스,제주특별자치도 제주시 조천읍 곱은달서길 165,33.5013399,126.6613066,(+82) 064-784-7823,"""https://api.cdn.visitjeju.net/photomng/imgpath/201804/30/981dbe14-c1f3-4e7c-81e2-c126b9dffd1c.jpg"""
메종드판포,제주특별자치도 제주시 한경면 판포중2길 15,33.3579197,126.2017014,(+82) 010-6272-5030,"""https://api.cdn.visitjeju.net/photomng/imgpath/201804/30/9a368a0d-f443-4eff-840e-c413c5e3a006.jpg"""
명상가의집,제주특별자치도 제주시 조천읍 중산간동로 1513,33.4941986,126.7162362,(+82) 010-2686-7575,"""https://api.cdn.visitjeju.net/photomng/imgpath/202301/09/8283cae0-f433-4f6a-8128-d17f20614b23.jpg"""
모멘토호텔,제주특별자치도 서귀포시 태평로439번길 21,33.2465354,126.5649779,(+82) 064-763-0293,"""https://api.cdn.visitjeju.net/photomng/imgpath/202212/02/1a39c9b2-c610-4699-8994-ac4c9c3992e6.jpg"""
모물펜션,제주특별자치도 제주시 애월읍 곽지9길 4,33.4523649,126.3082439,(+82) 0507-1423-1111,"""https://api.cdn.visitjeju.net/photomng/imgpath/201804/30/74ee03d1-fc2c-4ea2-a23c-41c5400f3523.jpg"""
목조 독채민박 멍3닷컴,제주특별자치도 제주시 조천읍 와선로 236-14,33.4835132,126.6979783,(+82) 010-8776-2901,"""https://api.cdn.visitjeju.net/photomng/imgpath/201804/30/3223f937-2c9a-489c-8a27-2c7afb7cb910.gif"""
몬딱게스트하우스,제주특별자치도 제주시 구좌읍 세화서길 7-31,33.5190692,126.8523484,(+82) 010-8599-3698,"""https://api.cdn.visitjeju.net/photomng/imgpath/201804/30/44d43f1b-b3d5-41cd-9b9c-3db9be7deceb.jpg"""
몬딱쉼터,제주특별자치도 서귀포시 토평로 137,33.2782007,126.5884138,(+82) 064-732-9668,"""https://api.cdn.visitjeju.net/photomng/imgpath/201804/30/402d0b1d-715a-4aaf-b7b6-8719f2a2ce9a.jpg"""
몬떼뷰 스테이,제주특별자치도 서귀포시 안덕면 사계남로 75-9,33.2280248,126.298833,(+82) 010-8246-4317,"""https://api.cdn.visitjeju.net/photomng/imgpath/201804/30/aeac2f75-7723-469e-847c-352a5f79214a.jpg"""
무이비엔,제주특별자치도 제주시 구좌읍 한동로4길 3,33.5350855,126.8233309,(+82) 070-7570-3341,"""https://api.cdn.visitjeju.net/photomng/imgpath/201804/30/a56d4fd5-9196-49ba-b67a-82228cdc92b1.jpg"""
물돌이민박,제주특별자치도 제주시 추자면 추자로 561,33.9451342,126.3266622,(+82) 064-742-0380,"""https://api.cdn.visitjeju.net/photomng/imgpath/201908/21/368ca52f-9d09-4d76-a476-267cd0e21b77.jpg"""
물메랑,제주특별자치도 제주시 애월읍 수산북길 3,33.472093,126.3912187,(+82) 0507-1414-9400,"""https://api.cdn.visitjeju.net/photomng/imgpath/201804/30/2388ada6-f611-4a80-8060-8f6ee4a59fdb.jpg"""
미도모텔,제주특별자치도 서귀포시 성산읍 성산등용로 1,33.4641765,126.9335918,(+82) 064-782-0820,"""https://api.cdn.visitjeju.net/photomng/imgpath/201912/13/ee54c987-a581-43b8-bcff-f8e1d5fb398e.jpg"""
미래하우스,제주특별자치도 제주시 서해안로 224-10,33.5081594,126.4710806,(+82) 064-746-6131,"""https://api.cdn.visitjeju.net/photomng/imgpath/201804/30/978d5aa8-601e-467f-ace2-bc965e9b6e35.jpg"""
미르빌펜션,제주특별자치도 서귀포시 안덕면 사계로114번길 87,33.24601,126.3061358,(+82) 064-792-2918,"""https://api.cdn.visitjeju.net/photomng/imgpath/201804/30/d73ec824-2d12-4bcf-9597-46ac5465b36b.jpg"""
미소가펜션,제주특별자치도 서귀포시 남원읍 태위로44번길 2-1,33.2725131,126.6521502,(+82) 064-764-1767,"""https://api.cdn.visitjeju.net/photomng/imgpath/201804/30/e3f98fd5-768f-4913-b791-6637cdaa259f.jpg"""
미쓰홍당무하우스,제주특별자치도 제주시 구좌읍 평대4길 20-1,33.5292816,126.8367482,(+82) 070-7715-7035,"""https://api.cdn.visitjeju.net/photomng/imgpath/201804/30/282ab7bf-c950-47c4-a1de-5c10124d259b.jpg"""
민박집섶낭,제주특별자치도 제주시 한림읍 협재2길 41,33.3920433,126.2441455,(+82) 010-6746-1811,"""https://api.cdn.visitjeju.net/photomng/imgpath/201901/18/570a97c5-43c2-4bae-89f8-b7fc69ef02c8.jpg"""
민박하얀집,제주특별자치도 제주시 한림읍 협재1길 9,33.3964801,126.242376,(+82) 0507-1448-9803,"""https://api.cdn.visitjeju.net/photomng/imgpath/201902/07/20296974-1253-47ae-b1b5-3446776eab35.jpg"""
민준채,제주특별자치도 제주시 한림읍 월령3길 27-5,33.3777804,126.2159656,(+82) 010-2019-7876,"""https://api.cdn.visitjeju.net/photomng/imgpath/202211/03/9976dc09-9b50-4be6-abfb-06f3c4b51550.jpg"""
민중각 게스트하우스,제주특별자치도 서귀포시 서문로28번길 4,33.2506794,126.5587448,(+82) 064-763-0501,"""https://api.cdn.visitjeju.net/photomng/imgpath/201804/30/ea7c79df-6013-4b34-bb6e-cd34c7cd82e6.jpg"""
밀레니엄빌,제주특별자치도 서귀포시 보목로64번길 196,33.2451899,126.5899481,(+82) 064-763-1796,"""https://api.cdn.visitjeju.net/photomng/imgpath/201907/09/16fff18b-9670-4a55-b4c4-0f63ddbb2280.jpg"""
밀물민박,제주특별자치도 제주시 추자면 추자로 106-1,33.9598845,126.2976224,(+82) 010-9688-2359,"""https://api.cdn.visitjeju.net/photomng/imgpath/201908/20/6ba02dac-af4a-43fa-8a5c-06777b2ffaa6.jpg"""
바다드림펜션,제주특별자치도 제주시 어영길 18-9,33.5181507,126.4948911,(+82) 064-744-7094,"""https://api.cdn.visitjeju.net/photomng/imgpath/202212/05/a3fd39dc-dcd0-4b54-991f-4de09764309c.jpg"""
바다산책,제주특별자치도 서귀포시 남원읍 남태해안로 11-14,33.2751879,126.7104685,(+82) 064-764-9955,"""https://api.cdn.visitjeju.net/photomng/imgpath/201804/30/c7614597-d0b8-44c4-808a-b8066038a91c.jpg"""
바다스케치,제주특별자치도 서귀포시 안덕면 사계남로216번길 52,33.2349965,126.3099142,(+82) 064-794-0030,"""https://api.cdn.visitjeju.net/photomng/imgpath/201804/30/5eec869a-b3ce-4c68-9cee-0174e768a504.jpg"""
바다와자전거 게스트하우스,제주특별자치도 제주시 애월읍 고내로9길 42,33.4666884,126.3381376,(+82) 010-7508-0813,"""https://api.cdn.visitjeju.net/photomng/imgpath/201910/28/0e876b06-4d22-4b4f-918d-d1ae4bd089d0.jpg"""
바다위올레펜션,제주특별자치도 서귀포시 이어도로 826-13,33.2346294,126.5030967,(+82) 064-738-6349,"""https://api.cdn.visitjeju.net/photomng/imgpath/201804/30/f130066c-d0fe-4a2c-807a-071738cbc418.jpg"""
바다의향기,제주특별자치도 서귀포시 대정읍 송악관광로177번길 254-6,33.213076,126.2921677,(+82) 070-4376-6473,"""https://api.cdn.visitjeju.net/photomng/imgpath/201804/30/0c191d60-9542-494a-aa11-8518097f89ee.jpg"""
바다추억,제주특별자치도 제주시 용해로 27,33.5147516,126.5028911,(+82) 064-742-2831,"""https://api.cdn.visitjeju.net/photomng/imgpath/201804/30/a95a2ea2-9d9e-4ef8-b431-72276aab0c66.jpg"""
바다파파,제주특별자치도 제주시 조천읍 신촌10길 7,33.5352211,126.6257607,(+82) 064-752-3551,"""https://api.cdn.visitjeju.net/photomng/imgpath/201804/30/7e36e8b0-271a-439e-a384-3be1352e51d3.jpg"""
바다풍경펜션,제주특별자치도 제주시 애월읍 애월해안로 923,33.483918,126.3938533,(+82) 064-711-0808,"""https://api.cdn.visitjeju.net/photomng/imgpath/201804/30/1ebead10-3ed2-49c6-b026-4453934305aa.jpg"""
바다해호텔,제주특별자치도 서귀포시 천지연로 3-1,33.2414444,126.565685,(+82) 064-762-5300,"""https://api.cdn.visitjeju.net/photomng/imgpath/202211/07/cc233641-7a61-4509-b979-633923178928.jpg"""
바다향기펜션,제주특별자치도 제주시 서흘길 24,33.5276256,126.5888506,(+82) 064-756-3412,"""https://api.cdn.visitjeju.net/photomng/imgpath/201912/12/12330d56-c357-4e4c-845f-4fdd3d996ae2.jpg"""
바닷가하얀집,제주특별자치도 서귀포시 태평로120번길 29-2,33.2419039,126.5361992,(+82) 064-739-2733,"""https://api.cdn.visitjeju.net/photomng/imgpath/201804/30/2515a872-2edc-4d84-81f4-68b4272d7924.jpg"""
바닷가하우스펜션,제주특별자치도 서귀포시 대정읍 형제해안로 254,33.2122337,126.2921321,(+82) 064-794-0977,"""https://api.cdn.visitjeju.net/photomng/imgpath/201804/30/6645c971-2c56-4bfd-bf59-249bf4509a91.jpg"""
바당정원펜션,제주특별자치도 제주시 한경면 판조로 23,33.3494085,126.2175185,(+82) 010-7607-3026,"""https://api.cdn.visitjeju.net/photomng/imgpath/202212/05/d3bc769f-72b2-4e7b-9ba5-03112f57618d.jpg"""
바람돌이하우스,제주특별자치도 제주시 구좌읍 행원로5길 35-5,33.5562581,126.8046811,(+82) 010-2696-0201,"""https://api.cdn.visitjeju.net/photomng/imgpath/201804/30/628c82ca-07ee-41f7-ac8c-a287919bcbd1.jpg"""
바랑쉬게스트하우스,제주특별자치도 서귀포시 성산읍 환해장성로 496,33.4010467,126.9036275,(+82) 010-9856-5697,"""https://api.cdn.visitjeju.net/photomng/imgpath/201807/24/08ea4c5f-8eda-49c3-8f29-39ada86a5099.jpg"""
바사팬스파,제주특별자치도 제주시 한경면 한경해안로 448-6,33.3403385,126.1682969,(+82) 070-7719-9811,"""https://api.cdn.visitjeju.net/photomng/imgpath/201804/30/5d7395d9-ff48-47ce-810c-e70b29994bc9.jpg"""
바산올레 애견동반 펜션,제주특별자치도 서귀포시 안덕면 대평로 29,33.2366171,126.3639287,(+82) 070-4364-9456,"""https://api.cdn.visitjeju.net/photomng/imgpath/201804/30/0b3a9052-073a-48b0-a17e-cf3541bf202b.gif"""
바우하우스,제주특별자치도 제주시 구좌읍 문주란로 111-7,33.5226665,126.8927851,(+82) 0507-1393-9177,"""https://api.cdn.visitjeju.net/photomng/imgpath/202212/05/6f668c2c-14f6-4306-8573-e9a16524d602.jpg"""
발로바쉬,제주특별자치도 제주시 애월읍 일주서로 6066,33.452175,126.3091998,(+82) 064-799-0303,""""""
밧돌펜션하우스,제주특별자치도 제주시 구좌읍 비자림로 1771,33.4743111,126.7771579,(+82) 0507-1300-8468,"""https://api.cdn.visitjeju.net/photomng/imgpath/202307/07/6501f26e-d4fd-42ee-8465-7730e5de7db9.jpg"""
방울풍뎅이 하우스,제주특별자치도 서귀포시 남원읍 위미중앙로 274-45,33.2700919,126.6737704,(+82) 010-2124-7354,"""https://api.cdn.visitjeju.net/photomng/imgpath/201804/30/92d266f7-9707-48c9-8d0a-95ea9258fa49.jpg"""
배목수집,제주특별자치도 제주시 구좌읍 세송로 43,33.5146849,126.8589008,(+82) 010-8727-9380,"""https://api.cdn.visitjeju.net/photomng/imgpath/201804/30/a3e7f21d-e1fd-401e-b826-0674029927c1.jpg"""
백악관민박,제주특별자치도 제주시 우도면 우도해안길 816,33.5129965,126.957577,(+82) 064-783-0232,"""https://api.cdn.visitjeju.net/photomng/imgpath/201804/30/83d7905e-2108-472d-ac11-37a37fd3c50e.jpg"""
밸류호텔 월드와이드 제주,제주특별자치도 제주시 삼무로 56,33.4896305,126.4926107,(+82) -720-5005,"""https://api.cdn.visitjeju.net/photomng/imgpath/202211/08/2bf43190-505d-450d-86b5-d17ae0ca3f7f.jpg"""
뱅디가름게스트하우스,제주특별자치도 서귀포시 성산읍 서성일로1222번길 17,33.4457428,126.9098077,(+82) 010-5227-9292,"""https://api.cdn.visitjeju.net/photomng/imgpath/201804/30/74a9a4c8-418c-45f7-922a-dfdc91621d65.jpg"""
벙커호텔앤리조트,제주특별자치도 서귀포시 중산간동로8183번길 16,33.2612786,126.5426746,(+82) 064-900-1117,"""https://api.cdn.visitjeju.net/photomng/imgpath/202207/12/9b107dac-39ec-45f9-bd58-3d3e99822802.jpg"""
베누스무인텔,제주특별자치도 제주시 애월읍 유수암평화5길 92,33.4207244,126.4062439,(+82) 0507-1414-8289,"""https://api.cdn.visitjeju.net/photomng/imgpath/201804/30/96bc98a9-f7a9-4077-b514-085ca33b7da3.jpg"""
베니키아 중문호텔,제주특별자치도 서귀포시 천제연로 166,33.2518948,126.4224038,(+82) 064-802-8888,"""https://api.cdn.visitjeju.net/photomng/imgpath/201912/17/56109ff7-d69b-4491-aa91-250d886a57c0.jpg"""
벨리타 캠핑장,제주특별자치도 제주시 조천읍 중산간동로 1194,33.5078463,126.6979744,(+82) 070-7011-7274,"""https://api.cdn.visitjeju.net/photomng/imgpath/201804/30/982a03b9-6c3d-476e-a3f6-7f8cebd0013e.gif"""
별똥별채집소,제주특별자치도 제주시 구좌읍 하도13길 51-1,33.511275,126.8918898,(+82) 010-7708-1024,"""https://api.cdn.visitjeju.net/photomng/imgpath/201907/04/76ce26d6-a8a1-401a-b181-6249ce05b2a7.jpg"""
별마로펜션,제주특별자치도 제주시 항골남길 32-16,33.4982358,126.460112,(+82) 064-713-8788,"""https://api.cdn.visitjeju.net/photomng/imgpath/201804/30/64efb723-aab2-46f5-b1db-720feeed9157.jpg"""
별장민박,제주특별자치도 제주시 추자면 대서1길 9-6,33.9626268,126.298934,(+82) 064-742-3948,"""https://api.cdn.visitjeju.net/photomng/imgpath/201908/21/f0612756-4beb-41b5-a7c9-671ec88e4e07.jpg"""
볕들이펜션,제주특별자치도 서귀포시 성산읍 일출로 284-4,33.4626762,126.9351102,(+82) 010-3408-6767,"""https://api.cdn.visitjeju.net/photomng/imgpath/202212/05/50c94fec-0dff-44fb-afd5-8687194767f0.jpg"""
보로미 민박,제주특별자치도 제주시 애월읍 고성서3길 20-1,33.4652827,126.4117697,(+82) 010-4690-1268,"""https://api.cdn.visitjeju.net/photomng/imgpath/202201/17/5194783a-1040-459f-9739-2b088b00ebc8.jpg"""
보물섬,제주특별자치도 서귀포시 성산읍 한도로242번길 10-11,33.4663536,126.9315204,(+82) 064-784-0039,"""https://api.cdn.visitjeju.net/photomng/imgpath/201804/30/00a78f77-c64a-43ae-af1d-4bd9b1d4b043.jpg"""
볼몽지엥하우스,제주특별자치도 서귀포시 보목포로1번길 10,33.2419986,126.6059187,(+82) 010-4587-5535,"""https://api.cdn.visitjeju.net/photomng/imgpath/201804/30/839c7865-174c-453b-b53e-9fdfaeb24756.jpg"""
봉골레 하우스 민박,제주특별자치도 제주시 추자면 추자로 94-1 2층,33.9596996,126.2962497,(+82) 010-8662-2332,"""https://api.cdn.visitjeju.net/photomng/imgpath/201908/20/75892e03-9a55-4d84-b5d5-c7d5c21dcda4.jpg"""
봉아저씨네민박,제주특별자치도 제주시 한림읍 명상로 8-4,33.3747549,126.2845198,(+82) 010-2941-1594,"""https://api.cdn.visitjeju.net/photomng/imgpath/201912/17/b6aeef2f-a966-411a-8780-e799146ae217.jpg"""
부르네스테이,제주특별자치도 제주시 서해안로 376,33.5121508,126.4843156,(+82) 010-4432-0559,"""https://api.cdn.visitjeju.net/photomng/imgpath/202211/03/0d59b1a4-87a7-4798-b46d-6c56815b5a0e.jpg"""
부영CC관광호텔,제주특별자치도 서귀포시 남원읍 남조로 960,33.3589908,126.7119415,(+82) 064-766-5511,"""https://api.cdn.visitjeju.net/photomng/imgpath/201912/11/7c881cb3-0370-42e8-87a6-ba6e4a3cfa2c.jpg"""
북극에서 만나 행복하자,제주특별자치도 서귀포시 표선면 원님로652번길 118,33.3454457,126.7633489,(+82) 0507-1375-2591,"""https://api.cdn.visitjeju.net/photomng/imgpath/202211/14/9e93041b-cfff-43f5-9132-c447ce9924d4.jpg"""
브라운캐빈,제주특별자치도 제주시 애월읍 소길남길 190-40,33.414941,126.3753426,(+82) 010-2011-7937,"""https://api.cdn.visitjeju.net/photomng/imgpath/201804/30/fc500a75-b1fd-4a14-a066-4d637c65e122.jpg"""
브리즈베이호텔,제주특별자치도 서귀포시 성산읍 성산등용로 42,33.4665462,126.9307256,(+82) 064-784-0000,"""https://api.cdn.visitjeju.net/photomng/imgpath/201804/30/69310119-491a-4f54-9b32-35b0aec3dfbf.jpg"""
블라제리조트,제주특별자치도 서귀포시 표선면 녹산로 274,33.3792662,126.7469026,(+82) 064-787-2588,"""https://api.cdn.visitjeju.net/photomng/imgpath/202212/05/28e80633-d742-43c3-8bd1-163e3de8e716.jpg"""
블랑게스트하우스,제주특별자치도 서귀포시 표선면 표선관정로43번길 76-31,33.3332297,126.8269036,(+82) 010-6276-0766,"""https://api.cdn.visitjeju.net/photomng/imgpath/202211/04/e795c4cb-1b34-4337-9264-df04958c48b3.jpg"""
블랙롯지,제주특별자치도 서귀포시 성산읍 서성일로991번길 25,33.4448105,126.8850317,(+82) 010-2659-5619,"""https://api.cdn.visitjeju.net/photomng/imgpath/201804/30/9f086f66-328e-4d54-a931-fc6cc0cc4221.jpg"""
블랙샌즈호텔,제주특별자치도 제주시 선사로 8,33.5220167,126.5873253,(+82) 064-740-0888,"""https://api.cdn.visitjeju.net/photomng/imgpath/201804/30/b79b5729-687e-44f6-97b4-f45092cf8813.jpg"""
블루마린,제주특별자치도 서귀포시 표선면 민속해안로 349,33.311345,126.8338184,(+82) 064-787-0721,"""https://api.cdn.visitjeju.net/photomng/imgpath/201804/30/a7b5f766-3a51-4a45-b4bd-c50459262eab.jpg"""
블루마운틴호텔,제주특별자치도 서귀포시 성산읍 일출로 297,33.4637774,126.9343382,(+82) 064-731-8888,"""https://api.cdn.visitjeju.net/photomng/imgpath/201804/30/9e375512-6c80-499e-8681-f7397dbc3976.gif"""
블루오션,제주특별자치도 서귀포시 대정읍 가파로 53,33.1654712,126.2721355,(+82) 064-794-4500,"""https://api.cdn.visitjeju.net/photomng/imgpath/201804/30/c8de291c-bc8d-4e05-8f18-e95b8ea66bef.jpg"""
블루펄리조트,제주특별자치도 서귀포시 태평로92번길 35,33.2412528,126.5319286,(+82) 064-739-4002,"""https://api.cdn.visitjeju.net/photomng/imgpath/201912/05/d5707afb-ddd7-491b-825b-d5465def0147.jpg"""
블룸호텔,제주특별자치도 서귀포시 중문관광로72번길 53,33.2498662,126.4081758,(+82) 064-738-7000,"""https://api.cdn.visitjeju.net/photomng/imgpath/202205/17/29b21c24-5be6-4aaf-b9e0-b423babc277e.jpg"""
비레이지,제주특별자치도 서귀포시 남원읍 위미해안로129번길 17,33.2704908,126.6518146,(+82) 010-6569-7979,"""https://api.cdn.visitjeju.net/photomng/imgpath/201804/30/406b75cd-d9e5-48f9-b907-5f3ba84e3a9d.jpg"""
비스비제주 앤 팜빌리지,제주특별자치도 서귀포시 속골로 29-10,33.2422349,126.5280498,(+82) 064-739-5100,"""https://api.cdn.visitjeju.net/photomng/imgpath/201804/30/e23e1c18-3718-4b5f-837f-6546cf964278.jpg"""
비스타리조트,제주특별자치도 제주시 서해안로 74,33.5031197,126.457563,(+82) 010-7108-6631,"""https://api.cdn.visitjeju.net/photomng/imgpath/201804/30/0d560ddb-8105-4656-a93f-1fce9871d3e8.jpg"""
비스타케이호텔월드컵,제주특별자치도 서귀포시 김정문화로41번길 10-6,33.2519532,126.5098123,(+82) 064-802-7000,"""https://api.cdn.visitjeju.net/photomng/imgpath/202206/15/c71c2606-1411-4981-b90d-b4a5862e4765.jpg"""
비아제주Stay,제주특별자치도 제주시 삼무로9길 11,33.4927056,126.4948933,(+82) 064-713-3911,"""https://api.cdn.visitjeju.net/photomng/imgpath/201912/04/4b81e9e5-eab5-4617-8af6-2f7d24886eb1.jpg"""
비오하우스,제주특별자치도 제주시 구좌읍 월정3길 53-5,33.5561058,126.7945358,(+82) 010-5353-7872,"""https://api.cdn.visitjeju.net/photomng/imgpath/202211/03/c02559be-b319-403f-bcd0-ace0a60f6495.jpg"""
비자낭달집,제주특별자치도 제주시 구좌읍 비자림로 2279,33.4743111,126.7771579,(+82) 010-5699-9751,"""https://api.cdn.visitjeju.net/photomng/imgpath/202211/10/4bbef382-229c-4481-b540-c23409124bea.jpg"""
비지터게스트하우스,제주특별자치도 제주시 오현길 85,33.5123736,126.5251608,(+82) 064-755-4860,"""https://api.cdn.visitjeju.net/photomng/imgpath/201804/30/ffc32d00-9958-4a80-bb2e-59dfc5ceb7ba.jpg"""
비치조아,제주특별자치도 제주시 서흘길 7,33.526786,126.5876545,(+82) 064-757-8200,"""https://api.cdn.visitjeju.net/photomng/imgpath/201804/30/ae2ac40a-8dc6-4b1c-ad01-15b5e00e4da0.gif"""
빌라배알로,제주특별자치도 서귀포시 성산읍 환해장성로 941,33.4348814,126.9163285,(+82) 010-2823-0506,"""https://api.cdn.visitjeju.net/photomng/imgpath/201804/30/b80602c8-893f-435e-814e-1eafb4e2cade.jpg"""
빌라사계,제주특별자치도 서귀포시 안덕면 사계북로 157-20,33.2399487,126.3046112,(+82) 064-792-6006,"""https://api.cdn.visitjeju.net/photomng/imgpath/202101/19/6d5369ac-4023-4fa7-a8dd-316f50dd7b40.jpg"""
뿌리게스트하우스,제주특별자치도 제주시 한경면 용수1길 3,33.3206708,126.1777063,(+82) 010-3799-4333,"""https://api.cdn.visitjeju.net/photomng/imgpath/202211/14/514a82a2-e210-4d97-8e4e-107e61fe5745.jpg"""
쁘띠제주빅터,제주특별자치도 제주시 서해안로 338,33.5099678,126.4813246,(+82) 010-9349-8153,"""https://api.cdn.visitjeju.net/photomng/imgpath/201804/30/a4f52810-a4b8-429b-ab9a-d7425fcebb1a.jpg"""
사계여행민박,제주특별자치도 서귀포시 안덕면 산방로 262,33.2348492,126.307797,(+82)  01077429791,"""https://api.cdn.visitjeju.net/photomng/imgpath/202211/03/e7714419-9907-4e97-8bf0-211aa6e7c881.jpg"""
사계절민박,제주특별자치도 제주시 추자면 신양2길 12,33.9456486,126.3290204,(+82) 064-742-8102,"""https://api.cdn.visitjeju.net/photomng/imgpath/202212/05/c7d892fc-be1c-476e-bef0-c1f5393895a4.jpg"""
사랑이꽃피는민박,제주특별자치도 제주시 구좌읍 김녕로19길 12,33.5564847,126.754289,(+82) 010-3912-4504,"""https://api.cdn.visitjeju.net/photomng/imgpath/201908/20/0e12b336-8f3b-474a-a1ec-dadaae58b91d.jpg"""
사랑터울펜션,제주특별자치도 제주시 어영길 25,33.5185852,126.4959627,(+82) 064-742-7360,"""https://api.cdn.visitjeju.net/photomng/imgpath/201804/30/ac185289-f0f6-45ba-8a05-30d9a2c44f23.gif"""
사면초가펜션,제주특별자치도 제주시 한경면 판조로 62,33.3630937,126.2079663,(+82) 010-3698-9323,"""https://api.cdn.visitjeju.net/photomng/imgpath/201804/30/b3c0a6c7-8756-4e7e-8bf5-673b768735fd.jpg"""
산방산에펜션,제주특별자치도 서귀포시 안덕면 사계북로41번길 151,33.2463347,126.2971274,(+82) 064-794-3100,"""https://api.cdn.visitjeju.net/photomng/imgpath/202211/09/e965f02e-ec07-4de0-821c-5e33f2746258.jpg"""
산방산파크텔,제주특별자치도 서귀포시 안덕면 화순서서로 63,33.2564621,126.3292101,(+82) 064-794-7732,"""https://api.cdn.visitjeju.net/photomng/imgpath/201804/30/9aa89aac-9c53-436a-b51c-807233dabab5.jpg"""
산방산호텔,제주특별자치도 서귀포시 대정읍 일주서로 2093,33.2497944,126.2933203,(+82) 064-909-9999,"""https://api.cdn.visitjeju.net/photomng/imgpath/202301/11/04605d1b-b0b3-4ab9-b4e6-35d12dad5833.jpg"""
삼보민박,제주특별자치도 제주시 한림읍 명월성로 627,33.354667,126.2570648,(+82) 064-772-0797,"""https://api.cdn.visitjeju.net/photomng/imgpath/202206/15/59fa5dc3-ede7-46f2-94b6-1ce4d0ff225d.jpg"""
삼해인관광호텔,제주특별자치도 제주시 도령로 108,33.4913289,126.4894864,(+82) 064-742-7775,"""https://api.cdn.visitjeju.net/photomng/imgpath/202212/05/bdfe4596-dda1-4a45-8575-10bb1126bd22.jpg"""
서귀포 늘바다 애견동반펜션,제주특별자치도 서귀포시 안덕면 대평로 38,33.237324,126.363657,(+82) 070-4364-9474,"""https://api.cdn.visitjeju.net/photomng/imgpath/201804/30/c5500d03-4b57-4761-82a0-878467e0022e.jpg"""
서귀포귤림성,제주특별자치도 서귀포시 일주동로 8941,33.2505771,126.5363941,(+82) 064-739-3331,"""https://api.cdn.visitjeju.net/photomng/imgpath/201804/30/8d8bd7c1-4664-4b66-ab21-87bd04e18ea0.jpg"""
서귀포힐즈호텔,제주특별자치도 서귀포시 신서로48번길 50,33.252873,126.5101675,(+82) 064-739-7300,"""https://api.cdn.visitjeju.net/photomng/imgpath/201804/30/fb678760-f37a-4ef1-9443-7a7098bcfb0c.jpg"""
선스토리,제주특별자치도 서귀포시 표선면 표선백사로60번길 72,33.3162838,126.8374615,(+82) 070-8635-1256,"""https://api.cdn.visitjeju.net/photomng/imgpath/202208/04/3ce5a7d8-fff3-414a-960c-22dcf231ee56.jpg"""
성게돌 펜션,제주특별자치도 서귀포시 쇠소깍로 186,33.2506837,126.6187196,(+82) 010-4353-2006,"""https://api.cdn.visitjeju.net/photomng/imgpath/201804/30/18bf97b1-d4ce-42c7-8a85-0202b4b82a85.jpg"""
성산아침노을펜션,제주특별자치도 서귀포시 성산읍 한도로255번길 14-1,33.4667569,126.9350336,(+82) 064-782-4544,"""https://api.cdn.visitjeju.net/photomng/imgpath/201808/02/ee9d0c7f-e159-4bab-aa32-4189c047fee4.jpg"""
성산우리집 펜션,제주특별자치도 서귀포시 성산읍 한도로255번길 9,33.4669759,126.9344192,(+82) 064-784-3879,"""https://api.cdn.visitjeju.net/photomng/imgpath/201908/30/4ab934a4-aa64-4fe8-a84a-d1e9945547a0.jpg"""
세난포레스트,제주특별자치도 제주시 조천읍 중산간동로 883-31 (와산리) 2층,33.4946545,126.6808361,(+82) 070-7766-8279,"""https://api.cdn.visitjeju.net/photomng/imgpath/201908/30/9957da7f-0c86-447e-9d5b-0d7991d6bd75.jpg"""
세화리움,제주특별자치도 제주시 구좌읍 해녀박물관길 29,33.5235555,126.8622208,(+82) 010-9530-4049,"""https://api.cdn.visitjeju.net/photomng/imgpath/202310/04/5d684495-9d3b-454e-a256-f47d6e74c012.jpg"""
세화맨션,제주특별자치도 제주시 구좌읍 세화7길 17-10,33.5244041,126.8596432,(+82) 010-4255-4286,"""https://api.cdn.visitjeju.net/photomng/imgpath/201804/30/467c6656-a71d-4c41-91f2-599ac33b230f.jpg"""
셋째날,제주특별자치도 서귀포시 하신상로 273-7,33.2791166,126.6013157,(+82) 064-733-7339,"""https://api.cdn.visitjeju.net/photomng/imgpath/201804/30/929d42be-855f-443c-9b2f-ea188e863a3e.jpg"""
소낭재,제주특별자치도 제주시 한림읍 협재로 181-57,33.3832801,126.2530889,(+82) 064-796-8105,"""https://api.cdn.visitjeju.net/photomng/imgpath/201804/30/0f3b133d-2097-47c5-844a-808bc15f536e.jpg"""
소노벨제주,제주특별자치도 제주시 조천읍 신북로 577,33.541054,126.6719242,(+82) 1588-4888,"""https://api.cdn.visitjeju.net/photomng/imgpath/201804/30/71b7a7af-94e0-4339-b16e-108fca7fc0bd.jpg"""
소담펜션,제주특별자치도 서귀포시 막숙포로 146,33.2314988,126.5080062,(+82) 064-738-0203,"""https://api.cdn.visitjeju.net/photomng/imgpath/202212/22/9614d1c7-104e-48be-85b8-a373ac1cf777.jpg"""
소풍BnB,제주특별자치도 서귀포시 호근남로 82,33.2516004,126.532297,(+82) 064-739-4054,"""https://api.cdn.visitjeju.net/photomng/imgpath/201804/30/47f1af5a-d2b6-4814-b1c0-b8f1a5c44f6c.jpg"""
소풍이야기 펜션,제주시 애월읍 애월해안로 832,33.4886701,126.3872037,(+82) 064-711-2500,"""https://api.cdn.visitjeju.net/photomng/imgpath/202212/05/9f93a707-d739-4ef0-8ba5-07dfe9290ff2.jpg"""
솔로 게스트하우스,제주특별자치도 서귀포시 대정읍 송악관광로411번길 11,33.2094665,126.2903824,(+82) 010-5513-0211,"""https://api.cdn.visitjeju.net/photomng/imgpath/201804/30/ca02c56f-1c03-4a15-924e-818837740b85.jpg"""
솔민박,제주특별자치도 서귀포시 표선면 민속해안로 227-39,33.3088257,126.8217863,(+82) 064-787-0729,"""https://api.cdn.visitjeju.net/photomng/imgpath/202211/08/70197498-64e5-471c-a21c-29724f058be8.jpg"""
송림원,제주특별자치도 제주시 애월읍 천덕로 313-3,33.4281611,126.330749,(+82) 064-799-4000,"""https://api.cdn.visitjeju.net/photomng/imgpath/201911/27/f60736b8-2c42-4f73-b026-6c63d2fc997e.jpg"""
쇠소깍섬도리왓펜션,서귀포시 효돈순환로 217-3,33.2570276,126.6214257,(+82) 064-767-8288,"""https://api.cdn.visitjeju.net/photomng/imgpath/201804/30/81563979-0c44-47cb-a06b-27aa699d8ee2.gif"""
쇠소깍올레민박,제주특별자치도 서귀포시 효돈로204번길 23,33.2623845,126.6187869,(+82) 010-2637-1401,"""https://api.cdn.visitjeju.net/photomng/imgpath/202211/04/f4b2b735-34f8-44ce-a279-b0cb4ab0d7ba.jpg"""
수필하우스,제주특별자치도 제주시 구좌읍 종달논길 50-1,33.4928926,126.8995214,(+82) 010-6678-8986,"""https://api.cdn.visitjeju.net/photomng/imgpath/201804/30/3e38d19b-f6a5-40e8-bf9e-12273a499543.jpg"""
수하리839,제주특별자치도 서귀포시 성산읍 온평애향로 21,33.4077582,126.8999068,(+82) 064-782-4800,"""https://api.cdn.visitjeju.net/photomng/imgpath/202212/05/deacff73-4c2f-49ba-a7ce-053639ec080a.jpg"""
숨비아일랜드,제주특별자치도 서귀포시 성산읍 신천서로 91,33.339112,126.8555453,(+82) 070-8851-1273,"""https://api.cdn.visitjeju.net/photomng/imgpath/201804/30/fd411d7b-2501-4d7b-aa28-379fc8c8e1e5.jpg"""
숲골 독채펜션,제주특별자치도 제주시 조천읍 선교로 211-19,33.4844717,126.7025521,(+82) 010-6318-4787,"""https://api.cdn.visitjeju.net/photomng/imgpath/201907/04/6acb4e81-8696-4dd6-b443-aa90f9080757.jpg"""
쉴띠펜션&게스트하우스,제주특별자치도 서귀포시 안덕면 한창로 102-1,33.2725145,126.3655401,(+82) 010-6811-4848,"""https://api.cdn.visitjeju.net/photomng/imgpath/201804/30/839ec072-20ef-4d2f-b074-25d7db9dcaa2.jpg"""
쉼멍스테이,제주특별자치도 서귀포시 대정읍 신영로 16-14,33.2240707,126.2470539,(+82) 0507-1428-9999,"""https://api.cdn.visitjeju.net/photomng/imgpath/201804/30/fbf2b417-0fc9-4dc8-ac00-3f8b70ab2934.jpg"""
스마일모텔,제주특별자치도 제주시 연동13길 42,33.4861874,126.4943471,(+82) 064-743-6677,"""https://api.cdn.visitjeju.net/photomng/imgpath/202308/23/6a7e67d8-1776-430f-92bb-f03d50a6c382.jpg"""
스머프하우스,제주특별자치도 서귀포시 천제연로 127-1,33.2542885,126.4191229,(+82) 064-738-9555,"""https://api.cdn.visitjeju.net/photomng/imgpath/201907/18/7e7cbbc1-bdeb-44c1-b390-25008a67a164.jpg"""
스카이리더스호텔,제주특별자치도 제주시 신광로 106,33.4826978,126.4896022,(+82) 064-747-0003,"""https://api.cdn.visitjeju.net/photomng/imgpath/201804/30/0cf804c0-ad3a-4edc-9428-8be0a9c35e7c.jpg"""
스쿠버스토리,제주특별자치도 서귀포시 태평로536번길 17,33.2518815,126.5761138,(+82) 064-733-1874,"""https://api.cdn.visitjeju.net/photomng/imgpath/201907/04/d9634ccf-1b13-44b5-871a-2d7b60b0a3aa.jpg"""
스타즈호텔 제주 로베로,제주특별자치도 제주시 관덕로 26,33.5128705,126.5219573,(+82) 064-757-7111,"""https://api.cdn.visitjeju.net/photomng/imgpath/201907/04/b531d413-6b6d-4efa-aa67-033dac900550.jpg"""
스테이달하,제주특별자치도 제주시 애월읍 신엄안1길 20,33.473156,126.3655477,(+82) 010-8664-5385,"""https://api.cdn.visitjeju.net/photomng/imgpath/201804/30/82d31a58-72e5-4683-ba61-096baac9444b.jpg"""
스테이제주이음,제주특별자치도 서귀포시 표선면 하천로 37,33.3450673,126.8423898,(+82) 0507-1484-1511,"""https://api.cdn.visitjeju.net/photomng/imgpath/201810/24/68b91a4f-ab09-4066-ae25-fa73c3549a43.jpg"""
나미송 머무는 곳,제주특별자치도 제주시 애월읍 평화로 2476,33.4310911,126.4176755,(+82) 010-8307-0531,"""https://api.cdn.visitjeju.net/photomng/imgpath/202401/11/89c70dbc-011c-44cc-9afa-c3cd6158a183.jpg"""
해비치호텔앤드리조트,제주특별자치도 서귀포시 표선면 민속해안로 537,33.3233757,126.8447677,(+82) 064-780-8100,"""https://api.cdn.visitjeju.net/photomng/imgpath/202001/21/a5ab7e7d-9d1b-4e25-879a-dd11b8ed503d.jpg"""
신라호텔제주,제주도 서귀포시 중문관광로 72번길 75,33.2471631,126.4079553,(+82) 064-735-5114,"""https://api.cdn.visitjeju.net/photomng/imgpath/201804/30/b37b5abf-aa6e-4d35-9abd-f6568ce2bd11.jpg"""
롯데호텔 제주,제주특별자치도 서귀포시 중문관광로72번길 35,33.2482702,126.4104128,(+82) 064-731-1000,"""https://api.cdn.visitjeju.net/photomng/imgpath/201804/30/246b86e7-506b-4987-aa8c-1e8a7f68012c.jpg"""
휴양펜션 스위스마을 Swiss Village Pension,제주특별자치도 제주시 조천읍 와산서1길 32 401~405동,33.4938724,126.6760093,(+82) 010-6847-8488,"""https://api.cdn.visitjeju.net/photomng/imgpath/202301/04/2e6432d7-73fd-4c19-a0ab-a9e301b2ca3b.jpg"""
비젠빌리지,제주특별자치도 제주시 구좌읍 하도9길 72,33.5117082,126.89066,(+82) 064-784-8216,"""https://api.cdn.visitjeju.net/photomng/imgpath/202302/17/2aec2567-77a1-48c0-ae7c-bcf7cccb045f.jpg"""
휘닉스 아일랜드 제주,제주특별자치도 서귀포시 성산읍 섭지코지로 107,33.4300919,126.9272996,(+82) 02-1577-0069,"""https://api.cdn.visitjeju.net/photomng/imgpath/201804/30/82d74ee3-ce96-4578-842d-7dcf2dffb7b5.jpg"""
제주도푸른산푸른바다,제주특별자치도 제주시 구좌읍 일주동로 3421,33.5291728,126.8123293,(+82) 010-7528-9654,"""https://api.cdn.visitjeju.net/photomng/imgpath/201804/30/27a7d146-1ec3-47de-b80a-8e093baaf2a7.jpg"""
히든클리프 호텔 앤 네이쳐,제주특별자치도 서귀포시 예래해안로 542,33.2548845,126.4023408,(+82) 064-752-7777,"""https://api.cdn.visitjeju.net/photomng/imgpath/201912/17/109d0d59-58d6-4773-a32c-78e6567f3662.jpg"""
대명리조트 제주,제주특별자치도 제주시 조천읍 신북로 577,33.541054,126.6719242,(+82) -1588-4888,"""https://api.cdn.visitjeju.net/photomng/imgpath/201804/30/a51f52d1-9be8-46ed-a33b-018892f847a9.jpg"""
서귀포KAL호텔,제주특별자치도 서귀포시 칠십리로 242,33.2462908,126.5813639,(+82) 064-733-2001,"""https://api.cdn.visitjeju.net/photomng/imgpath/201804/30/e9d51517-a205-4154-b4fe-6424c4af45fc.jpg"""
캠핑트리펜션,제주특별자치도 제주시 애월읍 광상로 115,33.4466321,126.4179257,(+82) 0507-1491-7998,"""https://api.cdn.visitjeju.net/photomng/imgpath/201804/30/07742d0b-7654-49d0-9919-ecfb80815cf7.jpg"""
씨에스호텔앤리조트,제주특별자치도 서귀포시 중문관광로 198,33.242596,126.4210209,(+82) 064-735-3000,"""https://api.cdn.visitjeju.net/photomng/imgpath/202104/22/653ae92d-1a7f-418e-9900-391d71523be7.jpg"""
객의하우스,제주특별자치도 제주시 한림읍 한림로 381-3,33.3966975,126.2433527,(+82) 010-3013-3414,"""https://api.cdn.visitjeju.net/photomng/imgpath/201804/30/d21e85d6-1401-45f0-b8e6-a01a89fd55e8.jpg"""
금호리조트제주,제주특별자치도 서귀포시 남원읍 태위로 522-12,33.2729991,126.701485,(+82) 064-766-8000,"""https://api.cdn.visitjeju.net/photomng/imgpath/201804/30/e224d0fb-4381-4d51-bc92-7c7ba5d33f04.jpg"""
수상한소금밭게스트하우스,제주특별자치도 제주시 구좌읍 종달동길 36-10,33.4904053,126.9025713,(+82) 010-8933-0848,"""https://api.cdn.visitjeju.net/photomng/imgpath/201804/30/584567ae-29eb-4f75-999e-d6bb09d8d49a.jpg"""
달달하우스,제주특별자치도 제주시 한림읍 한림로 414-6,33.3981869,126.2464178,(+82) 010-9530-3246,"""https://api.cdn.visitjeju.net/photomng/imgpath/202008/31/02a5c196-9ce7-46b9-b30b-5e435566e1b1.jpg"""
신라스테이 제주,제주특별자치도 제주시 노연로 100,33.4855434,126.4908994,(+82) 064-717-9000,"""https://api.cdn.visitjeju.net/photomng/imgpath/201804/30/6bddf669-d07b-45de-8e76-288648b033d4.jpg"""
틸다하우스,제주특별자치도 제주시 한경면 중산간서로 3367-1,33.31092,126.2373473,(+82) 064-773-0033,"""https://api.cdn.visitjeju.net/photomng/imgpath/201804/30/afd48c34-3f9d-4370-8d91-40d099d0614e.jpg"""
라마다프라자 제주호텔,제주특별자치도 제주시 탑동로 66,33.5185854,126.5171129,(+82) 064-729-8100,"""https://api.cdn.visitjeju.net/photomng/imgpath/201905/09/d630a0ad-c1df-4814-b4ae-9627d7aebd69.jpg"""
르페도라,제주특별자치도 서귀포시 남원읍 신례중앙로 6,33.2894625,126.6293182,(+82) 067-732-7002,"""https://api.cdn.visitjeju.net/photomng/imgpath/202207/29/b2fd3e93-d8ae-4cf8-b5a4-5de8a6f82db6.jpg"""
메종글래드 제주,제주특별자치도 제주시 노연로 80,33.4848645,126.4885577,(+82) 064-747-5000,"""https://api.cdn.visitjeju.net/photomng/imgpath/201912/17/6d417704-4df8-4364-88f3-33bd6dd2a22e.jpg"""
인제주,제주특별자치도 제주시 한림읍 명월성로 137-14,33.3961147,126.2644281,(+82) 0507-1372-0743,"""https://api.cdn.visitjeju.net/photomng/imgpath/201804/30/73d223d0-e5c7-4f99-a00e-bd33b86b90b3.jpg"""
제주가좋아서 펜션,제주특별자치도 제주시 구좌읍 비자림로 1569,33.4743111,126.7771579,(+82) 064-782-0122,"""https://api.cdn.visitjeju.net/photomng/imgpath/201804/30/ec172f94-57fc-4693-bbf3-81bd2d88b9e7.jpg"""
롯데시티호텔 제주,제주특별자치도 제주시 도령로 83,33.4906409,126.4866038,(+82) 064-730-1000,"""https://api.cdn.visitjeju.net/photomng/imgpath/201808/17/ff2dbb17-ceb6-49b0-9e24-770e55461260.jpg"""
제주부영호텔엔리조트,제주특별자치도 서귀포시 중문관광로 222,33.2423055,126.4232514,(+82) 064-731-5500,"""https://api.cdn.visitjeju.net/photomng/imgpath/201804/30/8b9ddcf5-20d9-4427-b827-44f385bc11ff.jpg"""
빠담빠담게스트하우스,제주특별자치도 서귀포시 표선면 돈오름로 198-4,33.3296372,126.8182137,(+82) 010-3377-9714,"""https://api.cdn.visitjeju.net/photomng/imgpath/201804/30/af132973-d363-4f5f-9019-2b1b355ffa12.jpg"""
오션스위츠 제주호텔,제주특별자치도 제주시 탑동해안로 74,33.5182759,126.5233376,(+82) 064-720-6000,"""https://api.cdn.visitjeju.net/photomng/imgpath/201804/30/9eb902c9-4a75-47ec-bc49-1edd2b85b3bb.jpeg"""
우도사랑,제주특별자치도 제주시 우도면 우목길 82-2,33.5098248,126.9463192,(+82) 010-4661-7392,"""https://api.cdn.visitjeju.net/photomng/imgpath/201804/30/ff754130-8e24-4b24-8007-efb6625fd33d.jpg"""
제주해나루,제주특별자치도 서귀포시 신서로98번길 19-1 (강정동) 제주해나루,33.258885,126.5081752,(+82) 010-5431-2773,"""https://api.cdn.visitjeju.net/photomng/imgpath/201804/30/9f342d5e-d757-49ec-8d48-bf079ed2ed43.jpg"""
켄싱턴리조트 제주 한림점,제주특별자치도 제주시 한림읍 한림해안로 530,33.435455,126.2745484,(+82) 064-796-9600,"""https://api.cdn.visitjeju.net/photomng/imgpath/201810/25/3a762da3-80d5-4b97-81cb-b6aa49446831.jpg"""
파르나스 호텔 제주,제주특별자치도 서귀포시 중문관광로72번길 100 (색달동),33.2477763,126.4086974,(+82) 064-801-5555,"""https://api.cdn.visitjeju.net/photomng/imgpath/201804/30/f2cd5bb0-113c-4426-9855-e55a3de69201.jpg"""
활엽수 게스트하우스,제주 서귀포시 상모대서로 20번길 44,33.225357,126.2612449,(+82) 010-9074-9589,"""https://api.cdn.visitjeju.net/photomng/imgpath/202208/09/e902b984-948a-4c3f-bbf7-2a0457d69e2b.jpg"""
WE호텔 제주,"제주도 서귀포시 1100로 453-95(회수동, 위호텔)",33.2850085,126.4545775,(+82) 064-730-1200,"""https://api.cdn.visitjeju.net/photomng/imgpath/201804/30/9d7c8182-5592-4af3-8b6b-56d7d5c483d5.jpg"""
꽃하루방게스트하우스,제주특별자치도 서귀포시 성산읍 온평포구로62번길 24,33.4003299,126.9028806,(+82) 010-2105-8817,"""https://api.cdn.visitjeju.net/photomng/imgpath/202305/22/3b36cf0f-218c-49f2-8f60-400ec684791b.jpg"""
랜딩관 제주신화월드 호텔앤리조트,제주특별자치도 서귀포시 안덕면 신화역사로304번길 38,33.3071802,126.3174379,(+82) 1670-8800,"""https://api.cdn.visitjeju.net/photomng/imgpath/202008/31/63133587-145b-4edc-811f-7b16dd55e51c.jpg"""
롯데리조트제주 아트빌라스,제주특별자치도 서귀포시 색달중앙로252번길 124,33.2893348,126.4152061,(+82) 064-731-9000,"""https://api.cdn.visitjeju.net/photomng/imgpath/201903/06/31338b06-65f8-46c3-bade-eae2a9c2a50a.jpg"""
마레보 리조트,제주특별자치도 제주시 애월읍 신엄안3길 135,33.4715276,126.3541906,(+82) 064-799-2090,"""https://api.cdn.visitjeju.net/photomng/imgpath/201804/30/987318d9-58dd-48cc-9817-572f3f64f96f.jpg"""
메종드오조락,제주특별자치도 서귀포시 성산읍 오조로 140,33.4659005,126.9133066,(+82) 010-3042-4197,"""https://api.cdn.visitjeju.net/photomng/imgpath/201804/30/28a75822-d6fe-42ee-81d6-d9e6771dd9de.jpg"""
범섬풍경,제주특별자치도 서귀포시 속골로 26,33.2421488,126.5296721,(+82) 064-739-6399,"""https://api.cdn.visitjeju.net/photomng/imgpath/201804/30/b5fa06e1-9c48-423b-8e79-dc6422c56fae.jpg"""
아름다운리조트,제주특별자치도 서귀포시 성산읍 해맞이해안로 2644,33.4752576,126.9101107,(+82) 064-782-1300,"""https://api.cdn.visitjeju.net/photomng/imgpath/201804/30/75885ddf-620c-487b-a594-99de55e8a03c.jpg"""
아이비테라스,제주특별자치도 서귀포시 법환상로 65,33.2405989,126.5100135,(+82) 070-4364-9468,"""https://api.cdn.visitjeju.net/photomng/imgpath/201804/30/8b192483-4413-4751-a89c-6b81875c4864.jpg"""
야호비치하우스,제주특별자치도 제주시 조천읍 조함해안로 582,33.5439491,126.673741,(+82) 064-782-5853,"""https://api.cdn.visitjeju.net/photomng/imgpath/201804/30/4785752e-c405-469d-8524-bbce5682cae2.jpg"""
오션스퀘어,서귀포시 환해장성로 667,33.4132022,126.9089953,(+82) 064-717-7300,"""https://api.cdn.visitjeju.net/photomng/imgpath/201907/08/fcb9e56d-2da4-438d-bf81-a0756ab781c6.jpg"""
오크하우스,제주특별자치도 제주시 애월읍 하가로 13,33.4662051,126.3580845,(+82) 064-799-5556,"""https://api.cdn.visitjeju.net/photomng/imgpath/202211/07/34ccd333-f0ba-456a-bfba-746fa952b664.jpg"""
제주리조트,제주특별자치도 제주시 애월읍 가문동상4길 11,33.4830132,126.3930486,(+82) 064-745-5533,"""https://api.cdn.visitjeju.net/photomng/imgpath/202203/04/008ec9dd-f4a1-4cf3-b49d-6348686147d4.jpg"""
제주아이브리조트,제주특별자치도 서귀포시 산록남로 1966-34,33.288409,126.4968764,(+82) 064-739-8899,"""https://api.cdn.visitjeju.net/photomng/imgpath/201807/30/408e6116-db1e-493c-8405-2c47c044c26f.jpg"""
푸른바다펜션,제주도 서귀포시 남성로128번길 37-10,33.2419067,126.5576641,(+82) 064-739-1331,""""""
하워드존슨 제주 연동 호텔,제주특별자치도 제주시 삼무로 57,33.4900778,126.4924349,(+82) 1811-1234,"""https://api.cdn.visitjeju.net/photomng/imgpath/201804/30/94a408f8-1fe8-47c2-8991-8f95609e3da7.jpg"""
구덕게스트하우스,제주특별자치도 서귀포시 솔동산로22번길 20,33.2441021,126.5623654,(+82) 0507-1402-2380,"""https://api.cdn.visitjeju.net/photomng/imgpath/201804/30/bbb17540-3edb-499a-a474-fb14f3257bf5.jpg"""
꿈꾸는섬 게스트하우스,제주특별자치도 제주시 조천읍 조천3길 27-1,33.5359334,126.6348449,(+82) 070-4415-8042,"""https://api.cdn.visitjeju.net/photomng/imgpath/201804/30/12f140ec-8ec0-4ff9-8695-c582e2c65069.jpg"""
더본 호텔,제주도 서귀포시 색달로 18,33.2594337,126.4063059,(+82) 064-764-8988,""""""
더포그레이스호텔앤리조트,제주특별자치도 서귀포시 성산읍 해맞이해안로 2670,33.4736366,126.910674,(+82) 064-797-7700,"""https://api.cdn.visitjeju.net/photomng/imgpath/201804/30/77e15fc0-caea-49a3-a77e-1381769bc606.jpg"""
베니키아 아이진호텔,제주특별자치도 제주시 신대로22길 4 (연동),33.4824636,126.4948129,(+82) 064-745-0700,"""https://api.cdn.visitjeju.net/photomng/imgpath/201812/17/a8caf0dd-097b-4c0b-b081-5ca6bd44f652.jpg"""
베스트웨스턴 제주 호텔,제주특별자치도 제주시 도령로 27,33.4878289,126.4818464,(+82) 064-797-6000,"""https://api.cdn.visitjeju.net/photomng/imgpath/201804/30/1d2d33f5-8f24-4d4c-a369-d9dc24987f4a.jpg"""
블루하와이리조트,제주특별자치도 제주시 한림읍 한림로 77,33.3813531,126.2180497,(+82) 064-773-0800,"""https://api.cdn.visitjeju.net/photomng/imgpath/201804/30/31ab02a4-3825-4cd4-bcbe-c4e16a0266b5.jpg"""
예이츠산장,서귀포시 남원읍 516로 918,33.3253567,126.6009507,(+82) 064-767-3746,"""https://api.cdn.visitjeju.net/photomng/imgpath/201804/30/1099ddd8-87c3-4f16-bf41-b77179c0ba31.jpg"""
유월그리고열두마루,제주특별자치도 제주시 구좌읍 한동로1길 38,33.5357034,126.8253944,(+82) 0507-1364-1167,"""https://api.cdn.visitjeju.net/photomng/imgpath/202308/23/dc9d5401-a540-4e69-83b2-11915afb0255.jpg"""
이디하우스n카페,제주특별자치도 제주시 구좌읍 해녀박물관길 33-2,33.5239991,126.8619404,(+82) 010-3762-7982,"""https://api.cdn.visitjeju.net/photomng/imgpath/201804/30/3d1066eb-2764-47cb-98b4-d2c505bfd570.jpg"""
제주소풍,제주특별자치도 제주시 구좌읍 월정1길 23,33.5540274,126.7904835,(+82) 064-723-7123,"""https://api.cdn.visitjeju.net/photomng/imgpath/201804/30/e6d5fdbb-8646-446e-95a8-1cb42fc5015b.jpg"""
제주인호텔,제주특별자치도 제주시 신산마을길 20,33.4919312,126.4458048,(+82) 064-741-1100,"""https://api.cdn.visitjeju.net/photomng/imgpath/202004/16/941c161c-61fd-49cf-8d2a-89ccd92f1c5f.jpg"""
키코앤일레인호텔,제주특별자치도 서귀포시 일주서로 660,33.2546584,126.4392868,(+82) 064-738-2013,"""https://api.cdn.visitjeju.net/photomng/imgpath/201804/30/ab3d7d91-211b-42c5-a2fa-4216f7faec22.jpg"""
포도호텔,제주특별자치도 서귀포시 안덕면 산록남로 863,33.315764,126.3873272,(+82) 064-793-7000,"""https://api.cdn.visitjeju.net/photomng/imgpath/201804/30/abf6aab4-4eeb-4eeb-b620-5b29afd682e4.jpg"""
플레이스 캠프 제주,제주특별자치도 서귀포시 성산읍 동류암로 20,33.4499881,126.9182865,(+82) 064-766-3000,"""https://api.cdn.visitjeju.net/photomng/imgpath/202212/06/63b5790d-11d4-4bd0-b3ec-80a904801ab1.jpg"""
하도리일번지,제주특별자치도 제주시 구좌읍 해맞이해안로 1860,33.5290971,126.8463777,(+82) 010-2012-5331,"""https://api.cdn.visitjeju.net/photomng/imgpath/202211/03/7051ee3c-fc8d-47ec-a739-f47b541aa4a6.jpg"""
한화리조트 제주,"제주특별자치도 제주시 명림로 575-107 (회천동, 한화리조트) 한화리조트 제주",33.4489935,126.637412,(+82) 064-725-9000,"""https://api.cdn.visitjeju.net/photomng/imgpath/201804/30/49f4ded8-8d8a-4fbf-b2ba-94db5e064df7.jpg"""
호텔펄리플러스,제주특별자치도 제주시 도두봉 2길 2,33.5054815,126.4697222,(+82) 064-702-0071,"""https://api.cdn.visitjeju.net/photomng/imgpath/201806/19/a198b271-195d-4936-82d6-0477e7e727d9.jpg"""
게으른소나기,제주 제주시 구좌읍 계룡길 45-6,33.538811,126.8338011,(+82) 070-8823-2456,"""https://api.cdn.visitjeju.net/photomng/imgpath/201912/02/84631711-854b-45b0-bff2-37659a3dba5a.jpg"""
구름밭하우스,제주특별자치도 제주시 구좌읍 문주란로 142,33.52154,126.8966456,(+82) 0507-1497-9933,"""https://api.cdn.visitjeju.net/photomng/imgpath/201804/30/a0b6318b-1324-4e25-89ac-6bc7f22409ea.jpg"""
내도바당펜션,제주특별자치도 제주시 내도중길 9-7,33.4958062,126.4403991,(+82) 064-743-8339,"""https://api.cdn.visitjeju.net/photomng/imgpath/201804/30/5df234d1-b421-4b97-ae00-c22736bf1204.jpg"""
넙빌레하우스,제주특별자치도 서귀포시 남원읍 태위로2번길 28,33.2692365,126.6487275,(+82) 010-4891-5926,"""https://api.cdn.visitjeju.net/photomng/imgpath/201912/12/544f6264-5831-4838-ac3c-b8d1080b02f1.jpg"""
노낭게스트하우스,제주특별자치도 서귀포시 성산읍 섭지코지로 62,33.4371641,126.9220066,(+82) 010-2614-2015,"""https://api.cdn.visitjeju.net/photomng/imgpath/201804/30/0349a053-6cac-4402-b291-0cc74481c642.jpeg"""
단추스테이 단추숲,제주특별자치도 제주시 한경면  고조로 311-8,33.3189347,126.209157,(+82) 010-2759-1320,"""https://api.cdn.visitjeju.net/photomng/imgpath/201804/30/53d427c4-3105-4ea2-8ef6-ad089d10d67b.jpg"""
더클라우드호텔,제주특별자치도 서귀포시 성산읍 한도로 269-37,33.4689926,126.9350866,(+82) 064-783-8366,"""https://api.cdn.visitjeju.net/photomng/imgpath/201804/30/45b578de-8e14-4e73-a9e1-ad1c3bebd4d4.jpg"""
돈내코힐 리조트,제주특별자치도 서귀포시 돈내코로 180,33.3027048,126.5783491,(+82) 064-762-8400,"""https://api.cdn.visitjeju.net/photomng/imgpath/201804/30/54964940-ffe9-4e5e-a2a5-9a17f56c6cbb.jpg"""
동박생이,제주특별자치도 제주시 구좌읍 월정1길 89,33.5584132,126.792853,(+82) 010-3697-4191,"""https://api.cdn.visitjeju.net/photomng/imgpath/202212/02/98a2166a-92ec-473a-a006-1a50243f10dc.jpg"""
두베하우스,제주특별자치도 제주시 구좌읍 상하도길 46-12,33.516944,126.8665172,(+82) 010-3591-6896,"""https://api.cdn.visitjeju.net/photomng/imgpath/201804/30/fa1ac26c-cb67-4968-a1e9-6715a14aa519.jpg"""
뒹글하우스,제주특별자치도 제주시 구좌읍 월정7길 28-6,33.5538546,126.7977349,(+82) 010-5840-0589,"""https://api.cdn.visitjeju.net/photomng/imgpath/201804/30/db64a9a7-3ace-41e0-bf38-2271318db78a.jpg"""
드헤브펜션,제주특별자치도 제주시 구좌읍 문주란로1길 74-24,33.5254827,126.8851873,(+82) 064-783-1200,"""https://api.cdn.visitjeju.net/photomng/imgpath/201804/30/b1a5e62a-f325-4741-a9e2-0ca684f79f7b.jpg"""
라마다 제주 함덕 호텔,제주특별자치도 제주시 조천읍 신북로 470,33.543269,126.6597958,(+82) 064-793-5500,"""https://api.cdn.visitjeju.net/photomng/imgpath/201804/30/5265a595-9938-4c20-99cf-c24fb6e893fc.jpg"""
라마다제주시티홀,제주특별자치도 제주시 중앙로 304,33.4935318,126.5343136,(+82) 064-759-8831,"""https://api.cdn.visitjeju.net/photomng/imgpath/202212/06/201b7c72-5a87-4e49-9e03-5a4e0c1091ee.jpg"""
라포즈,제주특별자치도 서귀포시 중산간서로 459,33.2630864,126.4657804,(+82) 010-9555-3367,"""https://api.cdn.visitjeju.net/photomng/imgpath/202207/06/cf55cf9e-0ad8-42a3-8ad4-6136461b6f9e.jpg"""
레드우드하우스,제주특별자치도 제주시 구좌읍 종달로1길 62,33.4957016,126.9022054,(+82) 010-9902-1246,"""https://api.cdn.visitjeju.net/photomng/imgpath/201804/30/67100b4a-ac69-4905-8f1e-48fa2b733b16.jpg"""
루시드봉봉,제주특별자치도 서귀포시 대정읍 상모로 200-8,33.2260322,126.2672628,(+82) 010-3580-3089,"""https://api.cdn.visitjeju.net/photomng/imgpath/202004/24/059ec7f3-a9ec-438d-8c19-8c2f3654b87f.jpg"""
몽돌바당,제주특별자치도 제주시 내도3길 10,33.4946665,126.4394716,(+82) 064-743-6107,"""https://api.cdn.visitjeju.net/photomng/imgpath/201804/30/7d849366-03a0-4cd4-a2c0-8b1bc90ccc82.jpg"""
미도호스텔,제주특별자치도 서귀포시 동문동로 13-1,33.2500613,126.5663637,(+82) 064-762-7627,"""https://api.cdn.visitjeju.net/photomng/imgpath/201804/30/494442e6-3a7c-41a5-995d-c760fea81aad.jpg"""
백패커스홈,제주특별자치도 서귀포시 중정로 24-7,33.2470391,126.5590304,(+82) 064-763-4000,"""https://api.cdn.visitjeju.net/photomng/imgpath/202206/10/69f20f09-8dbc-41ef-bf3a-bdba26f35520.jpg"""
밸류호텔 서귀포,제주특별자치도 서귀포시 김정문화로 51,33.2514311,126.5103166,(+82) 064-802-3000,"""https://api.cdn.visitjeju.net/photomng/imgpath/201912/17/f393b90a-076e-41fa-bee8-18dbc507e618.jpg"""
베니키아호텔제주,제주특별자치도 제주시 애월읍 애월해안로 554-6,33.4777407,126.3624077,(+82) 064-799-9977,"""https://api.cdn.visitjeju.net/photomng/imgpath/201804/30/2a0dcb13-4def-487e-8c44-572f274586a1.png"""
봉쟈 게스트하우스,제주특별자치도 제주시 진동로 81,33.5258852,126.5683774,(+82) 010-8858-3499,"""https://api.cdn.visitjeju.net/photomng/imgpath/201804/30/0b9ed439-a7f5-47ef-b031-b334606b3fd8.jpg"""
비안,제주특별자치도 제주시 조천읍 중산간동로 1197-16,33.5098877,126.6979159,(+82) 010-2052-6982,"""https://api.cdn.visitjeju.net/photomng/imgpath/201804/30/75db524c-5478-439f-9490-292fba0381f4.jpg"""
뽀요요펜션,제주특별자치도 제주시 우도면 우도해안길 128,33.4942173,126.9466874,(+82) 010-9737-8118,"""https://api.cdn.visitjeju.net/photomng/imgpath/201804/30/9f060795-c8d2-4767-877c-cca89d442931.jpg"""
서머셋 제주신화월드 호텔앤리조트,제주특별자치도 서귀포시 안덕면 신화역사로304번길 89,33.3028885,126.3181117,(+82) 1670-8800,"""https://api.cdn.visitjeju.net/photomng/imgpath/201804/30/dceac5e4-ebf6-4ff4-8cd1-977e775ad6c4.jpg"""
소노캄제주,제주특별자치도 서귀포시 표선면 일주동로 6347-17,33.3050378,126.7919081,(+82) 1588-4888,"""https://api.cdn.visitjeju.net/photomng/imgpath/202311/01/2cf2be1b-e096-4dfd-b690-3cba9ca700e2.jpg"""
숨게스트하우스 제주공항점,제주특별자치도 제주시 서광로5길 2-2,33.5004316,126.5146584,(+82) 0507-1311-0106,"""https://api.cdn.visitjeju.net/photomng/imgpath/202301/06/efab97ad-9119-4f0f-b363-4004c015f198.jpg"""
스위트호텔 제주,제주특별자치도 서귀포시 중문관광로72번길 67,33.2493321,126.4082147,(+82) 064-738-3800,"""https://api.cdn.visitjeju.net/photomng/imgpath/201912/06/95e615f9-ed6b-4db8-be73-e39138a37d5c.jpg"""
야스라기펜션,제주특별자치도 제주시 애월읍 상귀서길 82-34,33.4635142,126.4045361,(+82) 1661-3949,"""https://api.cdn.visitjeju.net/photomng/imgpath/201804/30/8fa5486d-0931-4a88-89b1-b902fac859a7.gif"""
엠스테이호텔,제주특별자치도 서귀포시 태평로353번길 14,33.2468717,126.5607244,(+82) 064-800-6001,"""https://api.cdn.visitjeju.net/photomng/imgpath/201804/30/fcbaf7bc-bd2b-4760-a0bd-f68ce7edcd5f.jpg"""
연이네다락방 게스트하우스,제주특별자치도 제주시 구좌읍 동복로 56-3,33.5526577,126.7123106,(+82) 010-2757-8872,"""https://api.cdn.visitjeju.net/photomng/imgpath/201804/30/6068372f-6aa1-415a-9d57-ca0b3b0580bd.png"""
와이리조트 제주,제주특별자치도 서귀포시 안덕면 화순중앙로124번길 75,33.2425613,126.3276357,(+82) 064-794-7007,"""https://api.cdn.visitjeju.net/photomng/imgpath/201804/30/18c1aa60-6ac8-4955-b55e-3d5abcfc2a77.jpg"""
이런날엔,제주특별자치도 제주시 구좌읍 한동북1길 60,33.5425892,126.8305829,(+82) 070-4036-8013,"""https://api.cdn.visitjeju.net/photomng/imgpath/201804/30/2aeddf35-924e-44ab-8735-e633e8a839c1.jpg"""
제주 에코 스위츠 펜션,제주특별자치도 서귀포시 중문상로 207-13,33.2654574,126.427789,(+82) 064-738-9975,"""https://api.cdn.visitjeju.net/photomng/imgpath/201804/30/7bf4ad5c-3f5e-47e9-98e3-c6ad3f6bcfa5.jpg"""
제주락,제주특별자치도 서귀포시 월드컵로 203,33.2315533,126.5062352,(+82) 010-8765-1828,"""https://api.cdn.visitjeju.net/photomng/imgpath/202211/02/ce3d0342-3e61-4e5d-9498-973b76656719.jpg"""
제주바다펜션,제주특별자치도 제주시 구좌읍 해맞이해안로 2324,33.5290971,126.8463777,(+82) 010-9009-4101,"""https://api.cdn.visitjeju.net/photomng/imgpath/201804/30/345685c6-2f75-4c8c-817a-7449155c6b93.jpg"""
제주샘모루펜션,제주특별자치도 서귀포시 염돈로28번길 11,33.2531286,126.4948675,(+82) 010-6359-9756,"""https://api.cdn.visitjeju.net/photomng/imgpath/201804/30/47cc2164-ec35-45e8-95c0-b4311a973a7d.jpg"""
제주소소,제주특별자치도 제주시 애월읍 소길남길 190-18,33.4171151,126.3749388,(+82) 010-4692-4408,"""https://api.cdn.visitjeju.net/photomng/imgpath/201804/30/2823590f-e6ab-4122-b2fa-eeda62156260.jpg"""
제주에살다,제주특별자치도 서귀포시 성산읍 온평포구로62번길 37,33.3995248,126.904118,(+82) 010-9269-2997,"""https://api.cdn.visitjeju.net/photomng/imgpath/201804/30/9dcf4df8-3b41-4de6-992b-06d96383de04.jpg"""
제주카사블랑카펜션,제주특별자치도 서귀포시 학수암로 107,33.2703972,126.5279035,(+82) 010-3755-3800,"""https://api.cdn.visitjeju.net/photomng/imgpath/201804/30/1379d2f8-66f5-4f5a-afe2-50d99034f695.jpg"""
제주해안휴양펜션,제주특별자치도 서귀포시 안덕면 사계남로 89,33.227475,126.2994651,(+82) 064-794-1886,"""https://api.cdn.visitjeju.net/photomng/imgpath/201811/12/7cd3c371-ca2c-4451-bfc5-9ac8896de19c.jpg"""
초,제주특별자치도 서귀포시 성산읍 풍천로27번길 33-3,33.3458161,126.8491916,(+82) 010-5345-7339,"""https://api.cdn.visitjeju.net/photomng/imgpath/201804/30/f568d318-e77a-4fe8-949e-8a41467c313b.jpg"""
코시롱게스트하우스,제주특별자치도 서귀포시 성산읍 성산중앙로37번길 1,33.4631795,126.933055,(+82) 064-782-0101,"""https://api.cdn.visitjeju.net/photomng/imgpath/201804/30/452dc004-4278-4190-a067-9dbd21c77764.jpeg"""
코즈게스트하우스,제주특별자치도 서귀포시 안덕면 동광로100번길 20 (동광리) 코즈게스트하우스,33.3042522,126.3386005,(+82) 010-7241-3868,"""https://api.cdn.visitjeju.net/photomng/imgpath/201804/30/10c94264-4057-446b-849b-ebe0c9ac2f48.jpg"""
포구민박,제주시 애월읍 하귀12길 20-1,33.4863637,126.4088801,(+82) 010-2902-2005,"""https://api.cdn.visitjeju.net/photomng/imgpath/201811/01/f56ebd51-89ba-41b4-b44b-788003ded682.jpg"""
표선이레하우스,제주특별자치도 서귀포시 표선면 표선당포로 9,33.325706,126.8436149,(+82) 010-3270-6297,"""https://api.cdn.visitjeju.net/photomng/imgpath/201810/31/96c20e19-f800-40e8-9fb1-c10601de2edc.jpg"""
하바나블루스,제주특별자치도 제주시 한경면 한경해안로 474-26,33.3404499,126.1731209,(+82) 010-9443-5287,"""https://api.cdn.visitjeju.net/photomng/imgpath/201804/30/45d72dd7-a20f-4272-a550-ffc96d50efe5.gif"""
하이디펜션,제주특별자치도 서귀포시 안덕면 사계북로41번길 142 (사계리) 하이디펜션,33.2454599,126.29736,(+82) 010-2595-1016,"""https://api.cdn.visitjeju.net/photomng/imgpath/201804/30/f2bc63d4-e044-437a-9571-ccb9b8371c96.jpg"""
협재해오름펜션,제주특별자치도 제주시 한림읍 옹포2길 37-28 (옹포리) 협재해오름펜션,33.397957,126.2535498,(+82) 064-796-6650,"""https://api.cdn.visitjeju.net/photomng/imgpath/201811/02/b392a1cd-5e0f-4c1e-9755-6cf88e5f508b.jpg"""
호텔 리젠트마린,제주특별자치도 제주시 서부두2길 20,33.5174359,126.5269089,(+82) 02-777-5080,"""https://api.cdn.visitjeju.net/photomng/imgpath/201811/06/9bd58f7f-fbba-4e43-aa01-08b000dd24d3.jpg"""
호텔 스카이파크 제주1호점,제주특별자치도 제주시 삼무로 48,33.4895545,126.4917355,(+82) 064-797-0000,"""https://api.cdn.visitjeju.net/photomng/imgpath/201804/30/8b0763ad-0e9e-4d11-9adc-6134c92f17e2.jpg"""
호텔 펠리시아,제주특별자치도 서귀포시 일주동로 9123,33.2472554,126.5179533,(+82) 064-739-0400,"""https://api.cdn.visitjeju.net/photomng/imgpath/202305/19/5da26e8f-766b-44df-9d13-4e328010bbd8.jpg"""
호텔레오,제주특별자치도 제주시 삼무로 14,33.4897519,126.4882605,(+82) 064-754-7000,"""https://api.cdn.visitjeju.net/photomng/imgpath/202211/07/d31052bf-a224-4ef8-be06-21e9b877dbf0.jpg"""
메리어트관 제주신화월드 호텔앤리조트,제주특별자치도 서귀포시 안덕면 신화역사로304번길 38,33.3071802,126.3174379,(+82) 1670-8800,"""https://api.cdn.visitjeju.net/photomng/imgpath/201912/16/7a9b0aaf-cf0b-435d-8ee3-b4a15e2e0121.jpg"""
에코랜드호텔,제주특별자치도 제주시 조천읍 번영로 1278-169 (대흘리),33.4617075,126.6703845,(+82) 064-801-6000,"""https://api.cdn.visitjeju.net/photomng/imgpath/201903/06/238c9c7b-3df0-4cba-9dc3-abd2c08478a5.jpg"""
JAY&CHLOE,제주도 서귀포시 대정읍 무릉중앙로 203,33.2572119,126.1888401,(+82) 010-8557-9171,"""https://api.cdn.visitjeju.net/photomng/imgpath/202309/22/5d986df5-fe09-49e0-9d29-3a1218c07cd5.jpg"""
JK라마다앙코르 제주연동호텔,제주특별자치도 제주시 도령로 124,33.4921768,126.4905366,(+82) 064-797-5000,"""https://api.cdn.visitjeju.net/photomng/imgpath/201804/30/5a4156bc-33cc-43f6-8ecc-009c25d17c32.jpg"""
Oh! 세화!,제주특별자치도 제주시 구좌읍 세송로 8-11,33.5169566,126.8594965,(+82) 064-782-0146,"""https://api.cdn.visitjeju.net/photomng/imgpath/201804/30/f508491c-9429-45b3-9036-bc6535829190.jpg"""
UncleBORO게스트하우스,제주특별자치도 제주시 한경면 저지12길 60-6,33.3384066,126.2624571,(+82) 070-8861-4343,"""https://api.cdn.visitjeju.net/photomng/imgpath/201804/30/ea363fae-6e24-4959-91ff-d72bf77708ea.jpg"""
WITH US,제주시 애월읍 애월로 7길 24-3,33.4658207,126.3175926,(+82) 0507-1344-2426,"""https://api.cdn.visitjeju.net/photomng/imgpath/201804/30/24df57a5-40ab-4d35-9f92-1cdf2c77297b.jpg"""
YOU&I게스트하우스,제주특별자치도 제주시 광양8길 1-2,33.4997928,126.5291687,(+82) 064-753-5648,"""https://api.cdn.visitjeju.net/photomng/imgpath/201804/30/691c16db-1e7c-4852-aff0-2ee058c9b67c.jpg"""
가까이에파도소리,제주도 제주시 외도2동 연대마을길 44,33.4949564,126.4248894,(+82) 064-743-7436,"""https://api.cdn.visitjeju.net/photomng/imgpath/202212/05/1d0fe107-0d91-4c18-a088-e22806560e62.jpg"""
건축학개론펜션,제주특별자치도 서귀포시 성산읍 신풍하동로 224-33,33.3582629,126.8602163,(+82) 064-784-0007,"""https://api.cdn.visitjeju.net/photomng/imgpath/201804/30/874a3740-7e9a-4dd2-a508-9c0341881a7d.jpg"""
고망난돌민박가든,제주특별자치도 서귀포시 성산읍 일주동로 5464,33.3531583,126.8579894,(+82) 064-787-1060,"""https://api.cdn.visitjeju.net/photomng/imgpath/201804/30/9c3802dc-49d3-49eb-b42b-105717607897.gif"""
골든파크호텔,제주특별자치도 제주시 서광로2길 9,33.4992449,126.5129932,(+82) 064-752-5820,"""https://api.cdn.visitjeju.net/photomng/imgpath/201804/30/cb71cfa5-a3cd-49db-9b36-7566b00e9b6b.jpg"""
그랜드 하얏트 제주,제주특별자치도 제주시 노연로 12,33.4853796,126.4815295,(+82) 1533-1234,"""https://api.cdn.visitjeju.net/photomng/imgpath/201812/13/effa8415-3c89-4979-a4db-5da6871de014.jpg"""
그랜드메르호텔,제주특별자치도 서귀포시 논짓물로 45,33.2396011,126.385934,(+82) 064-801-7005,"""https://api.cdn.visitjeju.net/photomng/imgpath/202101/26/00736ba8-9f61-44e7-a1e9-ae6e03b0757b.jpg"""
그린트리인서귀포호텔,제주특별자치도 서귀포시 서호중앙로 84 (서호동) 그린트리 인 서귀포호텔,33.254576,126.520051,(+82) 064-739-3500,"""https://api.cdn.visitjeju.net/photomng/imgpath/201812/06/11cd25b8-a48d-492e-bf2e-6ec28dd9b32f.jpg"""
끄라비펜션,제주특별자치도 서귀포시 토평로148번길 28,33.279433,126.5914359,(+82) 064-733-3399,"""https://api.cdn.visitjeju.net/photomng/imgpath/201810/11/bc9f1f49-2ff7-420b-8707-db61c24cc361.jpg"""
나무사이로햇살이,제주특별자치도 제주시 구좌읍 중산간동로 2281,33.4711497,126.786197,(+82) 010-4269-2942,"""https://api.cdn.visitjeju.net/photomng/imgpath/202102/02/1498d74c-e960-485c-b3e9-09a8ff3b08ba.jpg"""
나무처럼 게스트하우스,제주시 한림읍 홍수암로 3-1,33.3851208,126.2264679,(+82) 0507-1436-8306,"""https://api.cdn.visitjeju.net/photomng/imgpath/201804/30/2a19c8ba-ed22-4c5b-925c-b01537699302.jpg"""
난드르통나무집,제주특별자치도 서귀포시 안덕면 대평로 36,33.2370466,126.3638157,(+82) 064-738-3393,"""https://api.cdn.visitjeju.net/photomng/imgpath/202211/08/7d5c9f3d-de51-444f-b345-af47f2d8eabb.jpg"""
남촌풀하우스,제주도 서귀포시 표선면 표선동서로 139,33.3169589,126.8283428,(+82) -787-4100,"""https://api.cdn.visitjeju.net/photomng/imgpath/201804/30/3408c4ef-5cb9-4945-9a5a-720ec2a828dc.jpg"""
노을과어울림,제주도 서귀포시 대정읍 노을해안로 638,33.270758,126.1759238,(+82) 070-8807-4119,"""https://api.cdn.visitjeju.net/photomng/imgpath/201804/30/2c8352a5-6cd5-443e-afe1-db4cd25ab63d.jpg"""
다락마마,제주특별자치도 제주시 구좌읍 상하도길 46-16,33.5171719,126.8662524,(+82) 010-9820-5621,"""https://api.cdn.visitjeju.net/photomng/imgpath/201804/30/970d2d4e-eac8-4781-806b-d4dfa5e42587.jpg"""
단빌리지민박,제주특별자치도 제주시 한경면 고락로 100,33.3021103,126.1900381,(+82) 0507-1430-3700,"""https://api.cdn.visitjeju.net/photomng/imgpath/201811/29/1cc4ef45-d303-41d0-af34-ac1f79dcfddf.jpg"""
단추스테이,제주특별자치도 제주시 한림읍 금능1길 15-8,33.388162,126.2236664,(+82) 010-2759-1320,"""https://api.cdn.visitjeju.net/photomng/imgpath/201804/30/afbf5663-984e-47a5-9744-95e226a08bbf.jpg"""
더들집,제주특별자치도 제주시 구좌읍 동복로1길 23-3,33.5544005,126.712917,(+82) 010-3007-8256,"""https://api.cdn.visitjeju.net/photomng/imgpath/201804/30/5a494c9f-ab93-4cba-894a-153f3e0f032b.jpg"""
더베이 제주 리조트,제주특별자치도 서귀포시 문필로35번길 46,33.2411845,126.5933945,(+82) 064-732-8500,"""https://api.cdn.visitjeju.net/photomng/imgpath/201804/30/735349c8-5d5e-4d88-86fe-3895ba6ab754.jpg"""
도시락게스트하우스,제주특별자치도 서귀포시 성산읍 성산중앙로 48,33.4638902,126.934104,(+82) 010-4095-2525,"""https://api.cdn.visitjeju.net/photomng/imgpath/201804/30/dbfd984b-399a-4c3b-834c-69a3cc1556a3.jpg"""
동원호텔,제주특별자치도 서귀포시 솔동산로10번길 45,33.2408541,126.5626364,(+82) 064-732-8701,"""https://api.cdn.visitjeju.net/photomng/imgpath/201804/30/03bcd5a5-618c-464c-8ec7-483f87a3bd3e.jpg"""
디아넥스 호텔,제주특별자치도 서귀포시 안덕면 산록남로762번길 71,33.3032678,126.3921139,(+82) 064-793-6005,"""https://api.cdn.visitjeju.net/photomng/imgpath/201804/30/244a2199-19c0-42a3-92f3-d882017325a6.jpg"""
디오션힐,제주특별자치도 서귀포시 안덕면 사계북로 208,33.2367536,126.3089621,(+82) 064-792-0102,"""https://api.cdn.visitjeju.net/photomng/imgpath/201804/30/2a5b1303-0b41-4544-b6fd-d5482362190d.jpg"""
또랑게스트하우스,제주 제주시 한북로 338,33.4551029,126.549412,(+82) 010-9282-2823,"""https://api.cdn.visitjeju.net/photomng/imgpath/201804/30/19cd6f30-b6bf-444d-b3ff-ca4c46a87ddc.jpg"""
뚜르드제주게스트하우스,제주 제주시 구좌읍 종달로1길 38-2,33.4959018,126.8999378,(+82) 010-5007-5012,"""https://api.cdn.visitjeju.net/photomng/imgpath/202008/31/3e3c0519-e290-4fc7-b671-66253a88aad1.jpg"""
라림부띠끄호텔,제주특별자치도 서귀포시 안덕면 대평로 39,33.2368961,126.3629996,(+82) 064-738-3869,"""https://api.cdn.visitjeju.net/photomng/imgpath/201804/30/0e441ace-d378-48e2-8482-027d546bb2b0.jpg"""
라온호텔앤리조트,제주특별자치도 제주시 한림읍 금능남로 127,33.3810152,126.2411754,(+82) 064-796-7740,"""https://api.cdn.visitjeju.net/photomng/imgpath/201804/30/d3289da1-bf9f-43f7-911e-0db91ce997e3.jpg"""
레프트핸더 게스트하우스,제주특별자치도 제주시 구좌읍 상도북2길 17-12,33.5201339,126.8649221,(+82) 010-8311-5120,"""https://api.cdn.visitjeju.net/photomng/imgpath/201804/30/e475bfd4-5643-4d9c-8c61-a98532c0bd02.jpg"""
로뎀펜션,제주특별자치도 제주시 우도면 우도해안길 264,33.5036054,126.9427511,(+82) 064-782-5501,"""https://api.cdn.visitjeju.net/photomng/imgpath/201804/30/9ed6bfcd-1691-47e1-acd6-c37109f0d004.jpg"""
루미수다게스트하우스,제주특별자치도 제주시 중앙로 192,33.5020747,126.5279043,(+82) 010-9752-1144,"""https://api.cdn.visitjeju.net/photomng/imgpath/201804/30/5d2db52d-0d95-42ef-b8b2-7500f3dd2472.jpg"""
리치망고펜션,제주특별자치도 제주시 우도면 우도해안길 808,33.5137896,126.9569853,(+82) 010-7484-0124,"""https://api.cdn.visitjeju.net/photomng/imgpath/201804/30/ae32aedb-096f-46b8-b47d-893d57bbdb9c.jpg"""
린든호스텔,제주특별자치도 제주시 서광로 278,33.4999901,126.5262125,(+82) 064-722-0419,"""https://api.cdn.visitjeju.net/photomng/imgpath/201804/30/ea67def6-d317-4757-bd0e-e338fa7e8ea4.gif"""
마니주펜션,제주특별자치도 제주시 서해안로 248,33.5089163,126.4722484,(+82) 064-711-6141,"""https://api.cdn.visitjeju.net/photomng/imgpath/201912/11/ccbc09b0-f445-47a9-9275-b47486be5b2d.jpg"""
몽마르뜨펜션,제주도 제주시 애월읍 애월해안로 384-23,33.472749,126.3493082,(+82) 064-799-2100,"""https://api.cdn.visitjeju.net/photomng/imgpath/201804/30/479f6cb0-013f-4b93-8012-a2d263f61e7c.jpg"""
물고기나무게스트하우스,제주특별자치도 서귀포시 성산읍 중산간동로 4204-14,33.3789432,126.8407648,(+82) 010-8566-1037,"""https://api.cdn.visitjeju.net/photomng/imgpath/201804/30/59182ae4-4f5e-4ca0-bb7f-6cd5cb3cdde6.jpg"""
미라클게스트하우스,제주특별자치도 제주시 서해안로 346-9,33.5095687,126.4818685,(+82) 010-7113-2626,"""https://api.cdn.visitjeju.net/photomng/imgpath/201804/30/75e555a2-21ab-4df4-a33f-64672d2e69b1.jpeg"""
미소게스트하우스,제주특별자치도 제주시 관덕로 41,33.5134151,126.523782,(+82) 010-5836-8188,"""https://api.cdn.visitjeju.net/photomng/imgpath/201804/30/e87d6489-51fa-46ff-93ae-32c7988bcafe.gif"""
발리인제주,제주도 제주시 구좌읍 달맞이해안로 2326,33.4980532,126.7954504,(+82)  010-4618-1121,"""https://api.cdn.visitjeju.net/photomng/imgpath/201804/30/f3903e11-5459-4d58-836f-aff178442910.jpg"""
밭담사이,제주특별자치도 제주시 구좌읍 종달로1길 115-1,33.4962506,126.9076025,(+82) 0507-1331-0694,"""https://api.cdn.visitjeju.net/photomng/imgpath/201804/30/12b94550-c0f2-4f15-8e64-ff0e2985f1fc.jpg"""
베이힐 풀앤빌라,제주특별자치도 서귀포시 예래로 424,33.2375461,126.3721708,(+82) 064-801-9000,"""https://api.cdn.visitjeju.net/photomng/imgpath/202005/06/f8e113e4-3219-4589-ae2a-ae2052fda6ec.jpg"""
보리게스트하우스,제주특별자치도 제주시 구좌읍 송당6길 38-1,33.4682493,126.7836601,(+82) 010-2400-6500,"""https://api.cdn.visitjeju.net/photomng/imgpath/201901/28/1f4f6eac-64b9-4676-b929-ae000e83594e.jpg"""
봄 그리고 가을리조트,제주특별자치도 서귀포시 성산읍 해맞이해안로 2660,33.4738934,126.9108755,(+82) 064-784-2211,"""https://api.cdn.visitjeju.net/photomng/imgpath/201804/30/f7443a61-b81c-4a02-8f2e-721ed033b0cf.jpg"""
북마크하우스&카페,제주특별자치도 서귀포시 대정읍 일과대수로11번길 16-8,33.2387594,126.2315527,(+82) 010-3048-3255,"""https://api.cdn.visitjeju.net/photomng/imgpath/201811/22/8d698995-762c-468e-a69d-4b8e19c46ea6.jpg"""
북촌플레이스,제주특별자치도 제주시 조천읍 일주동로 1435,33.5456249,126.6881094,(+82) 064-782-1785,"""https://api.cdn.visitjeju.net/photomng/imgpath/201804/30/80702c24-c064-4b28-b8a3-54c57a3cdbf6.jpg"""
브라운 스위트 제주 호텔 & 리조트,제주특별자치도 서귀포시 성산읍 고성오조로 94,33.4520193,126.91455,(+82) 064-786-6200,"""https://api.cdn.visitjeju.net/photomng/imgpath/201912/19/d68649c3-4b73-49d0-8a1c-cd4613ebe0f3.jpg"""
브릭216,제주특별자치도 서귀포시 이어도로 216,33.240855,126.4434116,(+82) 064-766-0216,"""https://api.cdn.visitjeju.net/photomng/imgpath/201905/28/95945cf3-a5a9-4ead-9499-fb67c8130617.jpg"""
블란디야,제주특별자치도 서귀포시 법환로 15,33.2366223,126.5135462,(+82) 064-739-1182,"""https://api.cdn.visitjeju.net/photomng/imgpath/201804/30/8518d860-61a0-4cd6-810e-d337f4efd58d.jpg"""
블랙스톤리조트,제주특별자치도 제주시 한림읍 한창로 925-122,33.3355186,126.3240674,(+82) 064-795-2121,"""https://api.cdn.visitjeju.net/photomng/imgpath/201912/20/d2994989-e9c9-4da2-a0db-9573c46ba35c.jpg"""
비비엔다,제주특별자치도 제주시 구좌읍 세화11길 18,33.5225245,126.8610535,(+82) 010-2552-0090,"""https://api.cdn.visitjeju.net/photomng/imgpath/201804/30/906c3521-8691-4171-8b9a-7c4acbf79bd5.jpg"""
빌림,제주특별자치도 제주시 오래물길 23,33.5037002,126.4676986,(+82) 010-7359-3383,"""https://api.cdn.visitjeju.net/photomng/imgpath/201911/28/c87734d2-1438-4f1b-80f5-1523884259f3.jpg"""
산토리니 펜션,제주시 애월읍 애월해안로 774,33.4860656,126.3824378,(+82) 064-712-2820,"""https://api.cdn.visitjeju.net/photomng/imgpath/201804/30/9d11e513-b612-4915-8e8f-8b5036e88521.jpg"""
샤모니리조트,제주특별자치도 서귀포시 중산간서로 68,33.2631868,126.503934,(+82) 064-739-1200,"""https://api.cdn.visitjeju.net/photomng/imgpath/202211/04/d7b99b1c-cdb4-40c6-8848-ae9c05a1aab4.jpg"""
서귀포통나무집,제주특별자치도 서귀포시 칠십리로503번길 1,33.2424603,126.6039051,(+82) 064-732-6747,"""https://api.cdn.visitjeju.net/photomng/imgpath/201804/30/de9bc99c-f31f-4506-ae97-2df7f0555e6e.jpg"""
선샤인호텔,제주시 조천읍 신북로 481-9,33.5443474,126.6618402,(+82) 064-780-4100,""""""
섬타임즈제주,제주특별자치도 제주시 연대마을길 66-1,33.4933194,126.4237986,(+82) 010-8676-3897,"""https://api.cdn.visitjeju.net/photomng/imgpath/201804/30/8640506a-685c-4723-bf05-d0ce130f51ff.jpg"""
성산풀하우스,제주특별자치도 서귀포시 성산읍 환해장성로121번길 21-4,33.3841734,126.8797064,(+82) 010-2698-2827,"""https://api.cdn.visitjeju.net/photomng/imgpath/201804/30/fadd0582-9855-4769-8fc5-e5f1128e84be.jpg"""
소낭게스트하우스,제주특별자치도 제주시 구좌읍 월정1길 1,33.5520763,126.7909708,(+82) 010-6665-7149,"""https://api.cdn.visitjeju.net/photomng/imgpath/201907/04/30099559-5ce5-4f06-a2a9-4a5b7473e1ab.jpg"""
소라담하우스,제주특별자치도 제주시 조천읍 신촌남8길 10,33.5302271,126.6224846,(+82) 010-3290-1831,"""https://api.cdn.visitjeju.net/photomng/imgpath/201804/30/cc3cc88d-a980-4cc9-a368-f9083dee2779.jpg"""
소랑풀빌라,제주특별자치도 제주시 조천읍 곱은달남길 218,33.4925067,126.6716459,(+82) 064-710-1000,"""https://api.cdn.visitjeju.net/photomng/imgpath/201804/30/82a12048-4a03-47f7-afd7-e4deade5bc96.jpg"""
소랑호젠,제주특별자치도 서귀포시 남원읍 태위로 545,33.2757478,126.7053958,(+82) 064-764-8016,"""https://api.cdn.visitjeju.net/photomng/imgpath/201804/30/c6a8018d-97c7-486a-a5bd-3bd613ed400f.jpg"""
소섬바당,제주특별자치도 제주시 우도면 우도로 190,33.5088922,126.9535786,(+82) 010-5534-0588,"""https://api.cdn.visitjeju.net/photomng/imgpath/202102/02/7d82d38e-2460-45ba-9b28-4cbef8e46006.jpg"""
솔바람풍경소리펜션,제주특별자치도 서귀포시 남원읍 태수로143번길 132-37,33.2905212,126.7246216,(+82) 064-764-6002,"""https://api.cdn.visitjeju.net/photomng/imgpath/201804/30/56c1fee0-fac8-4440-a4f0-a7e436c234d4.jpg"""
수앤수가족호텔,제주시 애월읍 부룡수길 60,33.4741615,126.3586953,(+82) 064-799-7090,"""https://api.cdn.visitjeju.net/photomng/imgpath/201804/30/5d7ead3c-ca5f-4ee3-a610-2d7b1332a85d.jpg"""
쉴만한 물가,제주특별자치도 제주시 한림읍 월령안길 28,33.3762334,126.2140448,(+82) 064-796-3808,"""https://api.cdn.visitjeju.net/photomng/imgpath/201804/30/1dc4e024-3b16-469d-b011-08e8564ba4ff.jpg"""
스카이워커,제주특별자치도 제주시 관덕로13길 11,33.5140635,126.5259095,(+82) 070-7539-2640,"""https://api.cdn.visitjeju.net/photomng/imgpath/202211/09/da360e7e-332d-4fcd-ba80-e2baf4a80fcb.jpg"""
슬로우리제주 민박,제주특별자치도 제주시 애월읍 엄수로 77,33.4697071,126.3821646,(+82) 010-5730-8977,"""https://api.cdn.visitjeju.net/photomng/imgpath/201804/30/03552c39-8140-4078-84c8-3c45007d3e17.jpg"""
신화관 제주신화월드 호텔 앤 리조트,제주특별자치도 서귀포시 안덕면 신화역사로304번길 38 신화관 제주신화월드 호텔 앤 리조트,33.3071802,126.3174379,(+82) 1670-8800,"""https://api.cdn.visitjeju.net/photomng/imgpath/201904/29/54ef829e-ded2-45e4-b55a-fb0eb1d4b22a.jpg"""
씨앤호텔,제주특별자치도 제주시 일주서로 7490,33.4936882,126.4469991,(+82) 064-711-7400,"""https://api.cdn.visitjeju.net/photomng/imgpath/201907/23/b4893122-26be-4f7b-848b-623d8b360d42.jpg"""
씨엘블루호텔,제주특별자치도 제주시 서해안로 368-3,33.5115783,126.4847587,(+82) 064-727-5888,"""https://api.cdn.visitjeju.net/photomng/imgpath/201804/30/3c2f3125-58b0-4660-886f-d877b0295e53.jpg"""
씨오르리조트,제주특별자치도 서귀포시 이어도로 989,33.2423556,126.518405,(+82) 064-739-0114,"""https://api.cdn.visitjeju.net/photomng/imgpath/201804/30/84cd2d11-3dba-4b9b-a341-9c2cfec70c3b.jpg"""
아올키즈펜션,제주특별자치도 서귀포시 안덕면 사계중앙로 13-15,33.2301375,126.2980188,(+82) 010-7655-9513,"""https://api.cdn.visitjeju.net/photomng/imgpath/202107/30/0f602c5d-e4e6-4f23-bb13-b717cb5f32d6.jpg"""
아프리카게스트하우스,제주특별자치도 제주시 조천읍 신흥로2길 33,33.5489352,126.6516829,(+82) 070-7761-4410,"""https://api.cdn.visitjeju.net/photomng/imgpath/201804/30/d3d9134b-7168-403c-8ba5-b184b09e6ae2.gif"""
알랑가게스트하우스,제주특별자치도 서귀포시 안덕면 사계남로153번길 2,33.2288741,126.3065134,(+82) 070-8147-5105,"""https://api.cdn.visitjeju.net/photomng/imgpath/201804/30/4838d96c-e9a5-4e06-9983-e94266bc9bc2.jpg"""
애월포구풍경,제주특별자치도 제주시 애월읍 애월로11길 18,33.465918,126.3207894,(+82) 010-9944-3770,"""https://api.cdn.visitjeju.net/photomng/imgpath/202008/31/8a66d3e3-2327-4706-b4a8-6fccfba0a3b8.jpg"""
야크마을,제주특별자치도 서귀포시 색달중앙로 162,33.2685348,126.4165519,(+82) 064-760-1950,"""https://api.cdn.visitjeju.net/photomng/imgpath/202211/04/744777bf-38c1-486a-aa39-378d41ebd960.jpg"""
언덕위에 빨간지붕,제주특별자치도 서귀포시 성산읍 난고로499번길 17,33.4048715,126.8715943,(+82) 010-4352-3036,"""https://api.cdn.visitjeju.net/photomng/imgpath/202301/06/e98d3393-11fa-4f6c-8493-5a1fac65ea18.jpg"""
엠버퓨어힐호텔&리조트,제주특별자치도 제주시 1100로 2671-30,33.4264438,126.4870326,(+82) 064-801-3333,"""https://api.cdn.visitjeju.net/photomng/imgpath/201811/05/13127e1c-8977-4acb-96b8-bc68df142dd1.jpg"""
여울목게스트하우스,제주특별자치도 제주시 구좌읍 월정중길 51,33.5586756,126.7940029,(+82) 0507-1413-6623,"""https://api.cdn.visitjeju.net/photomng/imgpath/202308/18/b014ce39-dc90-442d-947e-d87c0989e144.jpg"""
예촌민박,서귀포시 남원읍 중산간동로 7126,33.2836169,126.6311431,(+82) 010-3119-3497,"""https://api.cdn.visitjeju.net/photomng/imgpath/201804/30/bf2a0e18-3e6d-4261-bab4-089ebc50d837.jpg"""
오름게스트하우스,제주특별자치도 제주시 구좌읍 충렬로 147-19,33.5097922,126.8466359,(+82) 010-4902-3677,"""https://api.cdn.visitjeju.net/photomng/imgpath/202211/04/72e0e347-a1b5-446a-a9c5-0be7e538a61d.jpg"""
오리엔탈호텔,제주특별자치도 제주시 탑동로 47,33.5174647,126.5197921,(+82) 064-752-8222,"""https://api.cdn.visitjeju.net/photomng/imgpath/202008/24/91c7f722-f293-4278-8726-018a4ee164be.jpg"""
올레리조트,제주특별자치도 제주시 애월읍 부룡수길 33,33.4755119,126.3562405,(+82),"""https://api.cdn.visitjeju.net/photomng/imgpath/201804/30/bf60f105-0604-43e8-b27f-44956bcba533.jpg"""
외돌개나라,제주특별자치도 서귀포시 남성로 122,33.2420381,126.5533588,(+82) 080-732-1188,"""https://api.cdn.visitjeju.net/photomng/imgpath/202205/17/39d38fdd-cfb7-48c7-a00b-67320337dd1d.jpg"""
용두암빌리지,제주특별자치도 제주시 용마서1길 27-5,33.5162454,126.5050692,(+82) 064-712-4334,"""https://api.cdn.visitjeju.net/photomng/imgpath/201804/30/eb38a047-aa54-4273-89ba-30189b60c73f.jpg"""
우도피아,제주특별자치도 제주시 우도면 영일진사길 51-40,33.5063681,126.9603332,(+82) 064-784-9621,"""https://api.cdn.visitjeju.net/photomng/imgpath/201804/30/2682e0ef-587d-47b6-b6dd-66a1cfdba52c.jpg"""
우리희망이 게스트하우스,제주시 조천읍 신흥관전길 60-1,33.5461285,126.649279,(+82) 010 - 8215 - 5836,"""https://api.cdn.visitjeju.net/photomng/imgpath/201804/30/30801c84-4ce7-48be-af7b-058311ee9018.jpg"""
위미모루왓,제주특별자치도 서귀포시 남원읍 위미항구로 51 (위미리),33.2789371,126.6559904,(+82) 064-764-7330,"""https://api.cdn.visitjeju.net/photomng/imgpath/201804/30/be234f93-73c3-408f-b326-378349c671c2.jpg"""
제니빌펜션,제주도 서귀포시 남원읍 태위로 604-15,33.2764387,126.7124406,(+82) 064-764-6777,"""https://api.cdn.visitjeju.net/photomng/imgpath/201810/26/66bf8b1d-58d1-46d2-bad8-8530caad1b32.jpg"""
제주 오션팰리스 호텔,제주특별자치도 서귀포시 중앙로 14,33.2459813,126.5623574,(+82) 064-730-5800,"""https://api.cdn.visitjeju.net/photomng/imgpath/201804/30/7865fcbd-5b23-4c07-a89c-cb2466f3f13c.jpg"""
제주 제이제이 게스트하우스,제주특별자치도 서귀포시 천제연로 103-15,33.2559258,126.4165496,(+82) 064-738-8151,"""https://api.cdn.visitjeju.net/photomng/imgpath/201804/30/e6055e47-f7ac-4e01-8459-f699987f6bb6.jpg"""
제주 퍼시픽호텔,제주특별자치도 제주시 서사로 20,33.5106318,126.5192136,(+82) 064-758-2500,"""https://api.cdn.visitjeju.net/photomng/imgpath/201804/30/2b6d6fdc-ab15-4242-ac72-6ff7afa8108d.jpeg"""
제주갤럭시호텔,제주특별자치도 제주시 남성로 33,33.5031537,126.5125886,(+82) 064-750-3355,"""https://api.cdn.visitjeju.net/photomng/imgpath/201804/30/3f226539-32dc-40ca-9813-bec3ff4f4b54.gif"""
제주도 레인보우,제주특별자치도 제주시 구좌읍 종달로 68-2,33.4921188,126.8959666,(+82) 070-4251-6923,"""https://api.cdn.visitjeju.net/photomng/imgpath/201804/30/9f823c6b-68ea-4140-9a77-961fb95f441a.jpg"""
제주로얄호텔,제주특별자치도 제주시 신대로12길 45,33.4885606,126.4917047,(+82) 064-743-2222,"""https://api.cdn.visitjeju.net/photomng/imgpath/201804/30/185f4123-b144-4d6a-968f-fbf59d510d51.jpg"""
제주베스트힐 펜션&글램핑,제주특별자치도 제주시 조천읍 남조로 2109-36,33.4536844,126.6574672,(+82) 0507-1471-3300,"""https://api.cdn.visitjeju.net/photomng/imgpath/201804/30/c8112004-1e2e-4f34-956b-0b68c6c908e2.jpg"""
제주시드니호텔,제주특별자치도 제주시 애월읍 애월해안로 943,33.4838125,126.3957148,(+82) 0507-1429-6688,"""https://api.cdn.visitjeju.net/photomng/imgpath/201804/30/38cda1d2-b09c-4c4a-ba95-11a6127dea22.jpg"""
제주썬호텔,제주특별자치도 제주시 삼무로 67,33.4901372,126.4939989,(+82) 064-741-8000,"""https://api.cdn.visitjeju.net/photomng/imgpath/201912/20/c991ebe6-ed50-4311-b6cb-934ac1a31b7e.jpg"""
제주애단비 마주,제주특별자치도 제주시 한림읍 어도봉남길 4,33.4122118,126.3039654,(+82) 010-3957-9782,"""https://api.cdn.visitjeju.net/photomng/imgpath/201804/30/0d9313c5-3585-4a2b-8922-1093b8bf6aff.gif"""
제주엠리조트,제주특별자치도 서귀포시 중산간서로157번길 28-6,33.2577831,126.4945114,(+82) 064-739-3883,"""https://api.cdn.visitjeju.net/photomng/imgpath/201810/22/b6981a8d-6598-40b0-84bf-bc2ace842f7e.jpg"""
제주이야기펜션,제주특별자치도 제주시 애월읍 유수암평화길 170-2,33.4288792,126.4094871,(+82) 010-8470-8882,"""https://api.cdn.visitjeju.net/photomng/imgpath/201909/30/45935718-fdbb-4387-bd5c-2722a234659c.jpg"""
중문그린힐통나무펜션,제주특별자치도 서귀포시 천제연로 103-36,33.2570725,126.4183815,(+82) 064-738-8807,"""https://api.cdn.visitjeju.net/photomng/imgpath/201804/30/c46c96ed-0548-418d-b704-a3628725e15c.jpg"""
중문스테이,제주툭별자치도 서귀포시 중문관광로 288,33.245866,126.4294737,(+82) 064-738-1956,"""https://api.cdn.visitjeju.net/photomng/imgpath/201804/30/a1a05596-cc88-48c9-a069-cacfd743e7b4.jpg"""
지니코티지,제주특별자치도 제주시 한경면 수동1길 15,33.3381257,126.2362755,(+82) 010-3142-7282,"""https://api.cdn.visitjeju.net/photomng/imgpath/201804/30/e43c513c-d9d7-4b06-9ae9-a96a75dbc41d.jpg"""
쫄깃센터,제주특별자치도 제주시 한림읍 협재1길 27,33.3977194,126.2431713,(+82) 010-3230-1689,"""https://api.cdn.visitjeju.net/photomng/imgpath/201804/30/301d86c3-150c-4900-b0f1-97772d98abaa.jpg"""
청춘게스트하우스,제주특별자치도 서귀포시 색달중앙로 22,33.2575064,126.4138662,(+82) 010-5852-4203,"""https://api.cdn.visitjeju.net/photomng/imgpath/201804/30/c742d73c-4ec5-4abd-b617-4ee1e5331a7d.jpg"""
초원게스트하우스,제주특별자치도 제주시 우도면 우도로 225,33.5118787,126.9520786,(+82) 0507-1414-6911,"""https://api.cdn.visitjeju.net/photomng/imgpath/201804/30/4a8ade19-ab3d-4cca-832c-42127c23973f.jpg"""
캠퍼트리 호텔앤리조트,제주특별자치도 제주시 해안마을서4길 100,33.4537783,126.4505575,(+82) 064-795-8888,"""https://api.cdn.visitjeju.net/photomng/imgpath/201804/30/1a2e39fa-1b8d-4110-a762-36a4a992993d.jpg"""
켄싱턴리조트 제주중문,제주특별자치도 서귀포시 중문관광로72번길 29-29,33.2472633,126.4125804,(+82) 064-738-9101,"""https://api.cdn.visitjeju.net/photomng/imgpath/201804/30/201c27f2-4640-4da5-b25e-42b91207c4ae.jpg"""
콴도제주,제주특별자치도 서귀포시 남원읍 태위로151번길 14-12,33.2764247,126.6651609,(+82) 010-4491-1996,"""https://api.cdn.visitjeju.net/photomng/imgpath/202205/17/f24adb08-c82f-44f3-be58-a434ab646531.jpg"""
토스카나호텔,제주특별자치도 서귀포시 용흥로66번길 158-7,33.2654814,126.4842785,(+82) 064-735-7000,"""https://api.cdn.visitjeju.net/photomng/imgpath/201804/30/a60f887b-b989-4309-a711-977ba99639f3.jpg"""
통나무파크,제주특별자치도 제주시 애월읍 도치돌길 303,33.4098961,126.3665965,(+82) 064-799-6909,"""https://api.cdn.visitjeju.net/photomng/imgpath/201804/30/c7e2d8fc-99fa-44bb-af8b-b91ace24c067.jpg"""
파크 선샤인 제주,제주특별자치도 서귀포시 남성중로 135,33.2435819,126.5535596,(+82) 064-766-1011,"""https://api.cdn.visitjeju.net/photomng/imgpath/201804/30/9763a467-7b06-4fdd-b100-306fe52d9601.gif"""
팜핑제주,제주특별자치도 서귀포시 중산간서로400번길 105,33.2689768,126.4726432,(+82) 070-4101-1060,"""https://api.cdn.visitjeju.net/photomng/imgpath/201804/30/cf17ff62-6e03-4803-8db8-78113cb9d184.png"""
펜션머물다,제주특별자치도 서귀포시 논짓물로48번길 16-6,33.2415502,126.3874763,(+82) 064-739-5937,"""https://api.cdn.visitjeju.net/photomng/imgpath/201912/03/7b46bb21-f8af-4907-add0-4500735712dc.jpg"""
편운산장,제주도 서귀포시 성산읍 서성일로 898-38,33.4374901,126.8751805,(+82) 064-784-8088,"""https://api.cdn.visitjeju.net/photomng/imgpath/201907/08/00decd2b-6cb0-4ef4-9f6c-748a6dc407b6.jpg"""
풍경호텔,제주특별자치도 서귀포시 남성중로 147,33.2448563,126.5535325,(+82) 064-733-3355,"""https://api.cdn.visitjeju.net/photomng/imgpath/201804/30/82b63949-ff41-4920-b065-7635c35bfc5f.jpg"""
프레리아 커플 독채펜션,제주특별자치도 제주시 애월읍 유수암평화5길 34-29,33.4255215,126.4050217,(+82) 0507-1357-7042,"""https://api.cdn.visitjeju.net/photomng/imgpath/202212/06/ed74cd74-30b6-4ef2-9b26-740df8f62705.jpg"""
플로라제이드림호텔,제주특별자치도 제주시 은남1길 40,33.4894347,126.4915605,(+82) 0507-1397-0002,"""https://api.cdn.visitjeju.net/photomng/imgpath/201907/19/45f82e17-8d18-4f06-9106-6c6019b63544.jpg"""
하늘고래블루,제주특별자치도 제주시 한림읍 협재1길 59-4,33.3994245,126.2460778,(+82) 0507-1393-2205,"""https://api.cdn.visitjeju.net/photomng/imgpath/201912/06/645c019b-7699-4701-b99c-44f6137375f3.jpg"""
하도리보통날,제주특별자치도 제주시 구좌읍 하도1길 33,33.5205496,126.87876,(+82) 010-8507-9314,"""https://api.cdn.visitjeju.net/photomng/imgpath/201804/30/d3ab4582-3097-42fc-8e78-c9de547c70b2.jpg"""
하도하도1929,제주시 구좌읍 하도리 하도서문길 2,33.5274765,126.8813718,(+82) 010-5325-8297,"""https://api.cdn.visitjeju.net/photomng/imgpath/201804/30/72fccc59-2f3a-43c4-b433-03aad2ca4072.gif"""
하랑 게스트하우스,제주특별자치도 서귀포시 대정읍 일과로13번길 1,33.2328137,126.2436332,(+82) 010-4404-5585,"""https://api.cdn.visitjeju.net/photomng/imgpath/202211/08/21ced9e9-6f93-4d7a-950c-e6aa88854dca.jpg"""
하얀산호민박,제주특별자치도 제주시 우도면 우도해안길 144,33.4943693,126.945111,(+82) 064-784-9090,"""https://api.cdn.visitjeju.net/photomng/imgpath/202211/02/99350009-798d-4ebd-8051-602d58c31808.jpg"""
한옥호텔 한라궁,제주특별자치도 서귀포시 정방연로 6,33.2483613,126.5782819,(+82) 064-732-7900,"""https://api.cdn.visitjeju.net/photomng/imgpath/201907/10/8a87031b-5edb-4280-a85f-96ac6a14238a.jpg"""
함덕산티아고게스트하우스,제주특별자치도 제주시 조천읍 신촌9길 47-2,33.5388752,126.6224192,(+82) 010-3878-1558,"""https://api.cdn.visitjeju.net/photomng/imgpath/201804/30/3369f501-7964-4fb1-b229-e6d729b423cd.jpg"""
해바라기,제주도 제주시 한림읍 협재로 33,33.39548,126.2470347,(+82) 064-796-8771,"""https://api.cdn.visitjeju.net/photomng/imgpath/201804/30/fd6a8ecf-fd31-4df1-9ccc-28c0b8bc64ff.jpg"""
해바라기 펜션,제주특별자치도 서귀포시 표선면 일주동로6285번길 13-12,33.3056128,126.8013533,(+82) 010-5115-2003,"""https://api.cdn.visitjeju.net/photomng/imgpath/201804/30/3823cb81-c795-47bc-90d7-796bb731df9c.jpg"""
해변산책펜션,제주특별자치도 제주시 애월읍 곽지9길 7,33.4520323,126.3080272,(+82) 064-799-6161,"""https://api.cdn.visitjeju.net/photomng/imgpath/201804/30/4ec97683-b753-4a65-9e59-299b77b48e8d.gif"""
해안길펜션,제주특별자치도 제주시 우도면 우도해안길 690,33.5199851,126.9582397,(+82) 064-783-2087,"""https://api.cdn.visitjeju.net/photomng/imgpath/201804/30/7bb2b442-ccc7-48c7-a71e-053c14e1a37c.jpg"""
해오름정원,제주특별자치도 제주시 애월읍 상하귀길 98-1,33.4750229,126.4167515,(+82) 064-712-0330,"""https://api.cdn.visitjeju.net/photomng/imgpath/201804/30/d72aed15-7356-4cf9-97a7-5427c5d8eaaa.gif"""
헤리티지,제주특별자치도 제주시 애월읍 하광로 530,33.4442631,126.429542,(+82) 064-748-0005,"""https://api.cdn.visitjeju.net/photomng/imgpath/201804/30/38a4819e-a4d2-4d32-85b0-90c43f9b42b7.gif"""
호텔 징크,제주특별자치도 서귀포시 중정로 11,33.2477319,126.5575934,(+82) 064-762-9800,"""https://api.cdn.visitjeju.net/photomng/imgpath/202212/06/52b7dc88-eb75-4d3f-9322-9555aca53836.jpg"""
호텔난타,제주특별자치도 제주시 선돌목동길 56-26,33.4456536,126.5475963,(+82) 064-727-0602,"""https://api.cdn.visitjeju.net/photomng/imgpath/202209/19/b4e76892-5e50-4bf0-81f9-d67b5d806225.jpg"""
휘슬락호텔,제주특별자치도 제주시 서부두2길 26,33.5174035,126.527508,(+82) 064-795-7000,"""https://api.cdn.visitjeju.net/photomng/imgpath/201804/30/f0104205-f900-4aa2-9096-6c4f29647b98.jpg"""
흰고래게스트하우스,제주특별자치도 서귀포시 이어도로1066번길 26,33.2440035,126.523662,(+82) 010-2955-0471,"""https://api.cdn.visitjeju.net/photomng/imgpath/202211/03/32710f4a-b763-4960-926f-8e2174fbddec.jpg"""
흰수염고래리조트,제주특별자치도 제주시 애월읍 일주서로 6818,33.4749604,126.3802403,(+82) 064-747-5553,"""https://api.cdn.visitjeju.net/photomng/imgpath/201804/30/6370297e-8d29-4594-97bc-71eed23c6865.jpg"""
1915 지오하우스,제주특별자치도 서귀포시 성산읍 성산등용로 14,33.4652236,126.9330757,(+82) 010-3691-8166,"""https://api.cdn.visitjeju.net/photomng/imgpath/201804/30/25e7e41b-cf33-439e-91c6-2b61354a11fd.jpg"""
521 게스트 하우스,제주특별자치도 제주시 애월읍 중용길 52-1 (신엄리) 521 게스트 하우스,33.4691122,126.3713548,(+82) 010-3725-4692,"""https://api.cdn.visitjeju.net/photomng/imgpath/201804/30/bc54c93d-930b-4cba-a7a2-34c9778f5cc4.jpg"""
ATnoon호텔,제주특별자치도 제주시 은남1길 8,33.4893381,126.4949769,(+82) 064-749-2500,"""https://api.cdn.visitjeju.net/photomng/imgpath/201811/12/2f691ca5-58a6-4fb8-87b8-d186f367b071.jpg"""
BK호텔제주,제주특별자치도 서귀포시 칠십리로91번길 12,33.2410573,126.564319,(+82) 064-763-0779,"""https://api.cdn.visitjeju.net/photomng/imgpath/201804/30/5e7a76d9-4402-482b-b8e7-5cff93ae2523.jpg"""
CS빌리지,제주특별자치도 제주시 애월읍 애월해안로 532-7,33.4784883,126.3602014,(+82) 064-799-8259,"""https://api.cdn.visitjeju.net/photomng/imgpath/201804/30/929ca397-4948-4412-8eef-780559150e81.jpg"""
For 安,제주특별자치도 제주시 한림읍 옹포2길 12,33.3996973,126.2497881,(+82) 064-796-4900,"""https://api.cdn.visitjeju.net/photomng/imgpath/201804/30/e5c0ddae-68d4-4ebd-b482-b4b0dd19204a.jpg"""
IGH펜션,제주시 한경면 금등3길 25,33.3639446,126.193362,(+82) 010-8664-3340,"""https://api.cdn.visitjeju.net/photomng/imgpath/201804/30/551c8fb2-9b89-4973-aa0f-12b6da074be3.jpg"""
K관광호텔,제주특별자치도 제주시 연동3길 10,33.4890526,126.4879189,(+82) 064-743-2123,"""https://api.cdn.visitjeju.net/photomng/imgpath/201804/30/411f70ba-464c-4f82-8f8f-a4933203ef74.jpg"""
UTS제주골프빌리지,제주도 제주시 애월읍 광령평화2길 170-2,33.4309109,126.4343274,(+82) 064-799-0794,"""https://api.cdn.visitjeju.net/photomng/imgpath/201804/30/80806c59-7cd4-449e-87b9-265479213bfb.gif"""
ZeZuZip,제주 특별자치도 서귀포시 성산읍 삼달로 235-17,33.3742674,126.8436941,(+82) 010-2695-4342,"""https://api.cdn.visitjeju.net/photomng/imgpath/201804/30/e89fc727-5abf-478a-a8f3-a4954c961c25.gif"""
가름게스트하우스,제주특별자치도 서귀포시 법환하로9번길 10,33.2365443,126.5123459,(+82) 064-739-4499,"""https://api.cdn.visitjeju.net/photomng/imgpath/201804/30/5db5636a-1b95-45f5-b12c-f4b660f0db4c.jpg"""
가비오타 펜션,제주특별자치도 제주시 구좌읍 해맞이해안로 2030 가동,33.5290971,126.8463777,(+82) 010-5809-2866,"""https://api.cdn.visitjeju.net/photomng/imgpath/202212/02/6e68c613-1153-42d2-a20f-18a4be9437e3.jpg"""
가산토방,제주특별자치도 서귀포시 인정오름로86번길 3,33.2877115,126.5776012,(+82) 064-732-2095,"""https://api.cdn.visitjeju.net/photomng/imgpath/201811/01/e374b2f9-6b9d-47a6-a55a-17f633a3a70b.jpg"""
가이아호텔,제주특별자치도 제주시 연동7길 4,33.4894336,126.4906265,(+82) 064-742-6110,"""https://api.cdn.visitjeju.net/photomng/imgpath/202212/02/5d808ec3-1342-436c-bccf-b0c34fe425f0.jpg"""
가파도민박,제주특별자치도 서귀포시 대정읍 가파로67번길 5,33.1662812,126.2728337,(+82) 064-794-7083,"""https://api.cdn.visitjeju.net/photomng/imgpath/201912/17/9a02ce68-c8f4-451d-907d-5a3af1082e5f.jpg"""
가파도상동펜션,제주특별자치도 서귀포시 대정읍 가파로 255,33.1741216,126.2699112,(+82) 010-2699-3029,"""https://api.cdn.visitjeju.net/photomng/imgpath/201804/30/5a1fb7b2-bf0a-40c1-8c83-82c837f2caca.jpg"""
간드락게스트하우스,제주특별자치도 제주시 간월동로 12,33.4854159,126.5439156,(+82) 0507-1400-8402,"""https://api.cdn.visitjeju.net/photomng/imgpath/201804/30/88cba8ba-4603-474c-8ce9-a270324b51d8.jpg"""
감비나무,제주특별자치도 제주시 구좌읍 일주동로 2970,33.5291728,126.8123293,(+82) 010-7174-1964,"""https://api.cdn.visitjeju.net/photomng/imgpath/201804/30/b470e55e-7c06-4aee-a114-584124e13c63.jpg"""
강남하우스펜션,제주특별자치도 서귀포시 대정읍 형제해안로 316,33.2072035,126.2903035,(+82) 010-2886-3527,"""https://api.cdn.visitjeju.net/photomng/imgpath/201804/30/1e0f077a-ea66-494f-9e88-efc8d3b1170c.jpg"""
강정서부민박,제주도 서귀포시 이어도로 602,33.2352792,126.4806485,(+82) 064-739-1851,"""https://api.cdn.visitjeju.net/photomng/imgpath/201804/30/4dc77c5d-c0d1-470d-ab70-ead130418381.jpg"""
갤러리 호텔 비앤비,제주특별자치도 제주시 삼무로3길 48,33.4905982,126.4906734,(+82) 064-744-8400,"""https://api.cdn.visitjeju.net/photomng/imgpath/201804/30/b06be31a-6907-4bc7-a878-e985b11cd21c.gif"""
갤러리민박,제주특별자치도 제주시 추자면 신양서길 42-2,33.9423913,126.3215436,(+82) 010-8543-7449,"""https://api.cdn.visitjeju.net/photomng/imgpath/201804/30/c584747c-6920-4e69-bea1-d1168947e79d.jpg"""
갯바위펜션,제주특별자치도 서귀포시 하예하동로 37,33.2335567,126.3727512,(+82) 064-738-2761,"""https://api.cdn.visitjeju.net/photomng/imgpath/201908/20/d837e4e5-7b82-474f-aa05-a4dc66342a5f.jpg"""
거드락지민박,제주특별자치도 제주시 한림읍 한림로 350,33.3944773,126.2413318,(+82) 010-4704-0425,"""https://api.cdn.visitjeju.net/photomng/imgpath/201912/03/1fe122b2-a0d3-4425-84bd-f70658c0b970.jpg"""
게스트하우스7,제주특별자치도 제주시 용문로 168 (용담 2동) 2층,33.5089363,126.5111542,(+82) 010-6798-7888,"""https://api.cdn.visitjeju.net/photomng/imgpath/201804/30/c1940273-6b3b-4103-a2ad-86dca9f74234.jpg"""
게으르게,제주특별자치도 제주시 조천읍 신북로 410,33.5434239,126.654092,(+82) 010-5278-6167,"""https://api.cdn.visitjeju.net/photomng/imgpath/201804/30/1f07939b-6b1f-4ded-87b8-e0b88668db9b.jpg"""
곁겹,제주특별자치도 제주시 한림읍 한림로 224-6,33.3860092,126.2318543,(+82) 0507-1323-6055,"""https://api.cdn.visitjeju.net/photomng/imgpath/202211/09/800aaea8-921d-47ac-8d38-918da2267875.jpg"""
고려민박,제주특별자치도 제주시 추자면 영흥4길 66,33.9586699,126.2977319,(+82) 010-3618-3835,"""https://api.cdn.visitjeju.net/photomng/imgpath/202211/14/0ca41857-26eb-447f-8dbc-1d2aa61d57d6.jpg"""
고불락하우스,제주특별자치도 제주시 애월읍 고내로7길 45-12,33.4667429,126.3365337,(+82) 064-799-0393,"""https://api.cdn.visitjeju.net/photomng/imgpath/201908/20/31ac6021-f39a-4528-830e-c8b3a7aec105.jpg"""
고산별곡,제주특별자치도 제주시 한경면 고산로2길 6-3,33.3028721,126.1803043,(+82) 0507-1327-6463,"""https://api.cdn.visitjeju.net/photomng/imgpath/201804/30/79e81bd2-e8c7-41d5-bd5a-6af2f274c8c2.jpg"""
고성2119펜션위플레이독,제주특별자치도 서귀포시 성산읍 서성일로1136번길 10-1,33.4440658,126.8995516,(+82) 010-4693-5404,"""https://api.cdn.visitjeju.net/photomng/imgpath/202211/14/248a4b61-c5e1-4564-8bf4-a32f906798c9.jpg"""
골드원 호텔 & 스위트,제주특별자치도 서귀포시 이어도로 1032,33.2441637,126.5223564,(+82) 064) 801-5000,"""https://api.cdn.visitjeju.net/photomng/imgpath/202308/18/657d73e3-4558-450c-91c7-3cf27f3d6f90.jpg"""
골든비치,제주도 제주시 서해안로 486-3,33.5187422,126.4911561,(+82) 064-743-8100,"""https://api.cdn.visitjeju.net/photomng/imgpath/202009/29/12cad39e-745a-458b-b9d0-62d61b3cdac4.jpg"""
곰씨비씨게스트하우스,제주특별자치도 서귀포시 안덕면 난드르로21번길 13-7,33.2341481,126.3670309,(+82) 070-3330-7101,"""https://api.cdn.visitjeju.net/photomng/imgpath/201804/30/d2324dda-9346-4044-ade4-911900435dbe.jpg"""